ID,INTITULE,CATEGORIES,NOMENCLATURE,SITE_WEB,ADRESSE,CODE_INSEE,CODE_POSTAL,COMMUNE,TELEPHONE,FAX,HORAIRES_OUVERTURE,LATTITUDE,LONGITUDE,PRECISION,ORGANISME,URL,RUE,FAX,COURRIEL,TELEPHONE,CATEGORIES,ACTIVITES,RESSORT,ORGANISME_TUTEUR,MISSION,INTERVENANTS,AUDIENCES_TGI
4cac9e87293594648a004ccd,Tribunal de Grande Instance de Meaux,justice-organisme-public,tgi,http://www.justice.gouv.fr/,44 Avenue Salvador Allendé B.P. 230,77284,77108,MEAUX CEDEX,+33 1 60 09 75 00,+33 1 60 09 75 20,Du Lundi au Vendredi : de 9h à 12h et de 13h30 à 17h,48.956216,2.888272,8,Ministère de la justice,http://lannuaire.service-public.fr/services_locaux/ile-de-france/seine-et-marne/tgi-77284-01.html,,,,,, ,,,,,
4cac9e87293594648a004ccc,Tribunal de Grande Instance du Mans,justice-organisme-public,tgi,http://www.justice.gouv.fr/,Cité Judiciaire 1 Avenue Pierre Mendès-France,72181,72014,LE MANS CEDEX 2,+33 2 43 83 77 00,+33 2 43 83 78 79,Du Lundi au Vendredi : de 9h à 12h et de 13h30 à 16h30,48.0064699,0.1997661,6,Ministère de la justice,http://lannuaire.service-public.fr/services_locaux/pays-de-la-loire/sarthe/tgi-72181-01.html,,,,,, ,,,,,
4cac9e87293594648a004ccf,Tribunal de Grande Instance de Draguignan,justice-organisme-public,tgi,http://www.justice.gouv.fr/,Palais de Justice 11 Rue Pierre Clément   B.P. 273,83050,83007,DRAGUIGNAN CEDEX,+33 4 94 60 57 00,+33 4 94 47 01 92,Du Lundi au Vendredi : de 8h à 12h et de 13h30 à 17h,43.537228,6.447793,4,Ministère de la justice,http://lannuaire.service-public.fr/services_locaux/provence-alpes-cote-d-azur/var/tgi-83050-01.html,,,,,, ,,,,,
4cac9e87293594648a004cce,Tribunal de Grande Instance de Versailles,justice-organisme-public,tgi,http://www.justice.gouv.fr/, ,78646,78011,VERSAILLES CEDEX,+33 1 39 07 39 07,+33 1 39 07 35 57,Du Lundi au Vendredi : de 8h30 à 12h30 et de 13h à 17h,48.803612,2.130523,6,Ministère de la justice,http://lannuaire.service-public.fr/services_locaux/ile-de-france/yvelines/tgi-78646-01.html,3 Avenue de l'Europe,+33 1 39 07 35 59,,,, ,,,,,
4cac9e87293594648a004cc9,Tribunal de Grande Instance de Blois,justice-organisme-public,tgi,http://www.justice.gouv.fr/, ,41018,41018,BLOIS CEDEX,+33 2 54 44 60 99,+33 2 54 74 11 40,Du Lundi au Vendredi : de 8h30 à 12h et de 13h30 à 17h,47.589372,1.3338,6,Ministère de la justice,http://lannuaire.service-public.fr/services_locaux/centre/loir-et-cher/tgi-41018-01.html,Place de la République,,,,, ,,,,,
4cac9e87293594648a004cc8,Tribunal de Grande Instance de Vienne,justice-organisme-public,tgi,http://www.justice.gouv.fr/, ,38544,38209,VIENNE CEDEX,+33 4 74 78 81 81,+33 4 74 78 81 69,Du Lundi au Vendredi : de 9h à 12h et de 14h à 16h30,45.525884,4.8739588,8,Ministère de la justice,http://lannuaire.service-public.fr/services_locaux/rhone-alpes/isere/tgi-38544-01.html,16 Place Charles de Gaulle,,,,, ,,,,,
4cac9e87293594648a004ccb,Tribunal de Grande Instance de Nevers,justice-organisme-public,tgi,http://www.justice.gouv.fr/,Place du Palais B.P. 6,58194,58019,NEVERS CEDEX,+33 3 86 93 44 44,+33 3 86 36 83 09,Du Lundi au Vendredi : de 8h30 à 12h et de 13h30 à 17h,46.986588,3.157571,6,Ministère de la justice,http://lannuaire.service-public.fr/services_locaux/bourgogne/nievre/tgi-58194-01.html,,,,,, ,,,,,
4cac9e87293594648a004cca,Tribunal de Grande Instance de Metz,justice-organisme-public,tgi,http://www.justice.gouv.fr/,3 Rue Haute Pierre B.P. 81022,57463,57036,METZ CEDEX 01,+33 3 87 56 75 00,+33 3 87 56 75 15,Du Lundi au Vendredi : de 8h30 à 11h45 et de 13h30 à 16h30,49.116779,6.171264,8,Ministère de la justice,http://lannuaire.service-public.fr/services_locaux/lorraine/moselle/tgi-57463-01.html,,,,,, ,,,,,
4cac9e87293594648a004cc4,Tribunal de Grande Instance d'Ajaccio,justice-organisme-public,tgi,http://www.justice.gouv.fr/,4 boulevard Masseria BP 47,2A004,20181,AJACCIO CEDEX 1,+33 4 95 29 06 06,+33 4 95 29 06 05,,41.925605,8.736978,8,Ministère de la justice,http://lannuaire.service-public.fr/services_locaux/corse/corse-du-sud/tgi-2A004-01.html,,,,,, ,,,,,
4cac9e87293594648a004cc7,Tribunal de Grande Instance de Tours,justice-organisme-public,tgi,http://www.justice.gouv.fr/, ,37261,37928,TOURS CEDEX 9,+33 2 47 60 26 60,+33 2 47 60 26 61,Du Lundi au Vendredi : de 9h à 12h et de 14h à 17h,47.3900896,0.6897644,8,Ministère de la justice,http://lannuaire.service-public.fr/services_locaux/centre/indre-et-loire/tgi-37261-01.html,2 Place Jean-Jaurès,,,,, ,,,,,
4cac9e87293594648a004cc6,Tribunal de Grande Instance de Saint-Malo,justice-organisme-public,tgi,http://www.justice.gouv.fr/,1 Place Saint-Aaron CS 51731,35288,35417,ST MALO CEDEX,+33 2 99 20 20 20,+33 2 99 20 20 80,"Du Lundi au Jeudi : de 9h à 12h et de 14h à 17h
Le Vendredi : de 9h à 12h et de 14h à 16h",48.6481785,-2.0260898,4,Ministère de la justice,http://lannuaire.service-public.fr/services_locaux/bretagne/ille-et-vilaine/tgi-35288-01.html,,,,,, ,,,,,
4cac9e5e293594648a000084,Tribunal de Première Instance de Mata-Utu,justice-organisme-public,tgi,,Tribunal de Première Instance de MATA-UTU,98613,98600,UVEA,+681 72 27 15,+681 72 25 31,,-13.2833333,-176.1833333,4,Ministère de la justice,,,,,,, ,,,,,
4cac9e5e293594648a000085,Tribunal de Première Instance de Nouméa,justice-organisme-public,tgi,,2 Bd Extérieur   Fg Blanchot B.P. F4,98818,98848,NOUMEA CEDEX,+687 27 93 50,+687 28 51 59,,-22.2758333,166.4580556,4,Ministère de la justice,,,,,,, ,,,,,
4cac9e87293594648a004cc3,Tribunal de Grande Instance de Quimper,justice-organisme-public,tgi,http://www.justice.gouv.fr/, ,29232,29327,QUIMPER CEDEX,+33 2 98 82 88 00,+33 2 98 52 94 06,Du Lundi au Vendredi : de 9h à 12h et de 13h30 à 17h,47.992566,-4.108723,8,Ministère de la justice,http://lannuaire.service-public.fr/services_locaux/bretagne/finistere/tgi-29232-01.html,48 A quai de l'Odet,,,,, ,,,,,
4cac9e87293594648a004cc2,Tribunal de Grande Instance de Périgueux,justice-organisme-public,tgi,http://www.justice.gouv.fr/,19 Bis Cours Montaigne B.P. 9051,24322,24019,PERIGUEUX CEDEX,+33 5 53 02 77 00,+33 5 53 08 26 76,Du Lundi au Vendredi : de 8h à 17h,45.185563,0.720548,6,Ministère de la justice,http://lannuaire.service-public.fr/services_locaux/aquitaine/dordogne/tgi-24322-01.html,,,tgi-perigueux@justice.fr,,, ,,,,,
4cac9e87293594648a004cd4,Tribunal de Grande Instance de Saint-Pierre,justice-organisme-public,tgi,http://www.justice.gouv.fr/,28 Rue Augustin Archambeaud B.P. 338,97416,97448,ST PIERRE CEDEX,+33 2 62 96 10 00,+33 2 62 25 84 33,"Du Lundi au Jeudi : de 8h à 12h et de 13h30 à 16h30
Le Vendredi : de 8h à 12h et de 13h à 15h30",-21.323885,55.486915,8,Ministère de la justice,http://lannuaire.service-public.fr/services_locaux/la-reunion/la-reunion/tgi-97416-01.html,,,,,, ,,,,,
4cac9e6a293594648a00178e,Tribunal de Grande Instance de Troyes,justice-organisme-public,tgi,http://www.justice.gouv.fr/, ,10387,10026,TROYES CEDEX,+33 3 25 43 55 70,+33 3 25 73 55 44,Du Lundi au Vendredi : de 8h30 à 12h et de 14h à 17h,48.297202,4.069243,8,Ministère de la justice,http://lannuaire.service-public.fr/services_locaux/champagne-ardenne/aube/tgi-10387-01.html,83 Rue du Général de Gaulle,,,,, ,,,,,
4cac9e87293594648a004cd1,Tribunal de Grande Instance de Carpentras,justice-organisme-public,tgi,http://www.justice.gouv.fr/,Place du Général de Gaulle B.P. 265,84031,84208,CARPENTRAS CEDEX,+33 4 90 63 66 00,+33 4 90 63 57 78,Du Lundi au Vendredi : de 9h à 11h45 et de 14h à 16h45,44.061565,5.057299,4,Ministère de la justice,http://lannuaire.service-public.fr/services_locaux/provence-alpes-cote-d-azur/vaucluse/tgi-84031-01.html,,,,,, ,,,,,
4cac9e87293594648a004cd0,Tribunal de Grande Instance d'Avignon,justice-organisme-public,tgi,http://www.justice.gouv.fr/,Palais de Justice 2 Boulevard Limbert,84007,84078,AVIGNON CEDEX 9,+33 4 32 74 74 00,+33 4 32 74 75 20,Du Lundi au Vendredi : de 8h à 12h et de 14h à 17h,43.944784,4.816066,8,Ministère de la justice,http://lannuaire.service-public.fr/services_locaux/provence-alpes-cote-d-azur/vaucluse/tgi-84007-01.html,,,,,, ,,,,,
4cac9e87293594648a004cd3,Tribunal de Grande Instance de Saint-Denis-de-La-Réunion,justice-organisme-public,tgi,http://www.justice.gouv.fr/,5 Avenue André Malraux B.P. 338,97411,97494,STE CLOTILDE CEDEX,+33 2 62 40 23 45,+33 2 62 40 23 02,Du Lundi au Vendredi : de 7h45 à 12h30 et de 13h30 à 15h30,-20.888016,55.46583,6,Ministère de la justice,http://lannuaire.service-public.fr/services_locaux/la-reunion/la-reunion/tgi-97411-01.html,,,,,, ,,,,,
4cac9e87293594648a004cd2,Tribunal de Grande Instance de Limoges,justice-organisme-public,tgi,http://www.justice.gouv.fr/,Palais de Justice 17 Place d'Aine,87085,87031,LIMOGES CEDEX 1,+33 5 55 11 81 00,+33 5 55 34 18 49,Du Lundi au Vendredi : de 8h30 à 12h30 et de 13h30 à 17h,45.830161,1.255227,6,Ministère de la justice,http://lannuaire.service-public.fr/services_locaux/limousin/haute-vienne/tgi-87085-01.html,,,,,, ,,,,,
4cac9e61293594648a00059e,Tribunal de Grande Instance de Briey,justice-organisme-public,tgi,http://www.justice.gouv.fr/,Cité Judiciaire Place de l'Eglise B.P. 139,54099,54151,BRIEY CEDEX,+33 3 82 47 56 00,+33 3 82 47 56 30,Du Lundi au Vendredi : de 8h30 à 12h et de 13h30 à 16h30,49.252821,5.974587,4,Ministère de la justice,http://lannuaire.service-public.fr/services_locaux/lorraine/meurthe-et-moselle/tgi-54099-01.html,,,,,, ,,,,,
4cac9e6a293594648a0017be,Tribunal de Grande Instance de Nanterre,justice-organisme-public,tgi,http://www.justice.gouv.fr/, ,92050,92020,NANTERRE CEDEX,+33 1 40 97 10 10,+33 1 47 24 31 61,Du Lundi au Vendredi : de 9h à 17h,48.8970987,2.2176603,8,Ministère de la justice,http://lannuaire.service-public.fr/services_locaux/ile-de-france/hauts-de-seine/tgi-92050-01.html,179-191 Avenue Joliot Curie,,,,, ,,,,,
4cac9e6a293594648a001794,Tribunal de Grande Instance de Brest,justice-organisme-public,tgi,http://www.justice.gouv.fr/,32 Rue de Denver B.P. 60123,29019,29601,BREST CEDEX 2,+33 2 98 33 78 00,+33 2 98 33 78 01,Du Lundi au Vendredi : de 8h30 à 12h et de 13h à 16h30,48.384325,-4.485586,8,Ministère de la justice,http://lannuaire.service-public.fr/services_locaux/bretagne/finistere/tgi-29019-01.html,,,,,, ,,,,,
4cac9e87293594648a004cc1,Tribunal de Grande Instance de Saint-Brieuc,justice-organisme-public,tgi,http://www.justice.gouv.fr/,Parc des Promenades B.P. 2357,22278,22023,ST BRIEUC CEDEX 1,+33 2 96 62 30 00,+33 2 96 33 11 52,Du Lundi au Vendredi : de 8h30 à 12h et de 13h30 à 16h30,48.513017,-2.757331,6,Ministère de la justice,http://lannuaire.service-public.fr/services_locaux/bretagne/cotes-d-armor/tgi-22278-01.html,,,,,, ,,,,,
4cac9e61293594648a0005bc,Tribunal de Grande Instance de Bayonne,justice-organisme-public,tgi,http://www.ca-pau.justice.fr/, ,64102,64100,BAYONNE,+33 5 59 44 54 00,+33 5 59 44 54 54,Du Lundi au Vendredi : de 9h à 12h et de 14h à 17h,43.4928709,-1.4881017,6,Ministère de la justice,http://lannuaire.service-public.fr/services_locaux/aquitaine/pyrenees-atlantiques/tgi-64102-01.html,Avenue de la Légion Tchèque,,ca-pau@justice.fr,,, ,,,,,
4cac9e61293594648a0005be,Tribunal de Grande Instance de Villefranche-sur-Saône,justice-organisme-public,tgi,http://www.justice.gouv.fr/,Palais de Justice 350 Bld Gambetta   B.P. 474,69264,69665,VILLEFRANCHE SUR SAONE CED,+33 4 74 65 63 63,+33 4 74 60 61 12,Du Lundi au Vendredi : de 8h30 à 12h et de 13h30 à 17h,45.986718,4.722057,4,Ministère de la justice,http://lannuaire.service-public.fr/services_locaux/rhone-alpes/rhone/tgi-69264-01.html,,,,,, ,,,,,
4cac9e61293594648a0005bf,Tribunal de Grande Instance de Lyon,justice-organisme-public,tgi,http://www.justice.gouv.fr/, ,69383,69433,LYON CEDEX 03,+33 4 72 60 70 12,+33 4 72 60 72 38,Du Lundi au Vendredi : de 8h à 17h,45.7603055,4.8465698,8,Ministère de la justice,http://lannuaire.service-public.fr/services_locaux/rhone-alpes/rhone/tgi-69383-01.html,67 Rue Servient,,,,, ,,,,,
4cac9e61293594648a0005ba,Tribunal de Grande Instance de Saint-Omer,justice-organisme-public,tgi,http://www.justice.gouv.fr/, ,62765,62503,ST OMER CEDEX,+33 3 21 98 79 70,+33 3 21 98 79 88,Du Lundi au Vendredi : de 8h30 à 12h et de 13h30 à 16h30,50.747411,2.253846,8,Ministère de la justice,http://lannuaire.service-public.fr/services_locaux/nord-pas-de-calais/pas-de-calais/tgi-62765-01.html,3 Rue des Tribunaux,,cgi-st-omer@justice.fr,,, ,,,,,
4cac9e67293594648a0011f4,Tribunal de grande instance de Mamoudzou,justice-organisme-public,tgi,, ,97611,97600,MAMOUDZOU,,,,,,,Ministère de la justice,,,,,,, ,,,,,
4cac9e61293594648a0005ae,Tribunal de Grande Instance de Compiègne,justice-organisme-public,tgi,http://www.justice.gouv.fr/,11 Rue Henri de Séroux B.P. 80059,60159,60321,COMPIEGNE CEDEX,+33 3 44 38 35 24,+33 3 44 40 18 90,Du Lundi au Vendredi : de 8h30 à 17h,49.417087,2.82813,8,Ministère de la justice,http://lannuaire.service-public.fr/services_locaux/picardie/oise/tgi-60159-01.html,,,,,, ,,,,,
4cac9e61293594648a000574,Tribunal de Grande Instance de Montpellier,justice-organisme-public,tgi,http://www.justice.gouv.fr/, ,34172,34040,MONTPELLIER CEDEX 1,+33 4 67 12 60 00,+33 4 67 12 63 91,Du Lundi au Vendredi : de 8h30 à 12h et de 13h30 à 16h45,43.6104379,3.868906,6,Ministère de la justice,http://lannuaire.service-public.fr/services_locaux/languedoc-roussillon/herault/tgi-34172-01.html,Place Pierre Flotte,,,+33 4 67 12 62 05,, ,,,,,
4cac9e61293594648a00057d,Tribunal de Grande Instance de Dax,justice-organisme-public,tgi,http://www.ca-pau.justice.fr/,Rue des Fusillés B.P. 355,40088,40107,DAX CEDEX,+33 5 58 56 88 20,+33 5 58 74 60 71,Du Lundi au Vendredi : de 9h à 12h et de 14h à 17h,43.709466,-1.051532,6,Ministère de la justice,http://lannuaire.service-public.fr/services_locaux/aquitaine/landes/tgi-40088-01.html,,,ca-pau@justice.fr,,, ,,,,,
4cac9e5f293594648a0001a7,Section Détachée du Tribunal de Première Instance à Lifou,,tpisd,, ,98814,98820,WE,+687 45 12 82,+687 45 11 44,,-21.0384968,167.2405153,6,Ministère de la justice,,Section Détachée de Lifou,,,,, ,,,,,
4cac9e6a293594648a0017b5,Tribunal de Grande Instance de Chalon-sur-Saône,justice-organisme-public,tgi,http://www.justice.gouv.fr/, ,71076,71331,CHALON SUR SAONE CEDEX,+33 3 85 93 77 00,+33 3 85 93 77 26,Du Lundi au Vendredi : de 9h à 12h et de 14h à 17h,46.7846259,4.8536094,6,Ministère de la justice,http://lannuaire.service-public.fr/services_locaux/bourgogne/saone-et-loire/tgi-71076-01.html,Rue Emiland-Menand,,,,, ,,,,,
4cac9e6a293594648a00178a,Tribunal de Grande Instance de Soissons,justice-organisme-public,tgi,http://www.justice.gouv.fr/, ,2722,2209,SOISSONS CEDEX,+33 3 23 76 39 39,+33 3 23 76 39 30,Du Lundi au Vendredi : de 8h30 à 12h et de 13h30 à 17h30,49.3804223,3.3280404,8,Ministère de la justice,http://lannuaire.service-public.fr/services_locaux/picardie/aisne/tgi-02722-01.html,76 Rue Saint-Martin,,,,, ,,,,,
4cac9e6a293594648a0017a1,Tribunal de Grande Instance de Mende,justice-organisme-public,tgi,http://www.justice.gouv.fr/, ,48095,48000,MENDE,+33 4 66 65 28 11,+33 4 66 49 38 74,Du Lundi au Vendredi : de 8h45 à 12h et de 13h30 à 17h,44.516188,3.49822,6,Ministère de la justice,http://lannuaire.service-public.fr/services_locaux/languedoc-roussillon/lozere/tgi-48095-01.html,Boulevard Henri Bourillon,,,,, ,,,,,
4cac9e6a293594648a0017bb,Tribunal de Grande Instance de Poitiers,justice-organisme-public,tgi,http://www.justice.gouv.fr/,10 Place Alphonse Lepetit B.P. 527,86194,86020,POITIERS CEDEX,+33 5 49 50 22 00,+33 5 49 41 50 22,Du Lundi au Vendredi : de 9h à 12h et de 14h à 17h,46.583217,0.341729,8,Ministère de la justice,http://lannuaire.service-public.fr/services_locaux/poitou-charentes/vienne/tgi-86194-01.html,,,tgi-poitiers@justice.fr,,, ,,,,,
4cac9e6a293594648a0017b4,Tribunal de Grande Instance de Mulhouse,justice-organisme-public,tgi,http://www.justice.gouv.fr/, ,68224,68061,MULHOUSE CEDEX 3,+33 3 89 36 25 00,+33 3 89 45 82 10,Du Lundi au Vendredi : de 8h à 12h et de 13h30 à 17h,47.752347,7.342874,8,Ministère de la justice,http://lannuaire.service-public.fr/services_locaux/alsace/haut-rhin/tgi-68224-01.html,21 Avenue Robert Schumann,,,,, ,,,,,
4cac9ed7293594648a00ee03,Tribunal de Grande Instance de Bergerac,justice-organisme-public,tgi,http://www.justice.gouv.fr/,Place du Palais B.P. 207,24037,24112,BERGERAC CEDEX,+33 5 53 74 40 00,+33 5 53 74 40 09,Du Lundi au Vendredi : de 8h30 à 17h30,44.85283,0.485636,6,Ministère de la justice,http://lannuaire.service-public.fr/services_locaux/aquitaine/dordogne/tgi-24037-01.html,,,tgi-bergerac@justice.fr,,, ,,,,,
4cac9e61293594648a000581,Tribunal de Grande Instance de Saint-Etienne,justice-organisme-public,tgi,http://www.justice.gouv.fr/, ,42218,42022,ST ETIENNE CEDEX 1,+33 4 77 43 33 00,+33 4 77 43 33 03,"Du Lundi au Vendredi : de 8h à 17h
Du 9 juillet au 7 septembre les horaires sont les suivants :
09h 00 - 12h 00 / 13h00 - 16h",45.4379283,4.3842586,6,Ministère de la justice,http://lannuaire.service-public.fr/services_locaux/rhone-alpes/loire/tgi-42218-01.html,Place du Palais de Justice,,,+33 4 77 43 33 01,, ,,,,,
4cac9e6a293594648a0017b7,Tribunal de Grande Instance de Rouen,justice-organisme-public,tgi,http://www.justice.gouv.fr/,Palais de Justice 1 Place du Maréchal Foch,76540,76037,ROUEN CEDEX,+33 2 35 52 87 52,+33 2 35 70 17 41,Du Lundi au Vendredi : de 8h30 à 12h et de 13h30 à 17h30,49.442231,1.091543,8,Ministère de la justice,http://lannuaire.service-public.fr/services_locaux/haute-normandie/seine-maritime/tgi-76540-01.html,,,,,, ,,,,,
4cac9e6a293594648a0017a6,Tribunal de Grande Instance de Chaumont,justice-organisme-public,tgi,http://www.justice.gouv.fr/,Rue du Palais B.P. 2061,52121,52903,CHAUMONT CEDEX 9,+33 3 25 32 84 20,+33 3 25 03 43 52,Du Lundi au Vendredi : de 8h à 12h et de 13h45 à 17h,48.112727,5.136812,6,Ministère de la justice,http://lannuaire.service-public.fr/services_locaux/champagne-ardenne/haute-marne/tgi-52121-01.html,,,,,, ,,,,,
4cac9ed7293594648a00edf3,Tribunal de Grande Instance de Bourg-en-Bresse,justice-organisme-public,tgi,http://www.justice.gouv.fr/,4 Rue du Palais B.P. 306,1053,1011,BOURG EN BRESSE CEDEX,+33 4 74 24 19 53,+33 4 74 24 18 61,Du Lundi au Vendredi : de 8h15 à 11h45 et de 13h30 à 17h,46.205529,5.223488,8,Ministère de la justice,http://lannuaire.service-public.fr/services_locaux/rhone-alpes/ain/tgi-01053-01.html,,,,,, ,,,,,
4cac9e6a293594648a00187f,Tribunal de Grande Instance de Grenoble,justice-organisme-public,tgi,http://www.justice.gouv.fr/,Place Firmin Gautier BP 100,38185,38019,GRENOBLE CEDEX 1,+33 4 38 21 21 21,+33 4 38 21 22 44,"Du Lundi au Vendredi : de 8h30 à 12h et de 13h30 à 16h30
IMPERATIF : prendre rendez-vous avant de s'y rendre",45.190629,5.711582,6,Ministère de la justice,http://lannuaire.service-public.fr/services_locaux/rhone-alpes/isere/tgi-38185-01.html,,,,,, ,,,,,
4cac9ed7293594648a00edf6,Tribunal de Grande Instance de Cusset,justice-organisme-public,tgi,http://www.justice.gouv.fr/, ,3095,3306,CUSSET CEDEX,+33 4 70 30 98 30,+33 4 70 98 16 17,Du Lundi au Vendredi : de 9h à 12h et de 14h à 17h,46.132877,3.456196,6,Ministère de la justice,http://lannuaire.service-public.fr/services_locaux/auvergne/allier/tgi-03095-01.html,Rue du Drapeau,,,,, ,,,,,
4cac9ed7293594648a00edf7,Tribunal de Grande Instance de Montluçon,justice-organisme-public,tgi,http://www.justice.gouv.fr/, ,3185,3109,MONTLUCON CEDEX,+33 4 70 28 12 13,+33 4 70 28 04 63,Du Lundi au Vendredi : de 8h à 12h et de 13h30 à 17h30,46.3398176,2.6078132,8,Ministère de la justice,http://lannuaire.service-public.fr/services_locaux/auvergne/allier/tgi-03185-01.html,114 Boulevard de Courtais,,,,, ,,,,,
4cac9ed7293594648a00edf4,Tribunal de Grande Instance de Laon,justice-organisme-public,tgi,http://www.justice.gouv.fr/, ,2408,2001,LAON CEDEX,+33 3 23 26 29 00,+33 3 23 26 29 31,Du Lundi au Vendredi : de 8h30 à 12h et de 13h30 à 17h,49.564965,3.625177,6,Ministère de la justice,http://lannuaire.service-public.fr/services_locaux/picardie/aisne/tgi-02408-01.html,Place Aubry,,,,, ,,,,,
4cac9ed7293594648a00edf5,Tribunal de Grande Instance de Saint-Quentin,justice-organisme-public,tgi,http://www.justice.gouv.fr/,Rue Victor Basch B.P. 645/1,2691,2322,ST QUENTIN CEDEX,+33 3 23 05 89 00,+33 3 23 05 89 26,Du Lundi au Vendredi : de 8h à 17h,49.84719,3.285475,6,Ministère de la justice,http://lannuaire.service-public.fr/services_locaux/picardie/aisne/tgi-02691-01.html,,,,,, ,,,,,
4cac9ed7293594648a00edfa,Tribunal de Grande Instance d'Aix-en-Provence,justice-organisme-public,tgi,http://www.justice.gouv.fr/, ,13001,13616,AIX EN PROVENCE CEDEX 1,+33 4 42 33 83 00,+33 4 42 96 45 30,,43.5274683,5.4554748,8,Ministère de la justice,http://lannuaire.service-public.fr/services_locaux/provence-alpes-cote-d-azur/bouches-du-rhone/tgi-13001-01.html,40 Boulevard Carnot,,,,, ,,,,,
4cac9e61293594648a00053d,Tribunal de Grande Instance de Grasse,justice-organisme-public,tgi,http://www.justice.gouv.fr/,37 Avenue Pierre Semard B.P. 71029,6069,6133,GRASSE CEDEX,+33 4 92 60 72 00,+33 4 92 60 72 35,Du Lundi au Vendredi : de 8h15 à 12h et de 13h à 17h,43.656694,6.928526,8,Ministère de la justice,http://lannuaire.service-public.fr/services_locaux/provence-alpes-cote-d-azur/alpes-maritimes/tgi-06069-01.html,,,,,, ,,,,,
4cac9e61293594648a00053e,Tribunal de Grande Instance de Nice,justice-organisme-public,tgi,http://www.justice.gouv.fr/, ,6088,6357,NICE CEDEX 4,+33 4 92 17 70 00,+33 4 93 62 08 67,Du Lundi au Vendredi : de 8h à 17h,43.696633,7.2737625,6,Ministère de la justice,http://lannuaire.service-public.fr/services_locaux/provence-alpes-cote-d-azur/alpes-maritimes/tgi-06088-01.html,Place du Palais,,,,, ,,,,,
4cac9ed7293594648a00edf9,Tribunal de Grande Instance de Rodez,justice-organisme-public,tgi,http://www.justice.gouv.fr/,Boulevard de Guizard BP 3123,12202,12031,RODEZ CEDEX 9,+33 5 65 73 43 00,+33 5 65 73 43 33,Du Lundi au Vendredi : de 9h à 12h et de 14h à 16h30,44.3489355,2.5727445,6,Ministère de la justice,http://lannuaire.service-public.fr/services_locaux/midi-pyrenees/aveyron/tgi-12202-01.html,,,,,, ,,,,,
4cac9e6a293594648a0017ab,Tribunal de Grande Instance de Sarreguemines,justice-organisme-public,tgi,http://www.justice.gouv.fr/,Place du Général Sibille B.P. 71129,57631,57216,SARREGUEMINES CEDEX,+33 3 87 28 31 00,+33 3 87 28 33 29,Du Lundi au Vendredi : de 8h30 à 11h45 et de 13h30 à 16h,49.108781,7.068461,6,Ministère de la justice,http://lannuaire.service-public.fr/services_locaux/lorraine/moselle/tgi-57631-01.html,,,,,, ,,,,,
4cac9ed7293594648a00edfc,Tribunal de Grande Instance d'Aurillac,justice-organisme-public,tgi,http://www.justice.gouv.fr/, ,15014,15012,AURILLAC CEDEX,+33 4 71 45 59 59,+33 4 71 48 90 54,Du Lundi au Vendredi : de 8h30 à 12h et de 13h30 à 17h,44.927738,2.443886,8,Ministère de la justice,http://lannuaire.service-public.fr/services_locaux/auvergne/cantal/tgi-15014-01.html,21 Place du Square,,,,, ,,,,,
4cac9ed7293594648a00edfd,Tribunal de Grande Instance d'Angoulême,justice-organisme-public,tgi,http://www.justice.gouv.fr/,Place Francis Louvel B.P. 214,16015,16007,ANGOULEME CEDEX,+33 5 45 37 11 00,+33 5 45 38 43 03,"Du Lundi au Jeudi : de 8h15 à 12h15 et de 13h30 à 17h15
Le Vendredi : de 8h15 à 12h15 et de 13h30 à 16h",45.649207,0.15429,6,Ministère de la justice,http://lannuaire.service-public.fr/services_locaux/poitou-charentes/charente/tgi-16015-01.html,,,celine.mugerli@justice.fr,,, ,,,,,
4cac9e61293594648a000544,Tribunal de Grande Instance de Marseille,justice-organisme-public,tgi,http://www.justice.gouv.fr/, ,13206,13281,MARSEILLE CEDEX 06,+33 4 91 15 50 50,+33 4 91 54 42 90,Du Lundi au Vendredi : de 8h30 à 11h30 et de 14h à 16h,43.2907289,5.3740786,8,Ministère de la justice,http://lannuaire.service-public.fr/services_locaux/provence-alpes-cote-d-azur/bouches-du-rhone/tgi-13206-01.html,6 Rue Joseph Autran,,,,, ,,,,,
4cac9e61293594648a000545,Tribunal de Grande Instance de Lisieux,justice-organisme-public,tgi,http://www.justice.gouv.fr/,Cour Matignon B.P. 47227,14366,14107,LISIEUX CEDEX,+33 2 31 48 53 60,+33 2 31 62 78 65,"Le Lundi : de 8h30 à 12h et de 13h30 à 16h30
Le Mardi : de 8h30 à 17h30
Le Mercredi : de 8h30 à 12h et de 13h30 à 16h30
Le Jeudi : de 8h30 à 17h30
Le Vendredi : de 8h30 à 12h et de 13h30 à 16h30",49.146344,0.235969,4,Ministère de la justice,http://lannuaire.service-public.fr/services_locaux/basse-normandie/calvados/tgi-14366-01.html,,,,,, ,,,,,
4cac9e61293594648a000580,Tribunal de Grande Instance de Roanne,justice-organisme-public,tgi,http://www.justice.gouv.fr/,5 Bis Place Georges Clémenceau B.P. 515,42187,42328,ROANNE CEDEX,+33 4 77 44 48 00,+33 4 77 44 48 18,"Du Lundi au Vendredi : de 8h à 17h
Pour les mois de juillet et août les horaires sont différents :
8h30 - 12h00/ 14h00 -17h00",46.039881,4.072387,7,Ministère de la justice,http://lannuaire.service-public.fr/services_locaux/rhone-alpes/loire/tgi-42187-01.html,,,,,, ,,,,,
4cac9e6a293594648a0017aa,Tribunal de Grande Instance de Lorient,justice-organisme-public,tgi,http://www.justice.gouv.fr/,1 Rue Maître Esvelin Porte A,56121,56325,LORIENT CEDEX,+33 2 97 84 12 50,+33 2 97 21 11 21,Du Lundi au Vendredi : de 8h30 à 12h et de 13h à 17h,47.744802,-3.363643,8,Ministère de la justice,http://lannuaire.service-public.fr/services_locaux/bretagne/morbihan/tgi-56121-01.html,,,,,, ,,,,,
4cac9e6a293594648a0017b6,Tribunal de Grande Instance de Mâcon,justice-organisme-public,tgi,http://www.justice.gouv.fr/,Palais de Justice 8 Rue de la Préfecture,71270,71017,MACON CEDEX,+33 3 85 39 92 00,+33 3 85 38 20 37,Du Lundi au Vendredi : de 9h à 12h et de 13h30 à 16h30,46.3076337,4.8326325,8,Ministère de la justice,http://lannuaire.service-public.fr/services_locaux/bourgogne/saone-et-loire/tgi-71270-01.html,,,,,, ,,,,,
4cac9e61293594648a000543,Tribunal de Grande Instance de Tarascon,justice-organisme-public,tgi,http://www.justice.gouv.fr/, ,13108,13158,TARASCON CEDEX,+33 4 90 91 72 00,+33 4 90 91 10 66,Du Lundi au Vendredi : de 9h à 12h et de 13h30 à 16h30,43.8048118,4.6582203,6,Ministère de la justice,http://lannuaire.service-public.fr/services_locaux/provence-alpes-cote-d-azur/bouches-du-rhone/tgi-13108-01.html,Place  du docteur Braye,,,,, ,,,,,
4cac9e61293594648a00054c,Tribunal de Grande Instance de Brive-la-Gaillarde,justice-organisme-public,tgi,http://www.justice.gouv.fr/,Palais de Justice Boulevard du Maréchal Lyautey,19031,19312,BRIVE LA GAILLARDE CEDEX,+33 5 55 17 77 77,+33 5 55 17 77 79,Du Lundi au Vendredi : de 8h30 à 12h et de 13h30 à 17h,45.1567616,1.5325855,6,Ministère de la justice,http://lannuaire.service-public.fr/services_locaux/limousin/correze/tgi-19031-01.html,,,,,, ,,,,,
4cac9e6a293594648a0017ad,Tribunal de Grande Instance de Beauvais,justice-organisme-public,tgi,http://www.justice.gouv.fr/,20 Boulevard Saint-Jean B.P. 325,60057,60021,BEAUVAIS CEDEX,+33 3 44 79 60 60,+33 3 44 45 24 65,Du Lundi au Vendredi : de 8h30 à 12h30 et de 12h45 à 17h30,49.429088,2.075929,8,Ministère de la justice,http://lannuaire.service-public.fr/services_locaux/picardie/oise/tgi-60057-01.html,,,,,, ,,,,,
4cac9e61293594648a000548,Tribunal de Grande Instance de La Rochelle,justice-organisme-public,tgi,http://www.justice.gouv.fr/, ,17300,17028,LA ROCHELLE CEDEX 1,+33 5 46 50 87 10,+33 5 46 41 28 31,Du Lundi au Vendredi : de 8h45 à 12h et de 13h30 à 17h,46.159808,-1.1536929,8,Ministère de la justice,http://lannuaire.service-public.fr/services_locaux/poitou-charentes/charente-maritime/tgi-17300-01.html,10 Rue du Palais,,,,, ,,,,,
4cac9e61293594648a0005e6,Tribunal de Grande Instance de Charleville-Mézières,justice-organisme-public,tgi,http://www.justice.gouv.fr/, ,8105,8000,CHARLEVILLE MEZIERES,+33 3 24 57 69 00,+33 3 24 37 37 39,Du Lundi au Vendredi : de 8h à 12h et de 13h à 17h,49.760902,4.7216075,6,Ministère de la justice,http://lannuaire.service-public.fr/services_locaux/champagne-ardenne/ardennes/tgi-08105-01.html,9 Esplanade du Palais de Justice,,tgi-charleville-mezieres@justice.fr,,, ,,,,,
4cac9e61293594648a0005e7,Tribunal de Grande Instance de Foix,justice-organisme-public,tgi,http://www.justice.gouv.fr/,Palais de Justice 14 Rue du Rocher   B.P. 78,9122,9008,FOIX CEDEX,+33 5 61 02 19 00,+33 5 61 65 17 93,Du Lundi au Vendredi : de 9h à 12h et de 14h à 17h,42.96647,1.605087,6,Ministère de la justice,http://lannuaire.service-public.fr/services_locaux/midi-pyrenees/ariege/tgi-09122-01.html,,,,,, ,,,,,
4cac9e6a293594648a0017af,Tribunal de Grande Instance de Pau,justice-organisme-public,tgi,http://www.ca-pau.justice.fr/,Palais de Justice 5 Place de la Libération,64445,64034,PAU CEDEX,+33 5 59 82 46 15,+33 5 59 82 46 64,Du Lundi au Vendredi : de 8h30 à 12h et de 13h à 17h,43.297682,-0.371384,8,Ministère de la justice,http://lannuaire.service-public.fr/services_locaux/aquitaine/pyrenees-atlantiques/tgi-64445-01.html,,,ca-pau@justice.fr,,, ,,,,,
4cac9ed7293594648a00edfb,Tribunal de Grande Instance de Caen,justice-organisme-public,tgi,http://www.justice.gouv.fr/, ,14118,14052,CAEN CEDEX 4,+33 2 31 30 55 55,+33 2 31 86 64 62,Du Lundi au Vendredi : de 8h30 à 12h et de 13h30 à 17h,49.181939,-0.370636,6,Ministère de la justice,http://lannuaire.service-public.fr/services_locaux/basse-normandie/calvados/tgi-14118-01.html,Place Fontette,,,,, ,,,,,
4cac9e6a293594648a0017ae,Tribunal de Grande Instance de Clermont-Ferrand,justice-organisme-public,tgi,http://www.justice.gouv.fr/,Palais de Justice 16 Place de l'Etoile,63113,63033,CLERMONT FERRAND CEDEX 1,+33 4 73 31 77 00,+33 4 73 31 78 00,Du Lundi au Vendredi : de 8h à 12h et de 13h à 16h30,45.779422,3.080691,7,Ministère de la justice,http://lannuaire.service-public.fr/services_locaux/auvergne/puy-de-dome/tgi-63113-01.html,,,,,, ,,,,,
4cac9ed7293594648a00edf8,Tribunal de Grande Instance de Moulins,justice-organisme-public,tgi,http://www.justice.gouv.fr/,20 Rue de Paris B.P. 1627,3190,3016,MOULINS CEDEX,+33 4 70 35 14 55,+33 4 70 20 42 90,Du Lundi au Vendredi : de 9h00 à 11h45 et de 13h30 à 16h45,46.5683737,3.330534,8,Ministère de la justice,,,,,,, ,,,,,
4cac9e6a293594648a0017b1,Tribunal de Grande Instance de Perpignan,justice-organisme-public,tgi,http://www.justice.gouv.fr/,Place Arago B.P. 921,66136,66921,PERPIGNAN CEDEX,+33 4 68 51 96 96,+33 4 68 34 21 17,Du Lundi au Vendredi : de 9h à 12h et de 14h à 17h,42.703347,2.884902,6,Ministère de la justice,http://lannuaire.service-public.fr/services_locaux/languedoc-roussillon/pyrenees-orientales/tgi-66136-01.html,,,,,, ,,,,,
4cac9ed7293594648a00ee1c,Tribunal de Grande Instance d'Auxerre,justice-organisme-public,tgi,http://www.justice.gouv.fr/,Place du Palais de Justice B.P. 39,89024,89010,AUXERRE CEDEX,+33 3 86 72 30 00,+33 3 86 72 30 13,Du Lundi au Vendredi : de 9h à 12h et de 14h à 17h,47.798136,3.567723,6,Ministère de la justice,http://lannuaire.service-public.fr/services_locaux/bourgogne/yonne/tgi-89024-01.html,,,,,, ,,,,,
4cac9e6a293594648a0017b0,Tribunal de Grande Instance de Tarbes,justice-organisme-public,tgi,http://www.justice.gouv.fr/, ,65440,65000,TARBES,+33 5 62 51 77 00,+33 5 62 34 57 58,Du Lundi au Vendredi : de 8h30 à 12h et de 13h à 17h,43.231872,0.076531,6,Ministère de la justice,http://lannuaire.service-public.fr/services_locaux/midi-pyrenees/hautes-pyrenees/tgi-65440-01.html,Rue du Maréchal Foch,,tgi-tarbes@justice.fr,,, ,,,,,
4cac9e61293594648a00056e,Tribunal de Grande Instance de Nîmes,justice-organisme-public,tgi,http://www.justice.gouv.fr/,Nouveau Palais de Justice Boulevard des Arènes,30189,30000,NIMES,+33 4 66 76 47 00,+33 4 66 36 16 49,Du Lundi au Vendredi : de 8h30 à 12h et de 13h30 à 16h30,43.8343479,4.3590266,6,Ministère de la justice,http://lannuaire.service-public.fr/services_locaux/languedoc-roussillon/gard/tgi-30189-01.html,,,,,, ,,,,,
4cac9e6a293594648a0017b3,Tribunal de Grande Instance de Strasbourg,justice-organisme-public,tgi,http://www.justice.gouv.fr/,Quai Finkmatt B.P. 1030,67482,67070,STRASBOURG CEDEX,+33 3 88 75 27 27,+33 3 88 75 29 30,Du Lundi au Vendredi : de 8h à 17h,48.587234,7.747288,6,Ministère de la justice,http://lannuaire.service-public.fr/services_locaux/alsace/bas-rhin/tgi-67482-01.html,,,,,, ,,,,,
4cac9e6a293594648a00183c,Section Détachée du Tribunal de Première Instance à Nuku-Hiva,,tpisd,,Section Détachée de Nuku-Hiva TAIOHAE  BP 47,98731,98742,AAKAPA,+689 92 03 25,+689 92 03 65,,-8.795346,-140.228315,9,Ministère de la justice,,,,,,, ,,,,,
4cac9e6a293594648a00183d,Section Détachée du Tribunal de Première Instance à Raïatéa,,tpisd,,Section Détachée de Raïatéa UTUROA  BP 38,98758,98735,UTUROA,+689 66 32 08,+689 66 22 98,,-16.7328701,-151.4420882,4,Ministère de la justice,,,,,,, ,,,,,
4cac9e6a293594648a00183e,Section Détachée du Tribunal de Première Instance à Koné,,tpisd,, ,98811,98860,KONE,+687 35 55 13,+687 35 55 21,,-21.060339,164.865749,4,Ministère de la justice,,Section Détachée de Koné,,,,, ,,,,,
4cac9e6a293594648a0017b2,Tribunal de Grande Instance de Saverne,justice-organisme-public,tgi,http://www.justice.gouv.fr/,7 Rue du Tribunal B.P. 50135,67437,67703,SAVERNE CEDEX,+33 3 88 71 61 51,+33 3 88 71 61 61,"Du Lundi au Jeudi : de 8h à 12h et de 13h à 17h
Le Vendredi : de 8h à 12h et de 13h à 16h",48.74059,7.364851,8,Ministère de la justice,http://lannuaire.service-public.fr/services_locaux/alsace/bas-rhin/tgi-67437-01.html,,,,,, ,,,,,
4cac9e61293594648a000573,Tribunal de Grande Instance de Béziers,justice-organisme-public,tgi,http://www.justice.gouv.fr/,Place de la Révolution C.S. 604,34032,34535,BEZIERS CEDEX,+33 4 67 49 60 00,+33 4 67 28 68 83,"Du Lundi au Jeudi : de 8h30 à 12h et de 13h à 17h
Le Vendredi : de 8h30 à 12h et de 13h à 16h",43.34146,3.210654,6,Ministère de la justice,http://lannuaire.service-public.fr/services_locaux/languedoc-roussillon/herault/tgi-34032-01.html,,,,,, ,,,,,
4cac9e78293594648a002fdf,Tribunal de Grande Instance de Rennes,justice-organisme-public,tgi,http://www.justice.gouv.fr/,Cité Judiciaire - CS 73127 7 Rue Pierre Abélard,35238,35031,RENNES CEDEX,+33 2 99 65 37 37,+33 2 99 31 06 15,Du Lundi au Vendredi : de 9h à 11h30 et de 13h30 à 16h30,48.105532,-1.686493,6,Ministère de la justice,http://lannuaire.service-public.fr/services_locaux/bretagne/ille-et-vilaine/tgi-35238-01.html,,,,,, ,,,,,
4cac9e61293594648a00057e,Tribunal de Grande Instance de Mont-de-Marsan,justice-organisme-public,tgi,http://www.ca-pau.justice.fr/,5 Avenue du 8 mai 1945 B.P. 315,40192,40011,MONT DE MARSAN CEDEX,+33 5 58 85 41 85,+33 5 58 06 00 65,Du Lundi au Vendredi : de 8h30 à 12h et de 13h30 à 17h,43.893023,-0.501646,8,Ministère de la justice,http://lannuaire.service-public.fr/services_locaux/aquitaine/landes/tgi-40192-01.html,,,tgi-mont-de-marsan@justice.fr,,, ,,,,,
4cac9e78293594648a002fde,Tribunal de Grande Instance de Bordeaux,justice-organisme-public,tgi,http://www.justice.gouv.fr/, ,33063,33077,BORDEAUX CEDEX,+33 5 47 33 90 00,+33 5 56 01 36 64,Du Lundi au Vendredi : de 8h15 à 12h et de 14h à 17h,44.836622,-0.580456,7,Ministère de la justice,http://lannuaire.service-public.fr/services_locaux/aquitaine/gironde/tgi-33063-01.html,30 Rue des Frères Bonie,,,,, ,,,,,
4cac9ed7293594648a00ee07,Tribunal de Grande Instance de Toulouse,justice-organisme-public,tgi,http://www.justice.gouv.fr/,2 Allée Jules Guesde B.P. 7015,31555,31068,TOULOUSE CEDEX 7,+33 5 61 33 70 00,+33 5 61 33 71 13,Du Lundi au Vendredi : de 8h30 à 12h et de 13h30 à 17h,43.593022,1.444409,8,Ministère de la justice,http://lannuaire.service-public.fr/services_locaux/midi-pyrenees/haute-garonne/tgi-31555-01.html,,,,,, ,,,,,
4cac9ed7293594648a00ee05,Tribunal de Grande Instance de Montbéliard,justice-organisme-public,tgi,http://www.justice.gouv.fr/,Cité Judiciaire Rue Mozart,25388,25209,MONTBELIARD CEDEX,+33 3 81 90 70 00,+33 3 81 90 25 88,"Du Lundi au Vendredi : de 8h à 17h
Horaires pendant les périodes de vacances scolaires :
9 heures  - 16 heures 30",47.5118726,6.7997133,4,Ministère de la justice,http://lannuaire.service-public.fr/services_locaux/franche-comte/doubs/tgi-25388-01.html,,,chg.tgi-montbeliard@justice.fr,,, ,,,,,
4cac9ed7293594648a00ee04,Tribunal de Grande Instance de Besançon,justice-organisme-public,tgi,http://www.justice.gouv.fr/,1 Rue Mégevand B.P. 459,25056,25019,BESANCON CEDEX,+33 3 81 61 60 00,+33 3 81 61 54 63,Du Lundi au Vendredi : de 8h15 à 12h et de 13h30 à 17h,47.236418,6.022855,8,Ministère de la justice,http://lannuaire.service-public.fr/services_locaux/franche-comte/doubs/tgi-25056-01.html,,,,,, ,,,,,
4cac9e6a293594648a0017a5,Tribunal de Grande Instance de Reims,justice-organisme-public,tgi,http://www.justice.gouv.fr/, ,51454,51095,REIMS CEDEX,+33 3 26 49 53 51,+33 3 26 49 53 13,Du Lundi au Vendredi : de 8h45 à 12h et de 13h45 à 17h,49.2545811,4.0317319,6,Ministère de la justice,http://lannuaire.service-public.fr/services_locaux/champagne-ardenne/marne/tgi-51454-01.html,Place Myron Herrick,,pascal.cernik@justice.fr,,, ,,,,,
4cac9e6a293594648a0017a4,Tribunal de Grande Instance de Cherbourg,justice-organisme-public,tgi,http://www.justice.gouv.fr/,15 Rue des Tribunaux B.P. 740,50129,50107,CHERBOURG OCTEVILLE CEDEX,+33 2 33 01 61 61,+33 2 33 01 61 74,Du Lundi au Vendredi : de 8h30 à 12h et de 13h30 à 17h30,49.638055,-1.62321,7,Ministère de la justice,http://lannuaire.service-public.fr/services_locaux/basse-normandie/manche/tgi-50129-01.html,,,,,, ,,,,,
4cac9e6a293594648a0017a7,Tribunal de Grande Instance de Laval,justice-organisme-public,tgi,http://www.justice.gouv.fr/,13 Place Saint Tugal B.P. 81515,53130,53015,LAVAL CEDEX,+33 2 43 49 57 00,+33 2 43 49 57 01,Du Lundi au Vendredi : de 8h30 à 12h et de 13h30 à 16h30,48.06931,-0.77361,8,Ministère de la justice,http://lannuaire.service-public.fr/services_locaux/pays-de-la-loire/mayenne/tgi-53130-01.html,,,,,, ,,,,,
4cac9ed7293594648a00ee00,Tribunal de Grande Instance de Dijon,justice-organisme-public,tgi,http://www.justice.gouv.fr/,Cité Judiciaire 13 Bld Clémenceau   BP 13313,21231,21033,DIJON CEDEX,+33 3 80 70 45 00,+33 3 80 70 45 89,Du Lundi au Vendredi : de 8h45 à 11h45 et de 13h15 à 17h,47.323411,5.045469,4,Ministère de la justice,http://lannuaire.service-public.fr/services_locaux/bourgogne/cote-d-or/tgi-21231-01.html,,,,,, ,,,,,
4cac9e6a293594648a0017a9,Tribunal de Grande Instance de Bar-le-Duc,justice-organisme-public,tgi,http://www.justice.gouv.fr/, ,55029,55014,BAR LE DUC CEDEX,+33 3 29 79 02 95,+33 3 29 79 18 33,Du Lundi au Vendredi : de 8h30 à 12h et de 13h30 à 17h,48.769016,5.159238,8,Ministère de la justice,http://lannuaire.service-public.fr/services_locaux/lorraine/meuse/tgi-55029-01.html,21-25 place Saint-Pierre,,,,, ,,,,,
4cac9e6a293594648a0017a8,Tribunal de Grande Instance de Nancy,justice-organisme-public,tgi,http://www.justice.gouv.fr/,Cité Judiciaire Rue du Général Fabvier,54395,54035,NANCY CEDEX,+33 3 83 90 85 00,+33 3 83 27 49 84,"Du Lundi au Vendredi : de 8h à 17h
Congés scolaires : ouverture de 8h30 à 12h et de 13h à 16h.
Le tribunal est accessible aux personnes handicapées.",48.6776425,6.1757727,6,Ministère de la justice,http://lannuaire.service-public.fr/services_locaux/lorraine/meurthe-et-moselle/tgi-54395-01.html,,,tgi-nancy@justice.fr,,, ,,,,,
4cac9ed7293594648a00ee0d,Tribunal de Grande Instance d'Angers,justice-organisme-public,tgi,http://www.justice.gouv.fr/,Palais de Justice Rue Waldeck Rousseau,49007,49043,ANGERS CEDEX 01,+33 2 41 20 51 00,+33 2 41 87 33 90,Du Lundi au Vendredi : de 9h à 12h et de 13h30 à 16h30,47.4712741,-0.5440579,6,Ministère de la justice,http://lannuaire.service-public.fr/services_locaux/pays-de-la-loire/maine-et-loire/tgi-49007-01.html,,,,,, ,,,,,
4cac9ed7293594648a00ee0c,Tribunal de Grande Instance d'Orléans,justice-organisme-public,tgi,http://www.justice.gouv.fr/, ,45234,45044,ORLEANS CEDEX 1,+33 2 38 74 58 34,+33 2 38 53 65 74,Du Lundi au Vendredi : de 8h30 à 12h et de 13h30 à 17h,47.9049637,1.9072668,8,Ministère de la justice,http://lannuaire.service-public.fr/services_locaux/centre/loiret/tgi-45234-01.html,7 Rue des Huguenots,,,,, ,,,,,
4cac9ed7293594648a00ee0b,Tribunal de Grande Instance de Lons-le-Saunier,justice-organisme-public,tgi,http://www.justice.gouv.fr/,11 Rue Pasteur B.P. 20344,39300,39015,LONS LE SAUNIER CEDEX,+33 3 84 35 13 00,+33 3 84 24 36 89,Du Lundi au Vendredi : de 8h30 à 12h et de 13h30 à 17h,46.67339,5.556862,8,Ministère de la justice,http://lannuaire.service-public.fr/services_locaux/franche-comte/jura/tgi-39300-01.html,,,laetitia.pourchere@justice.fr,,, ,,,,,
4cac9e6a293594648a0017ac,Tribunal de Grande Instance de Thionville,justice-organisme-public,tgi,http://www.justice.gouv.fr/,Quai Pierre Marchal B.P. 80348,57672,57125,THIONVILLE CEDEX,+33 3 82 82 43 50,+33 3 82 53 92 56,"Du Lundi au Vendredi : de 8h30 à 11h45 et de 13h30 à 16h30
également les services du tribunal d'instance : greffe civil - tutelles - saisies-arrêts - police",49.357654,6.169112,6,Ministère de la justice,http://lannuaire.service-public.fr/services_locaux/lorraine/moselle/tgi-57672-01.html,,,,,, ,,,,,
4cac9ed7293594648a00ee09,Tribunal de Grande Instance de Bourgoin-Jallieu,justice-organisme-public,tgi,http://www.justice.gouv.fr/,10 Rue du Tribunal B.P. 648,38053,38317,BOURGOIN JALLIEU CEDEX,+33 4 74 28 78 78,+33 4 74 93 37 45,Du Lundi au Vendredi : de 8h30 à 12h00 et de 13h30 à 16h30,45.586789,5.276511,8,Ministère de la justice,,,,,,, ,,,,,
4cac9ed7293594648a00ee08,Tribunal de Grande Instance de Libourne,justice-organisme-public,tgi,http://www.justice.gouv.fr/,22 Rue Thiers B.P. 202,33243,33505,LIBOURNE CEDEX,+33 5 57 55 36 80,+33 5 57 51 99 80,Du Lundi au Vendredi : de 9h à 12h et de 14h à 17h,44.913816,-0.244407,8,Ministère de la justice,http://lannuaire.service-public.fr/services_locaux/aquitaine/gironde/tgi-33243-01.html,,,,,, ,,,,,
4cac9ed7293594648a00ee17,Tribunal de Grande Instance de Colmar,justice-organisme-public,tgi,http://www.justice.gouv.fr/, ,68066,68027,COLMAR CEDEX,+33 3 89 20 56 00,+33 3 89 23 60 23,"Du Lundi au Jeudi : de 8h à 12h et de 13h30 à 16h30
Le Vendredi : de 8h à 12h et de 13h à 16h",48.075511,7.3584175,6,Ministère de la justice,http://lannuaire.service-public.fr/services_locaux/alsace/haut-rhin/tgi-68066-01.html,Place du Marché aux Fruits,,,,, ,,,,,
4cac9ed7293594648a00ee16,Tribunal de Grande Instance de Boulogne-sur-Mer,justice-organisme-public,tgi,http://www.justice.gouv.fr/, ,62160,62322,BOULOGNE SUR MER CEDEX,+33 3 21 99 61 00,+33 3 21 99 61 35,Du Lundi au Vendredi : de 8h30 à 12h et de 14h à 17h,50.725134,1.612177,6,Ministère de la justice,http://lannuaire.service-public.fr/services_locaux/nord-pas-de-calais/pas-de-calais/tgi-62160-01.html,Place de la Résistance,,,,, ,,,,,
4cac9ed7293594648a00ee15,Tribunal de Grande Instance de Béthune,justice-organisme-public,tgi,http://www.justice.gouv.fr/,Place Lamartine B.P. 716,62119,62407,BETHUNE CEDEX,+33 3 21 68 72 00,+33 3 21 56 95 96,Du Lundi au Vendredi : de 8h à 17h30,50.534256,2.638276,6,Ministère de la justice,http://lannuaire.service-public.fr/services_locaux/nord-pas-de-calais/pas-de-calais/tgi-62119-01.html,,,,,, ,,,,,
4cac9ed7293594648a00ee14,Tribunal de Grande Instance d'Argentan,justice-organisme-public,tgi,http://www.justice.gouv.fr/,2 Rue des Anciens Combattants B.P. 70211,61006,61202,ARGENTAN CEDEX,+33 2 33 67 97 97,+33 2 33 67 28 81,"Du Lundi au Jeudi : de 8h30 à 12h15 et de 13h30 à 17h30
Le Vendredi : de 8h30 à 12h15 et de 13h30 à 17h",48.743269,-0.019443,8,Ministère de la justice,http://lannuaire.service-public.fr/services_locaux/basse-normandie/orne/tgi-61006-01.html,,,,,, ,,,,,
4cac9ed7293594648a00ee13,Tribunal de Grande Instance d'Alençon,justice-organisme-public,tgi,http://www.justice.gouv.fr/,Place du Maréchal Foch BP 355,61001,61014,ALENCON CEDEX,+33 2 33 82 25 00,+33 2 33 32 02 05,Du Lundi au Vendredi : de 8h30 à 12h et de 13h30 à 17h30,48.430277,0.0828104,6,Ministère de la justice,http://lannuaire.service-public.fr/services_locaux/basse-normandie/orne/tgi-61001-01.html,,,,,, ,,,,,
4e1af93e29359404ce000000,Consultations juridiques gratuites,justice-organisme-public,acces_droit,,"Tribunal de Grande Instance (TGI) 23, rue du Palais",52121,52000,CHAUMONT,03.25.32.84.20,,,48.115061,5.141364,8,,,,,,,tribunal-de-grande-instance-tgi,acces-au-droit permanence-d-information-et-d-orientation-juridiques,4cac9e5f293594648a0001ba,4cac9e5f293594648a0002d3,"Consultations juridiques gratuites de notaires les Mardi 13 Septembre et 13 Décembre 2011, de 14H à 17H.
Consultations juridiques gratuites d'avocats les Lundi 5 Septembre, 19 Septembre, 3 Octobre, 17 Octobre, 14 Novembre, 28 Novembre, 12 Décembre 2011, de 9H à 12H.
Consultations juridiques gratuites d'huissiers de justice les Lundi 12 Septembre, 10 Octobre, 14 Novembre, 12 Décembre 2011, de 14H à 16H.
Tribunal de Grande Instance (TGI) de Chaumont
23, rue du Palais",Notaires de la Chambre départementale des Notaires de la Haute-Marne ; Avocats du Barreau de la Haute-Marne ; Huissiers de justice de la Chambre départementale des Huissiers de justice de la Haute-Marne.,
4cac9ed7293594648a00ee11,Tribunal de Grande Instance de Dunkerque,justice-organisme-public,tgi,http://www.justice.gouv.fr/,Place du Palais de Justice B.P. 6365,59183,59385,DUNKERQUE CEDEX 1,+33 3 28 23 53 00,+33 3 28 63 26 10,Du Lundi au Vendredi : de 8h30 à 12h et de 13h30 à 17h30,51.031136,2.374939,6,Ministère de la justice,http://lannuaire.service-public.fr/services_locaux/nord-pas-de-calais/nord/tgi-59183-01.html,,,,,, ,,,,,
4cac9ed7293594648a00ee10,Tribunal de Grande Instance de Vannes,justice-organisme-public,tgi,http://www.justice.gouv.fr/,22 Place de la République B.P. 503,56260,56019,VANNES CEDEX,+33 2 97 43 77 00,+33 2 97 42 53 16,Du Lundi au Vendredi : de 9h à 12h et de 14h à 16h30,47.656336,-2.761394,8,Ministère de la justice,http://lannuaire.service-public.fr/services_locaux/bretagne/morbihan/tgi-56260-01.html,,,,,, ,,,,,
4cac9e6a293594648a0017b9,Tribunal de Grande Instance de Niort,justice-organisme-public,tgi,http://www.justice.gouv.fr/,2 Rue du Palais B.P. 8819,79191,79028,NIORT CEDEX,+33 5 49 77 22 50,+33 5 49 77 22 81,Du Lundi au Vendredi : de 8h30 à 12h et de 13h à 17h,46.323334,-0.466306,8,Ministère de la justice,http://lannuaire.service-public.fr/services_locaux/poitou-charentes/deux-sevres/tgi-79191-01.html,,,chg.tgi-niort@justice.fr,,, ,,,,,
4cac9e6a293594648a0017b8,Tribunal de Grande Instance de Fontainebleau,justice-organisme-public,tgi,http://www.justice.gouv.fr/, ,77186,77305,FONTAINEBLEAU CEDEX,+33 1 60 71 23 00,+33 1 60 71 06 35,Du Lundi au Vendredi : de 9h à 12h et de 14h à 17h,48.443691,2.609939,7,Ministère de la justice,http://lannuaire.service-public.fr/services_locaux/ile-de-france/seine-et-marne/tgi-77186-01.html,159 rue Grande,,,,, ,,,,,
4cac9ed7293594648a00ee1d,Tribunal de Grande Instance de Sens,justice-organisme-public,tgi,http://www.justice.gouv.fr/,1 Rue du Palais de Justice B.P. 810,89387,89108,SENS CEDEX,+33 3 86 65 86 00,+33 3 86 65 86 10,Du Lundi au Vendredi : de 9h à 12h et de 14h à 17h,48.196322,3.277018,8,Ministère de la justice,http://lannuaire.service-public.fr/services_locaux/bourgogne/yonne/tgi-89387-01.html,,,,,, ,,,,,
4cac9e6a293594648a0017ba,Tribunal de Grande Instance d'Amiens,justice-organisme-public,tgi,http://www.justice.gouv.fr/,Palais de Justice 14 Rue Robert de Luzarches,80021,80027,AMIENS CEDEX 1,+33 3 22 82 35 00,+33 3 22 91 22 11,Du Lundi au Vendredi : de 9h à 12h et de 14h à 16h30,49.893275,2.301079,8,Ministère de la justice,http://lannuaire.service-public.fr/services_locaux/picardie/somme/tgi-80021-01.html,,,,,, ,,,,,
4cac9e6a293594648a0017bd,Tribunal de Grande Instance d'Evry,justice-organisme-public,tgi,http://www.justice.gouv.fr/, ,91228,91012,EVRY CEDEX,+33 1 60 76 78 00,+33 1 60 79 30 03,Du Lundi au Vendredi : de 8h30 à 17h30,48.6297484,2.4309592,8,Ministère de la justice,http://lannuaire.service-public.fr/services_locaux/ile-de-france/essonne/tgi-91228-01.html,9 Rue des Mazières,,,,, ,,,,,
4cac9ed7293594648a00ee1a,Tribunal de Grande Instance de Melun,justice-organisme-public,tgi,http://www.justice.gouv.fr/, ,77288,77010,MELUN CEDEX,+33 1 64 79 80 00,+33 1 64 79 81 22,Du Lundi au Vendredi : de 8h30 à 17h30,48.527225,2.653534,8,Ministère de la justice,http://lannuaire.service-public.fr/services_locaux/ile-de-france/seine-et-marne/tgi-77288-01.html,2 Avenue du Général Leclerc,,,,, ,,,,,
4cac9ed7293594648a00ee19,Tribunal de Grande Instance du Havre,justice-organisme-public,tgi,http://www.justice.gouv.fr/,Palais de Justice 133 Bld de Strasbourg   B.P. 6,76351,76083,LE HAVRE CEDEX,+33 2 32 92 57 00,+33 2 35 22 73 64,Du Lundi au Vendredi : de 8h15 à 12h et de 13h15 à 17h,49.490686,0.130741,4,Ministère de la justice,http://lannuaire.service-public.fr/services_locaux/haute-normandie/seine-maritime/tgi-76351-01.html,,,,,, ,,,,,
4cac9ed7293594648a00ee18,Tribunal de Grande Instance de Dieppe,justice-organisme-public,tgi,http://www.justice.gouv.fr/,Palais de Justice  Square Carnot B.P. 229,76217,76204,DIEPPE CEDEX,+33 2 35 82 75 55,+33 2 35 84 42 35,Du Lundi au Vendredi : de 8h30 à 12h et de 13h30 à 16h30,49.924564,1.083359,4,Ministère de la justice,http://lannuaire.service-public.fr/services_locaux/haute-normandie/seine-maritime/tgi-76217-01.html,,,,,, ,,,,,
4cac9e61293594648a0005a4,Tribunal de Grande Instance de Verdun,justice-organisme-public,tgi,http://www.justice.gouv.fr/,Place Saint-Paul Case Officielle 724,55545,55107,VERDUN CEDEX,+33 3 29 86 14 05,+33 3 29 86 31 80,Du Lundi au Vendredi : de 9h à 11h30 et de 14h à 16h30,49.16373,5.384349,6,Ministère de la justice,http://lannuaire.service-public.fr/services_locaux/lorraine/meuse/tgi-55545-01.html,,,,,, ,,,,,
4cac9e61293594648a0005a5,Tribunal de Grande Instance d'Avesnes-sur-Helpe,justice-organisme-public,tgi,http://www.justice.gouv.fr/,Plateau Chemerault 11 Rue Mal Joffre BP 205,59036,59363,AVESNES SUR HELPE CEDEX,+33 3 27 57 78 00,+33 3 27 57 78 21,"Du Lundi au Jeudi : de 8h30 à 12h et de 13h30 à 16h30
Le Vendredi : de 8h30 à 12h et de 13h30 à 16h",50.123487,3.92827,4,Ministère de la justice,http://lannuaire.service-public.fr/services_locaux/nord-pas-de-calais/nord/tgi-59036-01.html,,,,,, ,,,,,
4cac9e61293594648a0005a6,Tribunal de Grande Instance de Cambrai,justice-organisme-public,tgi,http://www.justice.gouv.fr/,Château de Selles B.P. 379,59122,59407,CAMBRAI CEDEX,+33 3 27 73 37 37,+33 3 27 73 37 68,Du Lundi au Vendredi : de 8h à 17h,50.181597,3.224868,6,Ministère de la justice,http://lannuaire.service-public.fr/services_locaux/nord-pas-de-calais/nord/tgi-59122-01.html,,,tgi-cambrai@justice.fr,,, ,,,,,
4cac9e61293594648a0005a7,Tribunal de Grande Instance de Douai,justice-organisme-public,tgi,http://www.justice.gouv.fr/, ,59178,59500,DOUAI,+33 3 27 93 27 00,+33 3 27 87 50 49,Du Lundi au Vendredi : de 8h15 à 17h15,50.3691673,3.0782007,8,Ministère de la justice,http://lannuaire.service-public.fr/services_locaux/nord-pas-de-calais/nord/tgi-59178-01.html,47 Rue Merlin de Douai,,,,, ,,,,,
4cac9e61293594648a0005ac,Tribunal de Grande Instance de Lille,justice-organisme-public,tgi,http://www.justice.gouv.fr/,13 Avenue du Peuple Belge B.P. 729,59350,59034,LILLE CEDEX,+33 3 20 78 33 33,+33 3 20 78 50 00,Du Lundi au Vendredi : de 8h30 à 17h30,50.643791,3.061791,7,Ministère de la justice,http://lannuaire.service-public.fr/services_locaux/nord-pas-de-calais/nord/tgi-59350-01.html,,,,,, ,,,,,
4cac9e61293594648a0005ad,Tribunal de Grande Instance de Valenciennes,justice-organisme-public,tgi,http://www.justice.gouv.fr/,13 Rue Capron B.P. 349,59606,59304,VALENCIENNES CEDEX,+33 3 27 14 67 00,+33 3 27 29 31 55,"Du Lundi au Mardi : de 8h15 à 12h et de 13h15 à 17h15
Le Mercredi : de 7h45 à 12h et de 13h15 à 17h15
Le Jeudi : de 8h30 à 12h et de 13h15 à 17h15
Le Vendredi : de 8h30 à 12h et de 13h30 à 16h55",50.356788,3.521028,8,Ministère de la justice,http://lannuaire.service-public.fr/services_locaux/nord-pas-de-calais/nord/tgi-59606-01.html,,,tp.tgi-valenciennes@justice.fr,,, ,,,,,
4cac9e6a293594648a00178b,Tribunal de Grande Instance de Digne-les-Bains,justice-organisme-public,tgi,http://www.justice.gouv.fr/,6 place des Récollets BP 112,4070,4000,DIGNE LES BAINS,+33 4 92 31 05 21,+33 4 92 31 64 99,Du Lundi au Vendredi : de 9h à 12h et de 14h à 17h,44.092,6.239312,7,Ministère de la justice,http://lannuaire.service-public.fr/services_locaux/provence-alpes-cote-d-azur/alpes-de-haute-provence/tgi-04070-01.html,,,,,, ,,,,,
4cac9e61293594648a0005af,Tribunal de Grande Instance de Senlis,justice-organisme-public,tgi,http://www.justice.gouv.fr/,Cité Judiciaire Boulevard Pasteur B.P. 112,60612,60309,SENLIS CEDEX,+33 3 44 53 91 00,+33 3 44 53 92 60,Du Lundi au Vendredi : de 8h30 à 17h30,49.210439,2.58386,4,Ministère de la justice,http://lannuaire.service-public.fr/services_locaux/picardie/oise/tgi-60612-01.html,,,,,, ,,,,,
4cac9e6a293594648a00178d,Tribunal de Grande Instance de Privas,justice-organisme-public,tgi,http://www.justice.gouv.fr/, ,7186,7000,PRIVAS,+33 4 75 66 40 00,+33 4 75 64 51 95,Du Lundi au Vendredi : de 9h30 à 11h45 et de 14h à 16h15,44.734646,4.60017,6,Ministère de la justice,http://lannuaire.service-public.fr/services_locaux/rhone-alpes/ardeche/tgi-07186-01.html,Cours du Palais,,,,, ,,,,,
4cac9e6a293594648a00178c,Tribunal de Grande Instance de Gap,justice-organisme-public,tgi,http://www.cdad-hautesalpes.justice.fr/,Palais de Justice Place Saint-Arnoux     B.P. 77,5061,5007,GAP CEDEX,+33 4 92 40 70 00,+33 4 92 40 70 29,Du Lundi au Vendredi : de 8h30 à 12h et de 13h30 à 17h,44.5573985249,6.0775141508,9,Ministère de la justice,,,,,,, ,,,,,"Audiences pénales : 
- Audiences correctionnelles : jeudi 8h30 et 14h
- CRPC : 2 mardis matin par mois
- Intérêts civils : 1 jeudi matin par mois
- CIVI (Commission d'indemnisation des victimes d'infraction) : 1 mardi après-midi tous les 2 mois
- Sessions d'assises : du 1er au 10 novembre 2011


Audiences civiles : 
- Juge aux affaires familiales : jeudi et vendredi à 9H, 1 mardi par moi à 14h00
- Contentieux général : mardi ou vendredi à 9H
- Procédures collectives : 1 vendredi par mois à 9H
- Juge de l'Exécution et ventes : 1 jeudi sur 2 à 14 H
- Référés : Tous les mardis à 9h00
- Tribunal des Affaires de la sécurité sociale : 1 vendredi par mois à 9h00
- JLD - hospitalisations sous contrainte : Audiences sur convocation du magistrat"
4cac9e6a293594648a00178f,Tribunal de Grande Instance de Carcassonne,justice-organisme-public,tgi,http://www.justice.gouv.fr/,28 Boulevard Jean-Jaurès B.P. 818,11069,11012,CARCASSONNE CEDEX,+33 4 68 10 37 37,+33 4 68 10 37 70,Du Lundi au Vendredi : de 9h à 12h et de 14h à 17h,43.214867,2.354691,8,Ministère de la justice,http://lannuaire.service-public.fr/services_locaux/languedoc-roussillon/aude/tgi-11069-01.html,,,,,, ,,,,,
4cac9e6a293594648a0017bc,Tribunal de Grande Instance d'Epinal,justice-organisme-public,tgi,http://www.justice.gouv.fr/, ,88160,88026,EPINAL CEDEX,+33 3 29 34 53 53,+33 3 29 34 07 35,"Du Lundi au Jeudi : de 8h30 à 12h et de 13h30 à 16h30
Le Vendredi : de 8h30 à 12h et de 13h30 à 16h",48.1745814,6.4515713,6,Ministère de la justice,http://lannuaire.service-public.fr/services_locaux/lorraine/vosges/tgi-88160-01.html,Place Edmond Henry,,,,, ,,,,,
4cac9e6a293594648a001791,Tribunal de Grande Instance de Saintes,justice-organisme-public,tgi,http://www.justice.gouv.fr/,Square Maréchal Foch CS 80324,17415,17108,SAINTES CEDEX,+33 5 46 92 72 27,+33 5 46 74 15 00,Du Lundi au Vendredi : de 9h à 12h et de 14h à 17h,45.747428,-0.633681,6,Ministère de la justice,http://lannuaire.service-public.fr/services_locaux/poitou-charentes/charente-maritime/tgi-17415-01.html,,,chg.ti-saintes@justice.fr,,, ,,,,,
4cac9e6a293594648a001790,Tribunal de Grande Instance de Narbonne,justice-organisme-public,tgi,http://www.justice.gouv.fr/,19 Bld du Général de Gaulle B.P. 810,11262,11108,NARBONNE CEDEX,+33 4 34 44 60 60,,Du Lundi au Vendredi : de 8h30 à 12h et de 13h30 à 16h30,43.185887,3.009311,8,Ministère de la justice,http://lannuaire.service-public.fr/services_locaux/languedoc-roussillon/aude/tgi-11262-01.html,,,,,, ,,,,,
4cac9e6a293594648a001793,Tribunal de Grande Instance d'Evreux,justice-organisme-public,tgi,http://www.justice.gouv.fr/,Palais de Justice 30 Rue Joséphine,27229,27022,EVREUX CEDEX,+33 2 32 29 55 00,+33 2 32 29 55 02,Du Lundi au Vendredi : de 9h à 12h et de 13h30 à 17h,49.023877,1.15966,6,Ministère de la justice,http://lannuaire.service-public.fr/services_locaux/haute-normandie/eure/tgi-27229-01.html,,,,,, ,,,,,
4cac9e6a293594648a001792,Tribunal de Grande Instance de Bourges,justice-organisme-public,tgi,http://www.justice.gouv.fr/, ,18033,18023,BOURGES CEDEX,+33 2 48 68 34 34,+33 2 48 68 33 71,Du Lundi au Vendredi : de 8h30 à 12h et de 13h30 à 17h,47.0849533,2.3929755,8,Ministère de la justice,http://lannuaire.service-public.fr/services_locaux/centre/cher/tgi-18033-01.html,8 rue des Arènes,,,,, ,,,,,
4cac9e6a293594648a0017bf,Tribunal de Grande Instance de Bobigny,justice-organisme-public,tgi,http://www.justice.gouv.fr/,Palais de Justice 173 Av Paul Vaillant Couturier,93008,93008,BOBIGNY CEDEX,+33 1 48 95 13 93,+33 1 48 95 15 85,Du Lundi au Vendredi : de 9h à 17h,48.908821,2.450397,7,Ministère de la justice,http://lannuaire.service-public.fr/services_locaux/ile-de-france/seine-saint-denis/tgi-93008-01.html,,,,,, ,,,,,
4cac9e6a293594648a001797,Tribunal de Grande Instance d'Alès,justice-organisme-public,tgi,http://www.justice.gouv.fr/,Palais de Justice 3 Place Henri Barbusse,30007,30107,ALES CEDEX,+33 4 66 56 22 50,+33 4 66 52 81 34,Du Lundi au Vendredi : de 8h15 à 12h et de 13h15 à 17h,44.124222,4.080314,8,Ministère de la justice,http://lannuaire.service-public.fr/services_locaux/languedoc-roussillon/gard/tgi-30007-01.html,,,,,, ,,,,,
4cac9e6a293594648a001796,Tribunal de Grande Instance de Bastia,justice-organisme-public,tgi,http://www.justice.gouv.frr/, ,2B033,20407,BASTIA CEDEX,+33 4 95 55 23 00,+33 4 95 32 24 53,Du Lundi au Vendredi : de 8h30 à 12h et de 14h à 17h,42.7021365,9.4507475,4,Ministère de la justice,http://lannuaire.service-public.fr/services_locaux/corse/haute-corse/tgi-2B033-01.html,Rond Point de Moro Giafferi,,,,, ,,,,,
4cac9e6a293594648a001799,Tribunal de Grande Instance de Châteauroux,justice-organisme-public,tgi,http://www.justice.gouv.fr/,Place Lucien Germereau B.P. 577,36044,36019,CHATEAUROUX CEDEX,+33 2 54 60 35 35,+33 2 54 27 74 88,Du Lundi au Vendredi : de 8h30 à 12h et de 13h à 17h,46.807167,1.693225,4,Ministère de la justice,http://lannuaire.service-public.fr/services_locaux/centre/indre/tgi-36044-01.html,,,,,, ,,,,,
4cac9e6a293594648a001798,Tribunal de Grande Instance d'Auch,justice-organisme-public,tgi,http://www.justice.gouv.fr/, ,32013,32008,AUCH CEDEX,+33 5 62 61 67 00,+33 5 62 05 75 10,Du Lundi au Vendredi : de 8h30 à 12h30 et de 13h30 à 17h30,43.64811,0.582501,6,Ministère de la justice,http://lannuaire.service-public.fr/services_locaux/midi-pyrenees/gers/tgi-32013-01.html,Allée d'Etigny,,,,, ,,,,,
4cac9e6a293594648a00179b,Tribunal de Grande Instance de Nantes,justice-organisme-public,tgi,http://www.justice.gouv.fr/, ,44109,44921,NANTES CEDEX 9,+33 2 51 17 95 00,+33 2 51 17 98 27,Du Lundi au Vendredi : de 8h30 à 17h,47.2082993,-1.5627272,8,Ministère de la justice,http://lannuaire.service-public.fr/services_locaux/pays-de-la-loire/loire-atlantique/tgi-44109-01.html,19 Quai François Mitterrand,,,,, ,,,,,
4cac9e6a293594648a00179a,Tribunal de Grande Instance du Puy-en-Velay,justice-organisme-public,tgi,http://www.justice.gouv.fr/,Place du Breuil CS90335,43157,43011,LE PUY EN VELAY CEDEX,+33 4 71 09 05 70,+33 4 71 02 54 52,"Du Lundi au Vendredi : de 8h30 à 12h et de 13h30 à 17h
adresse postale : Place du Breuil, CS 90335, 43009 LE PUY EN VELAY CEDEX",45.042006,3.883505,6,Ministère de la justice,http://lannuaire.service-public.fr/services_locaux/auvergne/haute-loire/tgi-43157-01.html,,,,,, ,,,,,
4cac9e6a293594648a00179d,Tribunal de Grande Instance de Montargis,justice-organisme-public,tgi,http://www.justice.gouv.fr/, ,45208,45207,MONTARGIS CEDEX,+33 2 38 87 59 00,+33 2 38 87 59 11,Du Lundi au Vendredi : de 8h30 à 12h30 et de 13h à 17h,47.9988918,2.7297794,8,Ministère de la justice,http://lannuaire.service-public.fr/services_locaux/centre/loiret/tgi-45208-01.html,84 Rue du Général Leclerc,,,,, ,,,,,
4cac9e6a293594648a00179c,Tribunal de Grande Instance de Saint-Nazaire,justice-organisme-public,tgi,http://www.justice.gouv.fr/,77 Rue Albert de Mun B.P. 263,44184,44606,ST NAZAIRE CEDEX,+33 2 72 27 30 30,,Du Lundi au Vendredi : de 9h à 12h et de 14h à 17h,47.278845,-2.214212,8,Ministère de la justice,http://lannuaire.service-public.fr/services_locaux/pays-de-la-loire/loire-atlantique/tgi-44184-01.html,,,,,, ,,,,,
4cac9e6a293594648a00179f,Tribunal de Grande Instance d'Agen,justice-organisme-public,tgi,http://www.ca-agen.justice.fr/, ,47001,47916,AGEN CEDEX 9,+33 5 53 77 95 00,+33 5 53 98 07 51,Du Lundi au Vendredi : de 8h30 à 12h et de 13h30 à 17h30,44.2007546,0.6172994,6,Ministère de la justice,http://lannuaire.service-public.fr/services_locaux/aquitaine/lot-et-garonne/tgi-47001-01.html,Place Armand Fallières,,tgi-agen@justice.fr,,, ,,,,,
4cac9e6a293594648a00179e,Tribunal de Grande Instance de Cahors,justice-organisme-public,tgi,http://www.justice.gouv.fr/,Boulevard Léon Gambetta B.P. 289,46042,46010,CAHORS CEDEX 9,+33 5 65 23 46 50,+33 5 65 30 11 18,Du Lundi au Vendredi : de 8h30 à 12h et de 13h à 17h30,44.450094,1.440018,6,Ministère de la justice,http://lannuaire.service-public.fr/services_locaux/midi-pyrenees/lot/tgi-46042-01.html,,,,,, ,,,,,
4e8d586b29359402a0000023,Tribunal de Première Instance de Saint-Pierre-et-Miquelon,justice-organisme-public,tgi,,14 Rue Emile Sasco B.P. 4215,97502,97500,ST PIERRE ET MIQUELON,+33 5 08 41 03 20,+33 5 08 41 03 22,,,,,Ministère de la justice,,,,,,, ,,,,,
4cac9ed7293594648a00ee0f,Tribunal de Grande Instance de Châlons-en-Champagne,justice-organisme-public,tgi,http://www.justice.gouv.fr/, ,51108,51036,CHALONS EN CHAMPAGNE CEDEX,+33 3 26 69 27 27,+33 3 26 65 52 11,Du Lundi au Vendredi : de 8h à 12h et de 13h30 à 17h,48.9589712,4.3615452,8,Ministère de la justice,http://lannuaire.service-public.fr/services_locaux/champagne-ardenne/marne/tgi-51108-01.html,2 Quai Eugène Perrier,,chg.tgi-chalons-en-champagne@justice.fr,,, ,,,,,
4cac9e61293594648a000604,Tribunal de Grande Instance de Cayenne,justice-organisme-public,tgi,http://www.justice.gouv.fr/, ,97302,97300,CAYENNE,+33 5 94 30 11 60,+33 5 94 29 76 49,Du Lundi au Vendredi : de 8h à 12h et de 14h à 17h,,,,Ministère de la justice,http://lannuaire.service-public.fr/services_locaux/guyane/guyane/tgi-97302-01.html,Avenue du Général de Gaulle,,,,, ,,,,,
4cac9e61293594648a000601,Tribunal de Grande Instance de Belfort,justice-organisme-public,tgi,http://www.justice.gouv.fr/, ,90010,90020,BELFORT CEDEX,+33 3 84 58 53 00,+33 3 84 58 53 33,Du Lundi au Vendredi : de 8h30 à 12h et de 13h30 à 17h,47.639285,6.861898,8,Ministère de la justice,http://lannuaire.service-public.fr/services_locaux/franche-comte/territoire-de-belfort/tgi-90010-01.html,9 place de la République,,,,, ,,,,,
4cac9e6a293594648a0017c1,Tribunal de Grande Instance de Pontoise,justice-organisme-public,tgi,http://www.tgi-pontoise.justice.fr/,3 rue Victor Hugo BP 95220,95127,95302,CERGY PONTOISE CEDEX,+33 1 72 58 70 00,+33 1 72 58 73 79,Du Lundi au Vendredi : de 8h30 à 17h30,49.039049,2.044611,4,Ministère de la justice,http://lannuaire.service-public.fr/services_locaux/ile-de-france/val-d-oise/tgi-95127-01.html,,,,,, ,,,,,
4cac9e6a293594648a0017c0,Tribunal de Grande Instance de Créteil,justice-organisme-public,tgi,http://www.justice.gouv.fr/, ,94028,94011,CRETEIL CEDEX,+33 1 49 81 16 00,+33 1 49 81 19 03,Du Lundi au Vendredi : de 9h à 18h,48.7836024,2.4423209,6,Ministère de la justice,http://lannuaire.service-public.fr/services_locaux/ile-de-france/val-de-marne/tgi-94028-01.html,Rue Pasteur Vallery Radot,,,,, ,,,,,
4cac9e6a293594648a0017c3,Tribunal de Grande Instance de Pointe-à-Pitre,justice-organisme-public,tgi,http://www.justice.gouv.fr/, ,97120,97110,POINTE A PITRE,+33 5 90 89 69 50,+33 5 90 83 80 44,Du Lundi au Vendredi : de 8h à 17h,16.2411111,-61.5330556,4,Ministère de la justice,http://lannuaire.service-public.fr/services_locaux/guadeloupe/guadeloupe/tgi-97120-01.html,Place Gourbeyre,,,,, ,,,,,
4cac9e6a293594648a0017c2,Tribunal de Grande Instance de Basse-Terre,justice-organisme-public,tgi,http://www.justice.gouv.fr/, ,97105,97100,BASSE TERRE,+33 5 90 80 63 63,+33 5 90 80 63 59,Du Lundi au Vendredi : de 8h à 17h,16.2681696,-61.5857963,6,Ministère de la justice,http://lannuaire.service-public.fr/services_locaux/guadeloupe/guadeloupe/tgi-97105-01.html,4 Boulevard Félix Eboué,,,,, ,,,,,
4cac9e6a293594648a0017c4,Tribunal de Grande Instance de Fort-de-France,justice-organisme-public,tgi,http://www.justice.gouv.fr/,Palais de Justice 35 Bd du Gal de Gaulle   BP 633,97209,97200,FORT DE FRANCE,+33 5 96 48 41 41,+33 5 96 48 43 32,Du Lundi au Vendredi : de 7h30 à 16h30,14.637392,-61.069045,4,Ministère de la justice,http://lannuaire.service-public.fr/services_locaux/martinique/martinique/tgi-97209-01.html,,,,,, ,,,,,
4cac9e6a293594648a0017c6,Tribunal de Première Instance de Papeete,justice-organisme-public,tgi,,42 Avenue Bruat B.P. 4633,98735,98714,PAPEETE,+689 41 55 00,+689 45 40 12,,-17.5430158023,-149.570898554,9,Ministère de la justice,,,,,,, ,,,,,
4cac9e61293594648a0005ec,Tribunal de Grande Instance de Vesoul,justice-organisme-public,tgi,http://www.justice.gouv.fr/,Place du Palais B.P. 387,70550,70014,VESOUL CEDEX,+33 3 84 78 58 00,+33 3 84 76 24 32,Du Lundi au Vendredi : de 8h30 à 17h,47.623709,6.157897,6,Ministère de la justice,http://lannuaire.service-public.fr/services_locaux/franche-comte/haute-saone/tgi-70550-01.html,,,dominique.simonot@justice.fr,,, ,,,,,
4cac9e61293594648a0005ee,Tribunal de Grande Instance d'Albertville,justice-organisme-public,tgi,http://www.justice.gouv.fr/,Avenue des Chasseurs Alpins B.P. 125,73011,73208,ALBERTVILLE CEDEX,+33 4 79 32 43 14,+33 4 79 32 66 69,"Du Lundi au Jeudi : de 8h à 12h et de 13h30 à 17h
Le Vendredi : de 8h à 12h et de 13h30 à 16h30",45.671754,6.391712,6,Ministère de la justice,http://lannuaire.service-public.fr/services_locaux/rhone-alpes/savoie/tgi-73011-01.html,,,,,, ,,,,,
4cac9e61293594648a0005ef,Tribunal de Grande Instance de Chambéry,justice-organisme-public,tgi,http://www.justice.gouv.fr/,Place du Palais de Justice B.P. 1023,73065,73010,CHAMBERY CEDEX,+33 4 79 33 60 09,+33 4 79 33 80 57,Du Lundi au Vendredi : de 9h à 12h et de 13h30 à 16h30,45.568124,5.918642,6,Ministère de la justice,http://lannuaire.service-public.fr/services_locaux/rhone-alpes/savoie/tgi-73065-01.html,,,,,, ,,,,,
4cac9e61293594648a0005e8,Tribunal de Grande Instance de Guéret,justice-organisme-public,tgi,http://www.justice.gouv.fr/, ,23096,23011,GUERET CEDEX,+33 5 55 51 93 59,+33 5 55 52 95 25,Du Lundi au Vendredi : de 8h30 à 12h et de 14h à 17h,46.1690274,1.870893,8,Ministère de la justice,http://lannuaire.service-public.fr/services_locaux/limousin/creuse/tgi-23096-01.html,23 Place Bonnyaud,,,,, ,,,,,
4cac9e61293594648a0005e9,Tribunal de Grande Instance de Valence,justice-organisme-public,tgi,http://www.justice.gouv.fr/,Place du Palais de Justice B.P. 2113,26362,26021,VALENCE CEDEX,+33 4 75 75 49 49,+33 4 75 55 13 11,Du Lundi au Vendredi : de 8h30 à 12h et de 13h30 à 17h,44.930308,4.927628,4,Ministère de la justice,http://lannuaire.service-public.fr/services_locaux/rhone-alpes/drome/tgi-26362-01.html,,,,,, ,,,,,
4cac9e61293594648a0005ea,Tribunal de Grande Instance de Chartres,justice-organisme-public,tgi,http://www.justice.gouv.fr/, ,28085,28019,CHARTRES CEDEX,+33 2 37 18 77 00,+33 2 37 18 77 60,Du Lundi au Vendredi : de 9h à 12h et de 14h à 17h,48.450043,1.486194,8,Ministère de la justice,http://lannuaire.service-public.fr/services_locaux/centre/eure-et-loir/tgi-28085-01.html,3 Rue Saint-Jacques,,,,, ,,,,,
4cac9e61293594648a0005eb,Tribunal de Grande Instance d'Arras,justice-organisme-public,tgi,http://www.justice.gouv.fr/,Place des Etats d'Artois B.P. 924,62041,62022,ARRAS CEDEX,+33 3 21 51 52 06,+33 3 21 51 88 61,Du Lundi au Vendredi : de 8h30 à 12h et de 13h30 à 17h,50.290256,2.776262,6,Ministère de la justice,http://lannuaire.service-public.fr/services_locaux/nord-pas-de-calais/pas-de-calais/tgi-62041-01.html,,,,,, ,,,,,
4cac9ed7293594648a00ee0e,Tribunal de Grande Instance de Coutances,justice-organisme-public,tgi,http://www.justice.gouv.fr/,Rue du Palais de Justice B.P. 719,50147,50207,COUTANCES CEDEX,+33 2 33 76 68 20,+33 2 33 76 68 35,"Du Lundi au Jeudi : de 8h30 à 12h et de 13h30 à 17h
Le Vendredi : de 8h30 à 12h et de 13h30 à 16h",49.049118,-1.442756,6,Ministère de la justice,http://lannuaire.service-public.fr/services_locaux/basse-normandie/manche/tgi-50147-01.html,,,,,, ,,,,,
4cac9e61293594648a0005f0,Tribunal de Grande Instance d'Annecy,justice-organisme-public,tgi,http://www.justice.gouv.fr/,"Palais de Justice ""Novarina"" 51 rue Sommeiller  BP 2321",74010,74011,ANNECY CEDEX,+33 4 50 10 17 00,+33 4 50 10 16 84,Du Lundi au Vendredi : de 8h45 à 12h et de 13h45 à 16h,45.892502,6.121093,4,Ministère de la justice,http://lannuaire.service-public.fr/services_locaux/rhone-alpes/haute-savoie/tgi-74010-01.html,,,,,, ,,,,,
4cac9e61293594648a0005f1,Tribunal de Grande Instance de Bonneville,justice-organisme-public,tgi,http://www.justice.gouv.fr/,Quai du Parquet B.P. 136,74042,74136,BONNEVILLE CEDEX,+33 4 50 25 48 00,+33 4 50 97 39 86,Du Lundi au Vendredi : de 9h à 11h et de 14h à 16h,46.077725,6.405639,6,Ministère de la justice,http://lannuaire.service-public.fr/services_locaux/rhone-alpes/haute-savoie/tgi-74042-01.html,,,,,, ,,,,,
4cac9e61293594648a0005f2,Tribunal de Grande Instance de Thonon-les-Bains,justice-organisme-public,tgi,http://www.justice.gouv.fr/,"10, rue de l'Hôtel Dieu B.P. 50 529",74281,74200,THONON LES BAINS,+33 4 50 81 20 00,+33 4 50 81 20 45,"Du Lundi au Vendredi : de 9h30 à 12h et de 13h30 à 17h
Accueil téléphonique : 9h à 12h - 14h à 16h",46.369265,6.478767,8,Ministère de la justice,http://lannuaire.service-public.fr/services_locaux/rhone-alpes/haute-savoie/tgi-74281-01.html,,,,,, ,,,,,
4cac9e61293594648a0005f3,Tribunal de Grande Instance de Paris,justice-organisme-public,tgi,http://www.justice.gouv.fr/, ,75101,75055,PARIS CEDEX 01,+33 1 44 32 51 51,,Du Lundi au Vendredi : de 8h30 à 18h30,48.8548767,2.3454235,8,Ministère de la justice,http://lannuaire.service-public.fr/services_locaux/ile-de-france/paris/tgi-75101-01.html,4 Boulevard du Palais,,,,, ,,,,,
4cac9e61293594648a0005fc,Tribunal de Grande Instance de la Roche-sur-Yon,justice-organisme-public,tgi,http://www.justice.gouv.fr/,55 Boulevard Aristide Briand B.P. 833,85191,85021,LA ROCHE SUR YON CEDEX,+33 2 51 47 61 00,+33 2 51 62 58 12,Du Lundi au Vendredi : de 8h30 à 12h et de 13h30 à 17h,46.66577,-1.429974,6,Ministère de la justice,http://lannuaire.service-public.fr/services_locaux/pays-de-la-loire/vendee/tgi-85191-01.html,,,,,, ,,,,,
4cac9e61293594648a0005fd,Tribunal de Grande Instance des Sables-d'Olonne,justice-organisme-public,tgi,http://www.justice.gouv.fr/,Place du Palais de Justice B.P. 10365,85194,85109,LES SABLES D'OLONNE CEDEX,+33 2 51 23 77 00,+33 2 51 95 54 85,Du Lundi au Vendredi : de 8h30 à 12h et de 13h30 à 17h,46.495087,-1.788672,6,Ministère de la justice,http://lannuaire.service-public.fr/services_locaux/pays-de-la-loire/vendee/tgi-85194-01.html,,,,,, ,,,,,
4cac9e61293594648a0005f8,Tribunal de Grande Instance d'Albi,justice-organisme-public,tgi,http://www.justice.gouv.fr/, ,81004,81000,ALBI,+33 5 63 49 49 80,+33 5 63 54 06 67,Du Lundi au Vendredi : de 8h30 à 12h et de 13h30 à 16h,43.925561,2.144701,6,Ministère de la justice,http://lannuaire.service-public.fr/services_locaux/midi-pyrenees/tarn/tgi-81004-01.html,place Lapérouse,,,,, ,,,,,
4cac9e61293594648a0005f9,Tribunal de Grande Instance de Castres,justice-organisme-public,tgi,http://www.justice.gouv.fr/,4 Rue du Palais B.P. 409,81065,81108,CASTRES CEDEX,+33 5 63 51 93 00,+33 5 63 51 93 74,Du Lundi au Vendredi : de 9h à 12h et de 14h à 17h,43.605796,2.23817,8,Ministère de la justice,http://lannuaire.service-public.fr/services_locaux/midi-pyrenees/tarn/tgi-81065-01.html,,,,,, ,,,,,
4cac9e61293594648a0005fa,Tribunal de Grande Instance de Montauban,justice-organisme-public,tgi,http://www.justice.gouv.fr/, ,82121,82013,MONTAUBAN CEDEX,+33 5 63 21 40 00,+33 5 63 66 34 52,Du Lundi au Vendredi : de 8h à 12h et de 13h30 à 17h,44.016847,1.353339,6,Ministère de la justice,http://lannuaire.service-public.fr/services_locaux/midi-pyrenees/tarn-et-garonne/tgi-82121-01.html,Place du Coq,,,,, ,,,,,
4cac9e61293594648a0005fb,Tribunal de Grande Instance de Toulon,justice-organisme-public,tgi,http://www.justice.gouv.fr/,Place Gabriel Péri B.P. 506,83137,83041,TOULON CEDEX 9,+33 4 94 09 60 00,+33 4 94 09 60 04,Du Lundi au Vendredi : de 8h15 à 17h15,43.126293,5.925389,6,Ministère de la justice,http://lannuaire.service-public.fr/services_locaux/provence-alpes-cote-d-azur/var/tgi-83137-01.html,,,,,, ,,,,,
,,,,,,,,,,,,,,,,,,,,,, ,,,,,
,,,,,,,,,,,,,,,,,,,,,, ,,,,,
,,,,,,,,,,,,,,,,,,,,,, ,,,,,
,,,,,,,,,,,,,,,,,,,,,, ,,,,,
,,,,,,,,,,,,,,,,,,,,,, ,,,,,
,,,,,,,,,,,,,,,,,,,,,, ,,,,,
,,,,,,,,,,,,,,,,,,,,,, ,,,,,
,,,,,,,,,,,,,,,,,,,,,, ,,,,,
,,,,,,,,,,,,,,,,,,,,,, ,,,,,
,,,,,,,,,,,,,,,,,,,,,, ,,,,,
,,,,,,,,,,,,,,,,,,,,,, ,,,,,
,,,,,,,,,,,,,,,,,,,,,, ,,,,,
,,,,,,,,,,,,,,,,,,,,,, ,,,,,
,,,,,,,,,,,,,,,,,,,,,, ,,,,,
,,,,,,,,,,,,,,,,,,,,,, ,,,,,
,,,,,,,,,,,,,,,,,,,,,, ,,,,,
,,,,,,,,,,,,,,,,,,,,,, ,,,,,
,,,,,,,,,,,,,,,,,,,,,, ,,,,,
,,,,,,,,,,,,,,,,,,,,,, ,,,,,
,,,,,,,,,,,,,,,,,,,,,, ,,,,,
,,,,,,,,,,,,,,,,,,,,,, ,,,,,
,,,,,,,,,,,,,,,,,,,,,, ,,,,,
,,,,,,,,,,,,,,,,,,,,,, ,,,,,
,,,,,,,,,,,,,,,,,,,,,, ,,,,,
,,,,,,,,,,,,,,,,,,,,,, ,,,,,
,,,,,,,,,,,,,,,,,,,,,, ,,,,,
