ID,INTITULE,CATEGORIES,NOMENCLATURE_DILA,SITE_WEB,ADRESSE,CODE_INSEE_COMMUNE,CODE_POSTAL,COMMUNE,TELEPHONE,FAX,HORAIRES_OUVERTURE,LATITUDE,LONGITUDE,PRECISION,ORGANISME,URL,RUE,COURRIEL
4cac9e62293594648a0006b6,Tribunal d'Instance de Toulon,justice-organisme-public,ti,http://www.justice.gouv.fr/,140 Bd Général Leclerc B.P. 507,83137,83041,TOULON CEDEX 9,+33 4 94 18 93 12,+33 4 94 18 93 13,Du Lundi au Vendredi : de 8h30 à 12h et de 13h30 à 16h30,43.125717,5.928309,8,Ministère de la justice,http://lannuaire.service-public.fr/services_locaux/provence-alpes-cote-d-azur/var/ti-83137-01.html,,
4cac9e62293594648a0006aa,Tribunal d'Instance d'Albi,justice-organisme-public,ti,http://www.justice.gouv.fr/,Place du Palais B.P. 156,81004,81005,ALBI CEDEX,+33 5 63 54 15 12,+33 5 63 38 35 55,Du Lundi au Vendredi : de 9h à 12h et de 14h à 17h,43.9266871,2.1459039,6,Ministère de la justice,http://lannuaire.service-public.fr/services_locaux/midi-pyrenees/tarn/ti-81004-01.html,,
4cac9e62293594648a0006ab,Tribunal d'Instance de Castres,justice-organisme-public,ti,http://www.justice.gouv.fr/,4 Rue du Palais B.P. 409,81065,81108,CASTRES CEDEX,+33 5 63 51 93 00,,Du Lundi au Vendredi : de 9h à 12h et de 14h à 17h,43.605796,2.23817,8,Ministère de la justice,http://lannuaire.service-public.fr/services_locaux/midi-pyrenees/tarn/ti-81065-01.html,,
4cac9e62293594648a0006a6,Tribunal d'Instance de Bressuire,justice-organisme-public,ti,http://www.justice.gouv.fr/, ,79049,79300,BRESSUIRE,+33 5 49 65 87 32,+33 5 49 80 61 95,"Le Lundi : de 9h à 12h et de 14h à 17h
Le Mardi : de 8h30 à 17h30
Du Mercredi au Vendredi : de 9h à 12h et de 14h à 17h",46.83937,-0.4890378,8,Ministère de la justice,http://lannuaire.service-public.fr/services_locaux/poitou-charentes/deux-sevres/ti-79049-01.html,1 bis boulevard Joffre,chg.ti-bressuire@justice.fr
4cac9e62293594648a0006a7,Tribunal d'Instance de Niort,justice-organisme-public,ti,http://www.justice.gouv.fr/,18 Rue Marcel Paul-Espace Thémis B.P. 8820,79191,79028,NIORT CEDEX,+33 5 49 05 45 40,+33 5 49 05 45 45,"Du Lundi au Jeudi : de 8h à 17h
Le Vendredi : de 8h à 16h30",46.324538,-0.470879,4,Ministère de la justice,http://lannuaire.service-public.fr/services_locaux/poitou-charentes/deux-sevres/ti-79191-01.html,,chg.ti-niort@justice.fr
4cac9e62293594648a000690,Tribunal d'Instance de Paris 19ème,justice-organisme-public,ti,http://www.justice.gouv.fr/,Immeuble Le Brabant 11 rue Cambrai,75119,75019,PARIS,+33 1 53 38 80 60,+33 1 42 45 43 80,Du Lundi au Vendredi : de 9h à 12h30 et de 13h30 à 16h,48.895903,2.381425,8,Ministère de la justice,http://lannuaire.service-public.fr/services_locaux/ile-de-france/paris/ti-75119-01.html,,
4cac9e62293594648a000691,Tribunal d'Instance de Paris 20ème,justice-organisme-public,ti,,Mairie 6 Place Gambetta,75120,75020,PARIS,+33 1 47 97 19 52,+33 1 43 66 16 45,"Le Lundi : de 9h à 17h
Du Mardi au Vendredi : de 9h à 12h30 et de 13h30 à 16h",48.884589,2.340359,6,Ministère de la justice,http://lannuaire.service-public.fr/services_locaux/ile-de-france/paris/ti-75120-01.html,,
4cac9e62293594648a00068e,Tribunal d'Instance de Paris 17ème,justice-organisme-public,ti,http://www.justice.gouv.fr/,Mairie 16/18 rue des Batignolles,75117,75017,PARIS,+33 1 45 22 74 97,+33 1 45 22 89 64,"Le Lundi : de 9h à 12h et de 13h à 17h
Du Mardi au Jeudi : de 9h à 17h
Le Vendredi : de 9h à 12h et de 13h à 16h",48.884589,2.340359,6,Ministère de la justice,http://lannuaire.service-public.fr/services_locaux/ile-de-france/paris/ti-75117-01.html,,
4cac9e62293594648a00068f,Tribunal d'Instance de Paris 18ème,justice-organisme-public,ti,http://www.justice.gouv.fr/,Mairie 1 Place Jules Joffrin,75118,75018,PARIS,+33 1 49 25 83 25,+33 1 42 55 92 34,"Le Lundi : de 9h à 12h30
Du Mardi au Jeudi : de 9h à 16h
Le Vendredi : de 9h à 12h30",48.884589,2.340359,6,Ministère de la justice,http://lannuaire.service-public.fr/services_locaux/ile-de-france/paris/ti-75118-01.html,,
4cac9e62293594648a00068c,Tribunal d'Instance de Paris 15ème,justice-organisme-public,ti,http://www.justice.gouv.fr/, ,75115,75015,PARIS,+33 1 53 68 77 80,+33 1 53 68 77 90,Du Lundi au Vendredi : de 9h à 16h,48.841564,2.299121,8,Ministère de la justice,http://lannuaire.service-public.fr/services_locaux/ile-de-france/paris/ti-75115-01.html,154 rue Lecourbe,
4cac9e62293594648a00068d,Tribunal d'Instance de Paris 16ème,justice-organisme-public,ti,http://www.justice.gouv.fr/,Mairie 71 Avenue Henri Martin,75116,75016,PARIS,+33 1 45 04 44 82,+33 1 45 04 86 88,"Le Lundi : de 9h à 12h30 et de 13h30 à 17h
Le Mardi : de 9h à 17h
Le Mercredi : de 9h à 12h30 et de 13h30 à 17h
Le Jeudi : de 9h à 17h
Le Vendredi : de 9h à 12h30 et de 13h30 à 17h",48.884589,2.340359,6,Ministère de la justice,http://lannuaire.service-public.fr/services_locaux/ile-de-france/paris/ti-75116-01.html,,
4cac9e62293594648a00068a,Tribunal d'Instance de Paris 13ème,justice-organisme-public,ti,http://www.justice.gouv.fr/,Mairie 3 Rue Philippe de Champagne,75113,75013,PARIS,+33 1 44 08 79 00,+33 1 47 07 70 87,Du Lundi au Vendredi : de 9h à 16h,48.884589,2.340359,6,Ministère de la justice,http://lannuaire.service-public.fr/services_locaux/ile-de-france/paris/ti-75113-01.html,,
4cac9e62293594648a00068b,Tribunal d'Instance de Paris 14ème,justice-organisme-public,ti,http://www.justice.gouv.fr/,Mairie 26 Rue Mouton Duvernet,75114,75675,PARIS CEDEX 14,+33 1 45 39 43 53,+33 1 45 41 48 05,Du Lundi au Vendredi : de 9h à 12h30 et de 13h30 à 16h30,48.884589,2.340359,6,Ministère de la justice,http://lannuaire.service-public.fr/services_locaux/ile-de-france/paris/ti-75114-01.html,,
4cac9e62293594648a000688,Tribunal d'Instance de Paris 11ème,justice-organisme-public,ti,http://www.justice.gouv.fr/, ,75111,75011,PARIS,+33 1 43 57 81 45,+33 1 43 57 04 59,Du Lundi au Vendredi : de 9h à 12h30 et de 13h30 à 16h,48.8652726,2.3756662,8,Ministère de la justice,http://lannuaire.service-public.fr/services_locaux/ile-de-france/paris/ti-75111-01.html,91 rue Oberkampf,
4cac9e62293594648a000689,Tribunal d'Instance de Paris 12ème,justice-organisme-public,ti,http://www.justice.gouv.fr/,Mairie 130 Avenue Daumesnil,75112,75012,PARIS,+33 1 43 43 14 56,+33 1 43 40 76 23,Du Lundi au Vendredi : de 9h à 16h30,48.884589,2.340359,6,Ministère de la justice,http://lannuaire.service-public.fr/services_locaux/ile-de-france/paris/ti-75112-01.html,,
4cac9e62293594648a000686,Tribunal d'Instance de Paris 9ème,justice-organisme-public,ti,http://www.justice.gouv.fr/,Mairie 9 Bis Rue Drouot,75109,75009,PARIS,+33 1 45 23 33 92,+33 1 47 70 45 06,"Du Lundi au Jeudi : de 9h à 16h30
Le Vendredi : de 9h à 16h",48.884589,2.340359,6,Ministère de la justice,http://lannuaire.service-public.fr/services_locaux/ile-de-france/paris/ti-75109-01.html,,
4cac9e62293594648a000687,Tribunal d'Instance de Paris 10ème,justice-organisme-public,ti,http://www.justice.gouv.fr/,Mairie 52 Rue du Château d'Eau,75110,75010,PARIS,+33 1 40 40 40 70,+33 1 42 06 92 07,"Le Lundi : de 9h à 12h30 et de 13h30 à 16h
Le Mardi : de 9h à 16h
Le Mercredi : de 9h à 12h30 et de 13h30 à 16h
Le Jeudi : de 9h à 16h
Le Vendredi : de 9h à 12h30 et de 13h30 à 16h",48.884589,2.340359,6,Ministère de la justice,http://lannuaire.service-public.fr/services_locaux/ile-de-france/paris/ti-75110-01.html,,
4cac9e62293594648a000684,Tribunal d'Instance de Paris 7ème,justice-organisme-public,ti,http://www.justice.gouv.fr/,Mairie 116 Rue de Grenelle,75107,75007,PARIS,+33 1 45 51 86 37,+33 1 45 51 19 84,"Du Lundi au Mardi : de 9h à 16h15
Le Mercredi : de 9h à 12h et de 13h30 à 16h15
Le Jeudi : de 9h à 16h15
Le Vendredi : de 9h à 12h30 et de 13h30 à 16h15",48.884589,2.340359,6,Ministère de la justice,http://lannuaire.service-public.fr/services_locaux/ile-de-france/paris/ti-75107-01.html,,
4cac9e62293594648a000685,Tribunal d'Instance de Paris 8ème,justice-organisme-public,ti,http://www.justice.gouv.fr/,Mairie 3 Rue de Lisbonne,75108,75008,PARIS,+33 1 45 22 10 22,+33 1 44 70 04 37,Du Lundi au Vendredi : de 9h à 12h15,48.884589,2.340359,6,Ministère de la justice,http://lannuaire.service-public.fr/services_locaux/ile-de-france/paris/ti-75108-01.html,,
4cac9e62293594648a000682,Tribunal d'Instance de Paris 5ème,justice-organisme-public,ti,http://www.justice.gouv.fr/,Mairie 21 Place du Panthéon,75105,75231,PARIS CEDEX 05,+33 1 43 26 54 43,+33 1 40 46 85 22,"Du Lundi au Jeudi : de 9h à 12h et de 13h30 à 16h45
Le Vendredi : de 9h à 12h et de 13h30 à 15h30",48.884589,2.340359,6,Ministère de la justice,http://lannuaire.service-public.fr/services_locaux/ile-de-france/paris/ti-75105-01.html,,
4cac9e62293594648a000683,Tribunal d'Instance de Paris 6ème,justice-organisme-public,ti,http://www.justice.gouv.fr/,Mairie 78 Rue Bonaparte,75106,75006,PARIS,+33 1 46 34 21 00,+33 1 40 51 83 58,"Du Lundi au Mardi : de 9h à 12h30 et de 13h15 à 16h
Le Mercredi : de 9h à 16h
Le Jeudi : de 9h à 12h30 et de 13h15 à 17h
Le Vendredi : de 9h à 12h30",48.884589,2.340359,6,Ministère de la justice,http://lannuaire.service-public.fr/services_locaux/ile-de-france/paris/ti-75106-01.html,,
4cac9e62293594648a000680,Tribunal d'Instance de Paris 2ème,justice-organisme-public,ti,http://www.justice.gouv.fr/,Mairie 8 Rue de la Banque,75102,75002,PARIS,+33 1 44 55 35 95,+33 1 42 60 08 16,Du Lundi au Vendredi : de 9h à 16h,48.884589,2.340359,6,Ministère de la justice,http://lannuaire.service-public.fr/services_locaux/ile-de-france/paris/ti-75102-01.html,,
4cac9e62293594648a000681,Tribunal d'Instance de Paris 3ème,justice-organisme-public,ti,http://www.justice.gouv.fr/,Mairie 2 Rue Eugène Spuller,75103,75003,PARIS,+33 1 53 01 90 50,+33 1 42 78 90 81,Du Lundi au Vendredi : de 9h à 12h et de 13h à 16h,48.884589,2.340359,6,Ministère de la justice,http://lannuaire.service-public.fr/services_locaux/ile-de-france/paris/ti-75103-01.html,,
4cac9e62293594648a0006f8,Tribunal d'Instance de Saint-Benoit,justice-organisme-public,ti,http://www.justice.gouv.fr/,2 Rue Philibert B.P. 121,97410,97470,ST BENOIT,+33 2 62 50 37 29,+33 2 62 50 09 44,"Du Lundi au Mardi : de 8h à 12h et de 13h30 à 15h30
Le Mercredi : de 8h à 12h
Le Jeudi : de 8h à 12h et de 13h30 à 15h30
Le Vendredi : de 8h à 12h",-21.034627,55.711672,8,Ministère de la justice,http://lannuaire.service-public.fr/services_locaux/la-reunion/la-reunion/ti-97410-01.html,,
4cac9e62293594648a0006f9,Tribunal d'Instance de Saint-Denis-de-La Réunion,justice-organisme-public,ti,http://www.justice.gouv.fr/,5 Avenue André Malraux Champ Fleuri      B.P. 338,97411,97494,STE CLOTILDE CEDEX,+33 2 62 40 22 40,+33 2 62 41 55 51,Du Lundi au Vendredi : de 8h30 à 12h15 et de 13h30 à 15h30,-20.888016,55.46583,6,Ministère de la justice,http://lannuaire.service-public.fr/services_locaux/la-reunion/la-reunion/ti-97411-01.html,,
4cac9e62293594648a0006f5,Tribunal d'Instance de Sannois,justice-organisme-public,ti,http://www.ti-sannois.justice.gouv.fr/, ,95582,95110,SANNOIS,+33 1 39 81 01 38,+33 1 39 81 48 15,Du Lundi au Vendredi : de 9h à 12h15 et de 13h30 à 16h15,48.9694204,2.2568702,6,Ministère de la justice,http://lannuaire.service-public.fr/services_locaux/ile-de-france/val-d-oise/ti-95582-01.html,5 Square Jules Ferry,
4cac9e61293594648a000628,Tribunal d'Instance de Beaune,justice-organisme-public,ti,http://www.justice.gouv.fr/,Rue du Tribunal B.P. 187,21054,21205,BEAUNE CEDEX,+33 3 80 25 03 80,+33 3 80 25 03 81,Du Lundi au Vendredi : de 13h30 à 17h,47.023336,4.840481,6,Ministère de la justice,http://lannuaire.service-public.fr/services_locaux/bourgogne/cote-d-or/ti-21054-01.html,,
4cac9e62293594648a0006e2,Tribunal d'Instance de Montreuil (93),justice-organisme-public,ti,http://www.justice.gouv.fr/, ,93048,93100,MONTREUIL,+33 1 48 58 82 53,+33 1 48 58 85 19,Du Lundi au Vendredi : de 9h à 12h30,48.8635771,2.4442126,8,Ministère de la justice,http://lannuaire.service-public.fr/services_locaux/ile-de-france/seine-saint-denis/ti-93048-01.html,62 Rue Franklin,
4cac9e62293594648a0006d6,Tribunal d'Instance d'Etampes,justice-organisme-public,ti,http://www.justice.gouv.fr/,Palais de Justice 1 Rue Aristide Briand   B.P. 117,91223,91152,ETAMPES CEDEX,+33 1 64 94 61 45,+33 1 69 92 07 47,"Du Lundi au Vendredi : de 8h30 à 12h et de 13h15 à 17h
Du Lundi au Jeudi : de 8h45 à 12h et de 13h30 à 16h30
PERIODES SCOLAIRES

Le Vendredi : de 8h30 à 12h et de 13h à 16h30
PERIODES SCOLAIRES",48.426767,2.153289,4,Ministère de la justice,http://lannuaire.service-public.fr/services_locaux/ile-de-france/essonne/ti-91223-01.html,,ti-etampes@justice.fr
4cac9e62293594648a0006cf,Tribunal d'Instance de Belfort,justice-organisme-public,ti,http://www.justice.gouv.fr/,5 Place de la République B.P. 791,90010,90020,BELFORT CEDEX,+33 3 84 28 16 21,+33 3 84 22 57 49,Du Lundi au Vendredi : de 8h à 12h et de 13h30 à 17h,47.639034,6.861215,8,Ministère de la justice,http://lannuaire.service-public.fr/services_locaux/franche-comte/territoire-de-belfort/ti-90010-01.html,,nicole.caron@justice.fr
4cac9e62293594648a0006cc,Tribunal d'Instance de Saint-Dié-des-Vosges,justice-organisme-public,ti,http://www.justice.gouv.fr/,16 Rue de la Meurthe B.P. 244,88413,88107,ST DIE DES VOSGES CEDEX,+33 3 29 53 52 52,+33 3 29 56 05 08,Du Lundi au Vendredi : de 9h à 12h et de 14h à 16h,48.282784,6.946582,8,Ministère de la justice,http://lannuaire.service-public.fr/services_locaux/lorraine/vosges/ti-88413-01.html,,
4cac9e62293594648a0006c2,Tribunal d'Instance des Sables-d'Olonne,justice-organisme-public,ti,http://www.justice.gouv.fr/, ,85194,85100,LES SABLES D'OLONNE,+33 2 51 95 10 45,+33 2 51 21 55 14,Du Lundi au Vendredi : de 8h30 à 12h et de 13h30 à 17h,46.498713,-1.783228,8,Ministère de la justice,http://lannuaire.service-public.fr/services_locaux/pays-de-la-loire/vendee/ti-85194-01.html,20 rue Nicot,
4cac9e62293594648a0006c0,Tribunal d'Instance de Fontenay-le-Comte,justice-organisme-public,ti,http://www.justice.gouv.fr/,26 Rue Rabelais B.P. 49,85092,85201,FONTENAY LE COMTE CEDEX,+33 2 51 69 00 33,+33 2 51 69 48 74,Du Lundi au Vendredi : de 9h à 12h et de 14h à 17h,46.46781,-0.812517,8,Ministère de la justice,http://lannuaire.service-public.fr/services_locaux/pays-de-la-loire/vendee/ti-85092-01.html,,
4cac9e62293594648a0006c1,Tribunal d'Instance de La Roche-sur-Yon,justice-organisme-public,ti,http://www.justice.gouv.fr/,55 Boulevard Aristide Briand B.P. 833,85191,85021,LA ROCHE SUR YON CEDEX,+33 2 51 05 31 31,+33 2 51 37 16 65,Du Lundi au Vendredi : de 8h30 à 12h et de 13h30 à 17h,46.66577,-1.429974,6,Ministère de la justice,http://lannuaire.service-public.fr/services_locaux/pays-de-la-loire/vendee/ti-85191-01.html,,
4cac9e62293594648a00063e,Tribunal d'Instance de Redon,justice-organisme-public,ti,http://www.justice.gouv.fr/,3 Rue Joseph Desmars B.P. 50348,35236,35603,REDON CEDEX,+33 2 99 71 11 34,+33 2 99 71 06 23,"Du Lundi au Mardi : de 8h30 à 12h et de 13h à 17h
Le Mercredi : de 8h30 à 17h
Le Jeudi : de 8h30 à 12h et de 13h à 17h
Le Vendredi : de 8h30 à 12h et de 13h à 16h",47.650838,-2.082367,8,Ministère de la justice,http://lannuaire.service-public.fr/services_locaux/bretagne/ille-et-vilaine/ti-35236-01.html,,
4cac9e62293594648a00063f,Tribunal d'Instance de Saint-Malo,justice-organisme-public,ti,http://www.justice.gouv.fr/,2 rue Toulier CS 51731,35288,35417,ST MALO CEDEX,+33 2 23 18 50 10,,"Du Lundi au Jeudi : de 9h à 12h et de 14h à 17h
Le Vendredi : de 9h à 12h et de 14h à 16h30",48.649971,-2.026743,8,Ministère de la justice,http://lannuaire.service-public.fr/services_locaux/bretagne/ille-et-vilaine/ti-35288-01.html,,
4cac9e62293594648a00063c,Tribunal d'Instance d'Arcachon,justice-organisme-public,ti,http://www.justice.gouv.fr/, ,33009,33311,ARCACHON CEDEX,+33 5 56 83 14 66,+33 5 56 83 84 32,Du Lundi au Vendredi : de 8h30 à 12h et de 13h30 à 16h30,44.6611091,-1.1705374,6,Ministère de la justice,http://lannuaire.service-public.fr/services_locaux/aquitaine/gironde/ti-33009-01.html,Place Lucien de Gracia,
4cac9e62293594648a00063d,Tribunal d'Instance de Béziers,justice-organisme-public,ti,http://www.justice.gouv.fr/,Place de la Révolution B.P. 604,34032,34535,BEZIERS CEDEX,+33 4 67 49 60 00,+33 4 67 49 60 98,Du Lundi au Vendredi : de 8h à 12h et de 14h à 17h,43.34146,3.210654,6,Ministère de la justice,http://lannuaire.service-public.fr/services_locaux/languedoc-roussillon/herault/ti-34032-01.html,,ti-beziers@justice.fr
4cac9e62293594648a00067e,Tribunal d'Instance de Thonon-les-Bains,justice-organisme-public,ti,http://www.justice.gouv.fr/,"10, rue de l'Hôtel Dieu B.P. 10 516",74281,74200,THONON LES BAINS,+33 4 50 81 20 00,+33 4 50 81 98 29,Du Lundi au Vendredi : de 9h à 12h et de 13h30 à 16h30,46.369265,6.478767,8,Ministère de la justice,http://lannuaire.service-public.fr/services_locaux/rhone-alpes/haute-savoie/ti-74281-01.html,,
4cac9e62293594648a00067f,Tribunal d'Instance de Paris 1er,justice-organisme-public,ti,http://www.justice.gouv.fr/,Mairie 4 Place du Louvre,75101,75001,PARIS,+33 1 42 44 18 18,+33 1 42 61 38 56,Du Lundi au Vendredi : de 9h à 16h15,48.884589,2.340359,6,Ministère de la justice,http://lannuaire.service-public.fr/services_locaux/ile-de-france/paris/ti-75101-01.html,,
4cac9e62293594648a00067c,Tribunal d'Instance d'Annecy,justice-organisme-public,ti,http://www.justice.gouv.fr/,19 Avenue du Parmelan B.P. 2322,74010,74011,ANNECY CEDEX,+33 4 50 33 38 00,+33 4 50 33 38 09,"Du Lundi au Mardi : de 9h à 12h et de 14h à 16h
Du Jeudi au Vendredi : de 9h à 12h et de 14h à 16h",45.905339,6.132152,8,Ministère de la justice,http://lannuaire.service-public.fr/services_locaux/rhone-alpes/haute-savoie/ti-74010-01.html,,
4cac9e62293594648a00067d,Tribunal d'Instance de Bonneville,justice-organisme-public,ti,http://www.justice.gouv.fr/,18 Quai du Parquet B.P. 136,74042,74136,BONNEVILLE CEDEX,+33 4 50 25 48 30,+33 4 50 25 48 25,Du Lundi au Vendredi : de 9h à 11h et de 14h à 16h,46.076837,6.406326,8,Ministère de la justice,http://lannuaire.service-public.fr/services_locaux/rhone-alpes/haute-savoie/ti-74042-01.html,,
4cac9e62293594648a000678,Tribunal d'Instance d'Albertville,justice-organisme-public,ti,http://www.justice.gouv.fr/,5 Avenue des Chasseurs Alpins B.P. 125,73011,73208,ALBERTVILLE CEDEX,+33 4 79 32 04 77,+33 4 79 32 55 77,Du Lundi au Vendredi : de 8h30 à 11h30 et de 13h30 à 16h30,45.67369,6.392402,8,Ministère de la justice,http://lannuaire.service-public.fr/services_locaux/rhone-alpes/savoie/ti-73011-01.html,,
4cac9e62293594648a000679,Tribunal d'Instance de Chambéry,justice-organisme-public,ti,http://www.justice.gouv.fr/, ,73065,73018,CHAMBERY CEDEX,+33 4 79 33 60 09,+33 4 79 33 80 66,"Du Lundi au Jeudi : de 8h à 11h30 et de 14h à 16h
Le Vendredi : de 8h à 11h30",45.5680849,5.9193652,6,Ministère de la justice,http://lannuaire.service-public.fr/services_locaux/rhone-alpes/savoie/ti-73065-01.html,Place du Palais de Justice,
4cac9e62293594648a000672,Tribunal d'Instance de Lure,justice-organisme-public,ti,http://www.justice.gouv.fr/,Place de la Libération B.P. 25,70310,70201,LURE CEDEX,+33 3 84 30 22 41,+33 3 84 62 88 38,Du Lundi au Vendredi : de 8h30 à 12h et de 13h30 à 17h,47.6850496,6.4930612,6,Ministère de la justice,http://lannuaire.service-public.fr/services_locaux/franche-comte/haute-saone/ti-70310-01.html,,chg.ti-lure@justice.fr
4cac9e62293594648a000673,Tribunal d'Instance de Vesoul,justice-organisme-public,ti,http://www.justice.gouv.fr/,6 Place du Palais B.P. 387,70550,70014,VESOUL CEDEX,+33 3 84 76 32 22,+33 3 84 76 79 14,Du Lundi au Vendredi : de 9h à 12h et de 14h à 17h30,47.623789,6.158194,8,Ministère de la justice,http://lannuaire.service-public.fr/services_locaux/franche-comte/haute-saone/ti-70550-01.html,,carole.fini@justice.fr
4cac9e62293594648a000670,Tribunal d'Instance de Villefranche-sur-Saône,justice-organisme-public,ti,http://www.justice.gouv.fr/,Palais de Justice 350 Boulevard Gambetta   BP 304,69264,69665,VILLEFRANCHE SUR SAONE CED,+33 4 74 65 76 90,+33 4 74 65 47 30,Du Lundi au Vendredi : de 8h30 à 12h et de 13h30 à 17h,45.9898649,4.7187518,4,Ministère de la justice,http://lannuaire.service-public.fr/services_locaux/rhone-alpes/rhone/ti-69264-01.html,,
4cac9e62293594648a00066e,Tribunal d'Instance de Guebwiller,justice-organisme-public,ti,http://www.justice.gouv.fr/,1 Place Saint-Léger B.P. 229,68112,68504,GUEBWILLER CEDEX,+33 3 89 62 17 20,+33 3 89 62 17 21,Du Lundi au Vendredi : de 8h à 12h et de 14h à 17h,47.911771,7.208557,8,Ministère de la justice,http://lannuaire.service-public.fr/services_locaux/alsace/haut-rhin/ti-68112-01.html,,
4cac9e62293594648a00066f,Tribunal d'Instance de Thann,justice-organisme-public,ti,http://www.justice.gouv.fr/,41 Pl Mal de Lattre de Tassigny B.P. 40070,68334,68802,THANN CEDEX,+33 3 89 37 08 48,+33 3 89 37 52 79,"Du Lundi au Jeudi : de 8h30 à 12h et de 13h30 à 17h
Le Vendredi : de 8h30 à 12h et de 13h à 16h30",47.815894,7.099736,4,Ministère de la justice,http://lannuaire.service-public.fr/services_locaux/alsace/haut-rhin/ti-68334-01.html,,chg.ti-thann@justice.fr
4cac9e62293594648a00066c,Tribunal d'Instance de Saverne,justice-organisme-public,ti,http://www.justice.gouv.fr/,7 Rue du Tribunal B.P. 50135,67437,67703,SAVERNE CEDEX,+33 3 88 71 61 51,+33 3 88 71 61 71,"Du Lundi au Mardi : de 8h à 12h et de 13h à 17h
Le Mercredi : de 8h à 12h et de 14h à 17h
Le Jeudi : de 8h à 12h et de 13h à 17h
Le Vendredi : de 8h à 12h et de 13h à 16h",48.74059,7.364851,8,Ministère de la justice,http://lannuaire.service-public.fr/services_locaux/alsace/bas-rhin/ti-67437-01.html,,
4cac9e62293594648a00066d,Tribunal d'Instance de Strasbourg,justice-organisme-public,ti,http://www.justice.gouv.fr/,45 Rue du Fossé des Treize B.P. 444,67482,67008,STRASBOURG CEDEX,+33 3 88 15 59 00,+33 3 88 75 91 29,"Du Lundi au Jeudi : de 8h à 12h et de 14h à 17h
Le Vendredi : de 8h à 12h et de 14h à 16h",48.590302,7.746057,8,Ministère de la justice,http://lannuaire.service-public.fr/services_locaux/alsace/bas-rhin/ti-67482-01.html,,ti-strasbourg@justice.fr
4cac9e62293594648a00066a,Tribunal d'Instance de Riom,justice-organisme-public,ti,http://www.justice.gouv.fr/,Rue Jean de Berry B.P. 26,63300,63201,RIOM CEDEX,+33 4 73 33 70 80,+33 4 73 33 70 89,Du Lundi au Vendredi : de 8h30 à 12h00 et de 13h30 à 17h00,45.8949494,3.1169151,6,Ministère de la justice,,,
4cac9e62293594648a00066b,Tribunal d'Instance de Bayonne,justice-organisme-public,ti,http://www.ca-pau.justice.fr/, ,64102,64100,BAYONNE,+33 5 59 44 54 80,+33 5 59 44 54 72,Du Lundi au Vendredi : de 9h à 12h et de 14h à 17h,43.491791,-1.485132,8,Ministère de la justice,http://lannuaire.service-public.fr/services_locaux/aquitaine/pyrenees-atlantiques/ti-64102-01.html,17 Avenue de la Légion Tchèque,ca-pau@justice.fr
4cac9e62293594648a000668,Tribunal d'Instance de Calais,justice-organisme-public,ti,http://www.justice.gouv.fr/,Palais de Justice 15 Place Crèvecoeur,62193,62103,CALAIS CEDEX,+33 3 21 36 37 69,+33 3 21 85 86 88,Du Lundi au Vendredi : de 9h à 12h et de 14h à 16h,50.94443,1.859593,8,Ministère de la justice,http://lannuaire.service-public.fr/services_locaux/nord-pas-de-calais/pas-de-calais/ti-62193-01.html,,ti-calais@justice.fr
4cac9e62293594648a000669,Tribunal d'Instance de Saint-Omer,justice-organisme-public,ti,http://www.justice.gouv.fr/,7 place Victor Hugo BP 10191,62765,62504,ST OMER CEDEX,+33 3 21 12 07 00,+33 3 21 12 07 13,Du Lundi au Vendredi : de 9h à 12h et de 14h à 16h,50.7483768,2.2524261,8,Ministère de la justice,http://lannuaire.service-public.fr/services_locaux/nord-pas-de-calais/pas-de-calais/ti-62765-01.html,,
4cac9e62293594648a000666,Tribunal d'Instance de Béthune,justice-organisme-public,ti,http://www.justice.gouv.fr/,22 Rue d'Aire B.P. 808,62119,62408,BETHUNE CEDEX,+33 3 21 63 14 30,+33 3 21 66 24 71,Du Lundi au Vendredi : de 8h30 à 12h et de 13h30 à 16h30,50.535733,2.637618,8,Ministère de la justice,http://lannuaire.service-public.fr/services_locaux/nord-pas-de-calais/pas-de-calais/ti-62119-01.html,,jean-pierre.sigaud@justice.fr
4cac9e62293594648a000667,Tribunal d'Instance de Boulogne-sur-Mer,justice-organisme-public,ti,http://www.justice.gouv.fr/,164 Rue Faidherbe B.P. 337,62160,62205,BOULOGNE SUR MER CEDEX,+33 3 21 33 82 22,+33 3 21 87 47 76,Du Lundi au Vendredi : de 8h30 à 12h et de 14h à 16h,50.726567,1.608719,8,Ministère de la justice,http://lannuaire.service-public.fr/services_locaux/nord-pas-de-calais/pas-de-calais/ti-62160-01.html,,
4cac9e62293594648a000664,Tribunal d'Instance de Compiègne,justice-organisme-public,ti,http://www.justice.gouv.fr/,11 Rue Henri de Séroux B.P. 70031,60159,60321,COMPIEGNE CEDEX,+33 3 44 38 58 00,+33 3 44 40 22 17,Du Lundi au Vendredi : de 8h30 à 12h et de 13h30 à 16h30,49.417087,2.82813,8,Ministère de la justice,http://lannuaire.service-public.fr/services_locaux/picardie/oise/ti-60159-01.html,,
4cac9e62293594648a000665,Tribunal d'Instance de Senlis,justice-organisme-public,ti,http://www.justice.gouv.fr/,1 Allée des Soupirs B.P. 112,60612,60309,SENLIS CEDEX,+33 3 44 53 91 70,+33 3 44 53 91 69,Du Lundi au Vendredi : de 8h30 à 17h30,49.208952,2.580847,6,Ministère de la justice,http://lannuaire.service-public.fr/services_locaux/picardie/oise/ti-60612-01.html,,
4cac9e62293594648a000663,Tribunal d'Instance de Valenciennes,justice-organisme-public,ti,http://www.justice.gouv.fr/,18 Place du 8 Mai 1945 B.P. 379,59606,59307,VALENCIENNES CEDEX,+33 3 27 20 23 00,+33 3 27 36 05 37,Du Lundi au Vendredi : de 9h à 12h et de 14h à 16h,50.356805,3.518359,8,Ministère de la justice,http://lannuaire.service-public.fr/services_locaux/nord-pas-de-calais/nord/ti-59606-01.html,,ti-valenciennes@justice.fr
4cac9e62293594648a000658,Tribunal d'Instance de Douai,justice-organisme-public,ti,http://www.justice.gouv.fr/,66 Rue Saint-Julien B.P. 828,59178,59508,DOUAI CEDEX,+33 3 27 99 95 95,+33 3 27 97 97 39,Du Lundi au Vendredi : de 8h30 à 11h30 et de 13h30 à 16h,50.371221,3.076432,8,Ministère de la justice,http://lannuaire.service-public.fr/services_locaux/nord-pas-de-calais/nord/ti-59178-01.html,,
4cac9e62293594648a000656,Tribunal d'Instance de Sarreguemines,justice-organisme-public,ti,http://www.justice.gouv.fr/,Place du Général Sibille B.P. 71129,57631,57216,SARREGUEMINES CEDEX,+33 3 87 28 31 00,+33 3 87 28 31 29,Du Lundi au Vendredi : de 9h à 11h45 et de 13h30 à 16h,49.108781,7.068461,6,Ministère de la justice,http://lannuaire.service-public.fr/services_locaux/lorraine/moselle/ti-57631-01.html,,
4cac9e62293594648a000657,Tribunal d'Instance de Cambrai,justice-organisme-public,ti,http://www.justice.gouv.fr/,Château de Selles B.P. 381,59122,59407,CAMBRAI CEDEX,+33 3 27 73 37 37,+33 3 27 73 37 79,Du Lundi au Vendredi : de 9h à 12h et de 14h à 17h,50.181597,3.224868,6,Ministère de la justice,http://lannuaire.service-public.fr/services_locaux/nord-pas-de-calais/nord/ti-59122-01.html,,
4cac9e62293594648a000654,Tribunal d'Instance de Saint-Avold,justice-organisme-public,ti,http://www.justice.gouv.fr/,37 Avenue Clémenceau B.P. 20029,57606,57501,ST AVOLD CEDEX,+33 3 87 92 11 55,+33 3 87 92 49 28,Du Lundi au Vendredi : de 8h à 12h et de 13h à 16h30,49.107291,6.704991,8,Ministère de la justice,http://lannuaire.service-public.fr/services_locaux/lorraine/moselle/ti-57606-01.html,,
4cac9e62293594648a000655,Tribunal d'Instance de Sarrebourg,justice-organisme-public,ti,http://www.justice.gouv.fr/,52 Avenue Clémenceau B.P. 50184,57630,57403,SARREBOURG CEDEX,+33 3 87 23 71 82,+33 3 87 23 60 64,Du Lundi au Vendredi : de 8h à 12h et de 13h à 16h30,48.732841,7.055359,8,Ministère de la justice,http://lannuaire.service-public.fr/services_locaux/lorraine/moselle/ti-57630-01.html,,
4cac9e62293594648a000652,Tribunal d'Instance de Lunéville,justice-organisme-public,ti,http://www.justice.gouv.fr/,7 Rue du Château B.P. 158,54329,54300,LUNEVILLE,+33 3 83 74 04 27,+33 3 83 74 43 02,Du Lundi au Vendredi : de 8h à 12h et de 13h à 17h,48.593818,6.491962,8,Ministère de la justice,http://lannuaire.service-public.fr/services_locaux/lorraine/meurthe-et-moselle/ti-54329-01.html,,
4cac9e62293594648a000653,Tribunal d'Instance de Verdun,justice-organisme-public,ti,http://www.justice.gouv.fr/, ,55545,55107,VERDUN CEDEX,+33 3 29 86 88 00,+33 3 29 86 77 18,Du Lundi au Vendredi : de 8h30 à 12h et de 14h à 16h,49.163768,5.3844849,6,Ministère de la justice,http://lannuaire.service-public.fr/services_locaux/lorraine/meuse/ti-55545-01.html,Place Saint-Paul,
4cac9e62293594648a000651,Tribunal d'Instance de Briey,justice-organisme-public,ti,http://www.justice.gouv.fr/,Place de l'Eglise B.P. 139,54099,54151,BRIEY CEDEX,+33 3 82 46 04 82,+33 3 82 47 56 30,Du Lundi au Vendredi : de 8h30 à 12h et de 13h30 à 17h,49.252821,5.974587,4,Ministère de la justice,http://lannuaire.service-public.fr/services_locaux/lorraine/meurthe-et-moselle/ti-54099-01.html,,
4cac9e62293594648a00064e,Tribunal d'Instance de Cholet,justice-organisme-public,ti,http://www.justice.gouv.fr/,Jardin du Mail B.P. 1425,49099,49314,CHOLET CEDEX,+33 2 41 65 06 62,+33 2 41 58 60 98,Du Lundi au Vendredi : de 9h à 12h et de 13h30 à 16h45,47.059815,-0.882626,6,Ministère de la justice,http://lannuaire.service-public.fr/services_locaux/pays-de-la-loire/maine-et-loire/ti-49099-01.html,,
4cac9e62293594648a00064f,Tribunal d'Instance de Cherbourg,justice-organisme-public,ti,http://www.justice.gouv.fr/, ,50129,50108,CHERBOURG OCTEVILLE CEDEX,+33 2 33 78 15 30,+33 2 33 78 15 31,Du Lundi au Vendredi : de 9h à 12h et de 14h à 17h,49.641448,-1.625594,8,Ministère de la justice,http://lannuaire.service-public.fr/services_locaux/basse-normandie/manche/ti-50129-01.html,38 Rue François La Vieille,
4cac9e62293594648a00064d,Tribunal d'Instance de Villeneuve-sur-Lot,justice-organisme-public,ti,http://www.ca-agen.justice.fr/, ,47323,47300,VILLENEUVE SUR LOT,+33 5 53 49 64 00,+33 5 53 40 06 89,Du Lundi au Vendredi : de 8h45 à 12h15 et de 13h30 à 17h,44.426811,0.747856,4,Ministère de la justice,http://lannuaire.service-public.fr/services_locaux/aquitaine/lot-et-garonne/ti-47323-01.html,6 Rue du Gal Lafon de Blaniac,ti-villeneuve-sur-lot@justice.fr
4cac9e66293594648a000ec2,Tribunal d'Instance de Martigues,justice-organisme-public,ti,http://www.justice.gouv.fr/,Place de la Libération B.P. 122,13056,13695,MARTIGUES CEDEX,+33 4 42 13 50 25,+33 4 42 49 21 76,"Du Lundi au Vendredi : de 8h30 à 12h et de 13h30 à 16h30
Horaires des vacances scolaires : du lundi au vendredi de 9h à 12h et de 14h à 16h15.
Accueil téléphonique : du lundi au vendredi de 13h30 à 17h",43.405032,5.054811,6,Ministère de la justice,http://lannuaire.service-public.fr/services_locaux/provence-alpes-cote-d-azur/bouches-du-rhone/ti-13056-01.html,,
4cac9e62293594648a000646,Tribunal d'Instance de Figeac,justice-organisme-public,ti,http://www.justice.gouv.fr/, ,46102,46100,FIGEAC,+33 5 65 50 03 20,+33 5 65 50 08 24,"Du Lundi au Jeudi : de 9h à 12h et de 13h30 à 17h
Le Vendredi : de 9h à 12h et de 13h30 à 16h",44.607426,2.031046,8,Ministère de la justice,http://lannuaire.service-public.fr/services_locaux/midi-pyrenees/lot/ti-46102-01.html,1 boulevard Juskiewenski,
4cac9e62293594648a000644,Tribunal d'Instance de Montbrison,justice-organisme-public,ti,http://www.justice.gouv.fr/,Palais de Justice B.P. 259,42147,42605,MONTBRISON CEDEX,+33 4 77 96 66 66,+33 4 77 96 66 79,Du Lundi au Vendredi : de 8h à 12h et de 13h30 à 17h,45.609722,4.064276,6,Ministère de la justice,http://lannuaire.service-public.fr/services_locaux/rhone-alpes/loire/ti-42147-01.html,,
4cac9e62293594648a000645,Tribunal d'Instance de Roanne,justice-organisme-public,ti,http://www.justice.gouv.fr/,5 Place Georges Clémenceau B.P. 513,42187,42328,ROANNE CEDEX,+33 4 77 44 48 24,+33 4 77 44 48 22,Du Lundi au Vendredi : de 8h à 12h et de 14h à 17h,46.039881,4.072387,7,Ministère de la justice,http://lannuaire.service-public.fr/services_locaux/rhone-alpes/loire/ti-42187-01.html,,
4cac9e62293594648a000642,Tribunal d'Instance de Dax,justice-organisme-public,ti,http://www.ca-pau.justice.fr/,Rue des Fusillés B.P. 355,40088,40107,DAX CEDEX,+33 5 58 74 27 98,+33 5 58 74 92 59,Du Lundi au Vendredi : de 9h à 12h et de 14h à 17h,43.709466,-1.051532,6,Ministère de la justice,http://lannuaire.service-public.fr/services_locaux/aquitaine/landes/ti-40088-01.html,,ca-pau@justice.fr
4cac9e62293594648a000643,Tribunal d'Instance de Mont-de-Marsan,justice-organisme-public,ti,http://www.ca-pau.justice.fr/,Cité Galliane 3 avenue Dufau,40192,40000,MONT DE MARSAN,+33 5 58 85 75 75,+33 5 58 85 75 79,Du Lundi au Vendredi : de 9h à 11h45 et de 13h30 à 17h,43.89366,-0.494947,8,Ministère de la justice,http://lannuaire.service-public.fr/services_locaux/aquitaine/landes/ti-40192-01.html,,ca-pau@justice.fr
4cac9e62293594648a000641,Tribunal d'Instance de Saint-Claude,justice-organisme-public,ti,http://www.justice.gouv.fr/, ,39478,39200,ST CLAUDE,+33 3 84 45 31 12,+33 3 84 45 44 55,Du Lundi au Vendredi : de 8h à 12h et de 13h30 à 16h30,46.3882042,5.865799,8,Ministère de la justice,http://lannuaire.service-public.fr/services_locaux/franche-comte/jura/ti-39478-01.html,12 Rue Rosset,catherine.ecochard@justice.fr
4cac9e6b293594648a0019e2,Tribunal d'Instance de Saint-Etienne,justice-organisme-public,ti,http://www.justice.gouv.fr/, ,42218,42022,ST ETIENNE CEDEX 1,+33 4 77 43 22 61,+33 4 77 43 22 63,Du Lundi au Vendredi : de 8h à 17h,45.4379283,4.3842586,6,Ministère de la justice,http://lannuaire.service-public.fr/services_locaux/rhone-alpes/loire/ti-42218-01.html,Place du Palais de Justice,ti-st-etienne@justice.fr
4cac9e61293594648a000625,Tribunal d'Instance de La Rochelle,justice-organisme-public,ti,http://www.justice.gouv.fr/, ,17300,17041,LA ROCHELLE CEDEX 1,+33 5 46 27 63 64,+33 5 46 41 76 97,Du Lundi au Vendredi : de 9h à 12h et de 13h30 à 17h,46.167324,-1.166238,8,Ministère de la justice,http://lannuaire.service-public.fr/services_locaux/poitou-charentes/charente-maritime/ti-17300-01.html,67 Rue de Jéricho,jean-jacques.cueff@justice.fr
4cac9e61293594648a000629,Tribunal d'Instance de Dijon,justice-organisme-public,ti,http://www.justice.gouv.fr/,Cité Judiciaire 13 Bld Clémenceau B.P. 51,21231,21072,DIJON CEDEX,+33 3 80 70 45 25,+33 3 80 70 45 63,Du Lundi au Vendredi : de 9h à 11h45 et de 13h30 à 17h,47.323411,5.045469,4,Ministère de la justice,http://lannuaire.service-public.fr/services_locaux/bourgogne/cote-d-or/ti-21231-01.html,,
4cac9e61293594648a000627,Tribunal d'Instance de Brive-la-Gaillarde,justice-organisme-public,ti,http://www.justice.gouv.fr/, ,19031,19100,BRIVE LA GAILLARDE,+33 5 55 92 67 39,+33 5 55 92 67 40,Du Lundi au Vendredi : de 8h30 à 12h et de 13h30 à 17h,45.157501,1.531457,8,Ministère de la justice,http://lannuaire.service-public.fr/services_locaux/limousin/correze/ti-19031-01.html,6 rue St Bernard,
4cac9e61293594648a000626,Tribunal d'Instance de Saint-Amand-Montrond,justice-organisme-public,ti,http://www.justice.gouv.fr/, ,18197,18204,ST AMAND MONTROND CEDEX,+33 2 48 96 08 48,+33 2 48 96 40 26,Du Lundi au Vendredi : de 8h30 à 12h et de 13h30 à 17h,46.720809,2.505611,8,Ministère de la justice,http://lannuaire.service-public.fr/services_locaux/centre/cher/ti-18197-01.html,11 Cours Manuel,
4cac9e78293594648a002fe3,Tribunal d'Instance de Saint-Gaudens,justice-organisme-public,ti,http://www.justice.gouv.fr/,Palais de Justice B.P. 20209,31483,31806,ST GAUDENS CEDEX,+33 5 62 00 83 40,+33 5 61 88 38 81,Du Lundi au Vendredi : de 8h à 12h et de 13h à 17h,43.133668,0.744874,4,Ministère de la justice,http://lannuaire.service-public.fr/services_locaux/midi-pyrenees/haute-garonne/ti-31483-01.html,,
4cac9e78293594648a002fe2,Tribunal d'Instance d'Aix-en-Provence,justice-organisme-public,ti,http://www.justice.gouv.fr/,32A Boulevard Emile Zola CS 70719,13001,13616,AIX EN PROVENCE CEDEX 1,+33 4 42 17 55 00,+33 4 42 17 55 38,Du Lundi au Vendredi : de 8h30 à 12h et de 14h à 16h30,43.53282,5.454541,8,Ministère de la justice,http://lannuaire.service-public.fr/services_locaux/provence-alpes-cote-d-azur/bouches-du-rhone/ti-13001-01.html,,
4cac9e78293594648a002fe1,Tribunal d'Instance de Gap,justice-organisme-public,ti,http://www.justice.gouv.fr/,Palais de Justice Place Saint-Arnoux   B.P. 77,5061,5007,GAP CEDEX,+33 4 92 40 70 00,+33 4 92 40 70 40,Du Lundi au Vendredi : de 9h à 12h et de 14h à 17h,44.5573985249,6.0775141508,9,Ministère de la justice,,,
4cac9e78293594648a002fe0,Tribunal d'Instance de Saint-Quentin,justice-organisme-public,ti,http://www.justice.gouv.fr/,Rue Victor Basch B.P. 645/2,2691,2322,ST QUENTIN CEDEX,+33 3 23 06 29 60,+33 3 23 64 84 87,"Du Lundi au Jeudi : de 9h à 12h et de 14h à 17h
Le Vendredi : de 14h à 16h",49.84719,3.285475,6,Ministère de la justice,http://lannuaire.service-public.fr/services_locaux/picardie/aisne/ti-02691-01.html,,
4cac9e6a293594648a0017e1,Tribunal d'Instance d'Auch,justice-organisme-public,ti,http://www.justice.gouv.fr/,"4, place du maréchal Lannes CS 40405",32013,32008,AUCH CEDEX,+33 5 62 67 67 07,+33 5 62 67 67 13,Du Lundi au Vendredi : de 8h30 à 12h et de 14h à 16h30,,,,Ministère de la justice,http://lannuaire.service-public.fr/services_locaux/midi-pyrenees/gers/ti-32013-01.html,,
4cac9e6a293594648a0017e0,Tribunal d'Instance d'Alès,justice-organisme-public,ti,http://www.justice.gouv.fr/,Palais de Justice 3 Place Henri Barbusse  BP 157,30007,30107,ALES CEDEX,+33 4 66 56 27 50,+33 4 66 52 70 40,"Du Lundi au Jeudi : de 9h à 12h et de 14h à 17h
Le Vendredi : de 9h à 12h et de 13h30 à 16h30",44.122417,4.094377,4,Ministère de la justice,http://lannuaire.service-public.fr/services_locaux/languedoc-roussillon/gard/ti-30007-01.html,,
4cac9e6a293594648a0017e3,Tribunal d'Instance de Libourne,justice-organisme-public,ti,http://www.justice.gouv.fr/,22 Rue Thiers B.P. 221,33243,33506,LIBOURNE CEDEX,+33 5 57 55 36 80,+33 5 57 74 07 64,Du Lundi au Vendredi : de 8h30 à 12h30 et de 13h30 à 17h30,44.913816,-0.244407,8,Ministère de la justice,http://lannuaire.service-public.fr/services_locaux/aquitaine/gironde/ti-33243-01.html,,ti-libourne@justice.fr
4cac9e6a293594648a0017e2,Tribunal d'Instance de Bordeaux,justice-organisme-public,ti,http://www.justice.gouv.fr/,180 Rue Lecocq CS 51029,33063,33077,BORDEAUX CEDEX,+33 5 56 79 79 79,+33 5 56 79 79 44,Du Lundi au Vendredi : de 8h à 17h,44.8319054431,-0.5920655927,9,Ministère de la justice,http://lannuaire.service-public.fr/services_locaux/aquitaine/gironde/ti-33063-01.html,,ti-bordeaux@justice.fr
4cac9e6a293594648a0017e5,Tribunal d'Instance de Châteauroux,justice-organisme-public,ti,http://www.justice.gouv.fr/,11 rue Paul Louis Courier B.P. 625,36044,36000,CHATEAUROUX,+33 2 54 53 03 10,+33 2 54 08 44 86,Du Lundi au Vendredi : de 8h30 à 12h et de 13h30 à 17h,46.80937,1.692057,8,Ministère de la justice,http://lannuaire.service-public.fr/services_locaux/centre/indre/ti-36044-01.html,,
4cac9e6a293594648a0017e4,Tribunal d'Instance de Sète,justice-organisme-public,ti,http://www.justice.gouv.fr/, ,34301,34200,SETE,+33 4 67 18 61 00,+33 4 67 74 50 49,Du Lundi au Vendredi : de 8h30 à 17h30,43.3983972,3.6952403,8,Ministère de la justice,http://lannuaire.service-public.fr/services_locaux/languedoc-roussillon/herault/ti-34301-01.html,17 Rue Lacan,
4cac9e6a293594648a0017e7,Tribunal d'Instance de Vienne,justice-organisme-public,ti,http://www.justice.gouv.fr/,27-31 Rue de Bourgogne B.P. 105,38544,38209,VIENNE CEDEX,+33 4 74 59 10 80,+33 4 74 59 48 36,Du Lundi au Vendredi : de 8h30 à 12h et de 13h à 16h30,45.526061,4.873225,8,Ministère de la justice,http://lannuaire.service-public.fr/services_locaux/rhone-alpes/isere/ti-38544-01.html,,
4cac9e6a293594648a0017e6,Tribunal d'Instance de Grenoble,justice-organisme-public,ti,http://www.justice.gouv.fr/,Palais de Justice Place Firmin Gautier  B.P. 130,38185,38019,GRENOBLE CEDEX 1,+33 4 38 21 21 21,+33 4 38 21 23 23,"Du Lundi au Vendredi : de 8h30 à 12h et de 13h30 à 16h30
IMPERATIF : prendre rendez-vous pour s'annoncer",45.192925,5.727597,6,Ministère de la justice,http://lannuaire.service-public.fr/services_locaux/rhone-alpes/isere/ti-38185-01.html,,
4cac9e6a293594648a0017e9,Tribunal d'Instance de Saint-Nazaire,justice-organisme-public,ti,http://www.justice.gouv.fr/,54 Rue de la Paix B.P. 282,44184,44616,ST NAZAIRE CEDEX,+33 2 72 27 31 31,+33 2 72 27 31 10,Du Lundi au Vendredi : de 9h à 12h et de 13h30 à 17h,47.277669,-2.215712,7,Ministère de la justice,http://lannuaire.service-public.fr/services_locaux/pays-de-la-loire/loire-atlantique/ti-44184-01.html,,
4cac9e6a293594648a0017e8,Tribunal d'Instance de Nantes,justice-organisme-public,ti,http://www.justice.gouv.fr/, ,44109,44922,NANTES CEDEX 9,+33 2 51 17 95 00,+33 2 51 17 95 92,Du Lundi au Vendredi : de 8h30 à 17h,47.207549,-1.557124,6,Ministère de la justice,http://lannuaire.service-public.fr/services_locaux/pays-de-la-loire/loire-atlantique/ti-44109-01.html,Quai François Mitterrand,
4cac9e6a293594648a0017eb,Tribunal d'Instance de Cahors,justice-organisme-public,ti,http://www.justice.gouv.fr/,Boulevard Léon Gambetta Square de Verdun,46042,46000,CAHORS,+33 5 65 23 46 70,+33 5 65 23 46 78,Du Lundi au Vendredi : de 8h30 à 12h et de 13h à 16h30,44.450094,1.440018,6,Ministère de la justice,http://lannuaire.service-public.fr/services_locaux/midi-pyrenees/lot/ti-46042-01.html,,
4cac9e6a293594648a0017ea,Tribunal d'Instance de Montargis,justice-organisme-public,ti,http://www.justice.gouv.fr/, ,45208,45207,MONTARGIS CEDEX,+33 2 38 85 24 42,+33 2 38 85 05 86,Du Lundi au Vendredi : de 8h30 à 12h et de 13h30 à 17h,47.9988918,2.7297794,8,Ministère de la justice,http://lannuaire.service-public.fr/services_locaux/centre/loiret/ti-45208-01.html,84 Rue du Général Leclerc,
4cac9e6a293594648a0017ed,Tribunal d'Instance de Marmande,justice-organisme-public,ti,http://www.ca-agen.justice.fr/,1 Place des Droits de l'Homme B.P. 321,47157,47207,MARMANDE CEDEX,+33 5 53 20 39 32,+33 5 53 20 39 39,Du Lundi au Vendredi : de 8h30 à 12h30 et de 13h30 à 17h,44.504695,0.173689,4,Ministère de la justice,http://lannuaire.service-public.fr/services_locaux/aquitaine/lot-et-garonne/ti-47157-01.html,,ti-marmande@justice.fr
4cac9e6a293594648a0017ec,Tribunal d'instance d'Agen,justice-organisme-public,ti,http://www.ca-agen.justice.fr/,Résidence A. Fallières 14B Rue Diderot,47001,47000,AGEN,+33 5 53 77 07 90,+33 5 53 77 07 99,Du Lundi au Vendredi : de 8h30 à 12h et de 13h à 17h,44.200669,0.616701,6,Ministère de la justice,http://lannuaire.service-public.fr/services_locaux/aquitaine/lot-et-garonne/ti-47001-01.html,,ti-agen@justice.fr
4cac9e6a293594648a0017ef,Tribunal d'Instance d'Avranches,justice-organisme-public,ti,http://www.justice.gouv.fr/, ,50025,50300,AVRANCHES,+33 2 33 58 15 26,+33 2 33 58 46 06,"Le Lundi : de 9h à 12h et de 13h30 à 17h
Le Mardi : de 9h à 17h15
Le Mercredi : de 9h à 12h et de 13h30 à 17h
Le Jeudi : de 9h à 17h15
Le Vendredi : de 9h à 12h et de 13h30 à 17h",48.6883476,-1.3635765,8,Ministère de la justice,http://lannuaire.service-public.fr/services_locaux/basse-normandie/manche/ti-50025-01.html,36 Rue de Lille,
4cac9e61293594648a000612,Tribunal d'instance d'Annonay,justice-organisme-public,ti,http://www.justice.gouv.fr/, ,7010,7100,ANNONAY,+33 4 75 67 73 13,,"Le Lundi : de 9h à 11h45 et de 13h45 à 16h
Le Mardi : de 9h à 16h
Du Mercredi au Vendredi : de 9h à 11h45 et de 13h45 à 16h",45.2439614,4.6737007,8,Ministère de la justice,http://lannuaire.service-public.fr/services_locaux/rhone-alpes/ardeche/ti-07010-01.html,26 boulevard de la République,
4cac9e6a293594648a0017f1,Tribunal d'Instance de Chaumont,justice-organisme-public,ti,http://www.justice.gouv.fr/,Rue du Palais Bâtiment B     B.P. 2061,52121,52903,CHAUMONT CEDEX 9,+33 3 25 35 34 34,+33 3 25 35 34 35,Du Lundi au Vendredi : de 8h30 à 12h et de 14h à 16h,48.112727,5.136812,6,Ministère de la justice,http://lannuaire.service-public.fr/services_locaux/champagne-ardenne/haute-marne/ti-52121-01.html,,
4cac9e6a293594648a0017f0,Tribunal d'Instance de Reims,justice-organisme-public,ti,http://www.justice.gouv.fr/, ,51454,51095,REIMS CEDEX,+33 3 26 49 53 53,+33 3 26 47 45 91,Du Lundi au Vendredi : de 8h45 à 12h et de 13h45 à 17h,49.254484,4.0315076,8,Ministère de la justice,http://lannuaire.service-public.fr/services_locaux/champagne-ardenne/marne/ti-51454-01.html,1 Place Myron Herrick,ti-reims@justice.fr
4cac9e6a293594648a0017f3,Tribunal d'Instance de Nancy,justice-organisme-public,ti,http://www.justice.gouv.fr/,Cité Judiciaire Rue du Gal Fabvier Case Off.27,54395,54035,NANCY CEDEX,+33 3 83 90 85 60,+33 3 83 90 86 14,"Du Lundi au Vendredi : de 8h à 17h
Durant les congés scolaires : de 8h30 à 12h et de 13h à 16h",48.687251,6.171022,4,Ministère de la justice,http://lannuaire.service-public.fr/services_locaux/lorraine/meurthe-et-moselle/ti-54395-01.html,,
4cac9e6a293594648a0017f2,Tribunal d'Instance de Laval,justice-organisme-public,ti,http://www.justice.gouv.fr/,13 Place Saint Tugal BP 81515,53130,53015,LAVAL CEDEX,+33 2 43 59 79 10,+33 2 43 49 17 85,Du Lundi au Vendredi : de 9h à 12h et de 13h30 à 16h30,48.0693098,-0.7735482,8,Ministère de la justice,http://lannuaire.service-public.fr/services_locaux/pays-de-la-loire/mayenne/ti-53130-01.html,,
4cac9e6a293594648a0017f5,Tribunal d'Instance de Vannes,justice-organisme-public,ti,http://www.justice.gouv.fr/,22 Bis Place de la République B.P. 504,56260,56019,VANNES CEDEX,+33 2 97 43 77 06,+33 2 97 54 36 35,Du Lundi au Vendredi : de 8h30 à 12h et de 13h à 16h30,47.656336,-2.761394,8,Ministère de la justice,http://lannuaire.service-public.fr/services_locaux/bretagne/morbihan/ti-56260-01.html,,
4cac9e6a293594648a0017f4,Tribunal d'Instance de Lorient,justice-organisme-public,ti,http://www.justice.gouv.fr/,Centre d'affaires la découverte 39 rue de la villeneuve,56121,56100,LORIENT,+33 2 97 88 28 00,,Du Lundi au Vendredi : de 9h à 12h et de 13h30 à 16h30,47.75257,-3.378909,6,Ministère de la justice,http://lannuaire.service-public.fr/services_locaux/bretagne/morbihan/ti-56121-01.html,,
4cac9e6a293594648a0017f7,Tribunal d'Instance de Thionville,justice-organisme-public,ti,http://www.justice.gouv.fr/,Moulin Nouviaire 9 Rue Joffre   B.P. 50550,57672,57109,THIONVILLE CEDEX,+33 3 82 82 05 40,+33 3 82 82 72 14,"Du Lundi au Vendredi : de 8h30 à 11h45
nationalité, pacs,associations, registre du commerce, livre foncier, droit local ; pour les services du greffe civil, tutelles, saisies-arrêts, police, s'adresser au TGI, quai Marchal",49.373816,6.140802,4,Ministère de la justice,http://lannuaire.service-public.fr/services_locaux/lorraine/moselle/ti-57672-01.html,,
4cac9e6a293594648a0017f6,Tribunal d'Instance de Metz,justice-organisme-public,ti,http://www.justice.gouv.fr/,3 Rue Haute Pierre B.P. 41045,57463,57036,METZ CEDEX 01,+33 3 87 56 75 00,+33 3 87 56 75 83,Du Lundi au Vendredi : de 8h30 à 11h45 et de 13h30 à 16h30,49.116779,6.171264,8,Ministère de la justice,http://lannuaire.service-public.fr/services_locaux/lorraine/moselle/ti-57463-01.html,,
4cac9e6a293594648a0017f9,Tribunal d'Instance d'Hazebrouck,justice-organisme-public,ti,http://www.justice.gouv.fr/,Résidence Flandres 16 Rue André Biebuyck  BP 70261,59295,59524,HAZEBROUCK CEDEX,+33 3 28 43 87 50,+33 3 28 41 39 27,Du Lundi au Vendredi : de 9h à 12h et de 13h30 à 16h,50.732582,2.528169,6,Ministère de la justice,http://lannuaire.service-public.fr/services_locaux/nord-pas-de-calais/nord/ti-59295-01.html,,ti-hazebrouck@justice.fr
4cac9e6a293594648a0017f8,Tribunal d'Instance de Dunkerque,justice-organisme-public,ti,http://www.justice.gouv.fr/,16 rue du sud BP 43123,59183,59377,DUNKERQUE CEDEX 1,+33 3 28 25 98 20,+33 3 28 25 98 21,Du Lundi au Vendredi : de 8h30 à 12h et de 13h30 à 16h45,51.032384,2.377657,8,Ministère de la justice,http://lannuaire.service-public.fr/services_locaux/nord-pas-de-calais/nord/ti-59183-01.html,,ti-dunkerque@justice.fr
4cac9e6a293594648a0017fb,Tribunal d'Instance de Roubaix,justice-organisme-public,ti,http://www.justice.gouv.fr/, ,59512,59100,ROUBAIX,+33 3 20 76 98 30,+33 3 20 36 51 25,"Le Lundi : de 8h30 à 12h et de 13h15 à 17h30
Le Mardi : de 8h45 à 12h et de 13h15 à 16h45
Le Mercredi : de 8h30 à 12h et de 13h15 à 17h30
Du Jeudi au Vendredi : de 8h45 à 12h et de 13h15 à 16h45",50.6916457,3.1664704,8,Ministère de la justice,http://lannuaire.service-public.fr/services_locaux/nord-pas-de-calais/nord/ti-59512-01.html,45 Rue du Grand Chemin,ti-roubaix@justice.fr
4cac9e6a293594648a0017fa,Tribunal d'Instance de Maubeuge,justice-organisme-public,ti,http://www.justice.gouv.fr/,Parvis de l'Hôtel de Ville place du Dr Forest - BP 40274,59392,59607,MAUBEUGE CEDEX,+33 3 27 53 15 20,+33 3 27 53 15 21,"Du Lundi au Jeudi : de 8h30 à 12h et de 13h30 à 17h
Le Vendredi : de 8h30 à 12h et de 13h30 à 16h",50.279842,3.96776,6,Ministère de la justice,http://lannuaire.service-public.fr/services_locaux/nord-pas-de-calais/nord/ti-59392-01.html,,ti-maubeuge@justice.fr
4cac9e6a293594648a0017fd,Tribunal d'Instance de Beauvais,justice-organisme-public,ti,http://www.justice.gouv.fr/,20 Boulevard Saint-Jean B.P. 325,60057,60021,BEAUVAIS CEDEX,+33 3 44 79 60 40,+33 3 44 79 61 49,Du Lundi au Vendredi : de 9h à 11h30 et de 14h à 16h30,49.429088,2.075929,8,Ministère de la justice,http://lannuaire.service-public.fr/services_locaux/picardie/oise/ti-60057-01.html,,
4cac9e6a293594648a0017fc,Tribunal d'Instance de Tourcoing,justice-organisme-public,ti,http://www.justice.gouv.fr/, ,59599,59200,TOURCOING,+33 3 20 76 35 90,+33 3 20 01 70 18,"Le Lundi : de 8h30 à 17h
Du Jeudi au Vendredi : de 8h30 à 12h et de 14h à 17h",50.727771,3.158699,8,Ministère de la justice,http://lannuaire.service-public.fr/services_locaux/nord-pas-de-calais/nord/ti-59599-01.html,65 Rue de Gand,
4cac9e6a293594648a0017ff,Tribunal d'Instance de Pau,justice-organisme-public,ti,http://www.ca-pau.justice.fr/, ,64445,64034,PAU CEDEX,+33 5 59 82 39 00,+33 5 59 27 63 03,Du Lundi au Vendredi : de 8h30 à 12h et de 13h à 17h,43.298738,-0.3714274,8,Ministère de la justice,http://lannuaire.service-public.fr/services_locaux/aquitaine/pyrenees-atlantiques/ti-64445-01.html,6 Rue Mourot,ca-pau@justice.fr
4cac9e6a293594648a0017fe,Tribunal d'Instance de Thiers,justice-organisme-public,ti,http://www.justice.gouv.fr/,6 Place Saint-Genés B.P. 204,63430,63301,THIERS CEDEX,+33 4 73 80 22 12,+33 4 73 80 89 20,Du Lundi au Vendredi : de 8h30 à 12h et de 14h à 17h,45.853192,3.547958,7,Ministère de la justice,http://lannuaire.service-public.fr/services_locaux/auvergne/puy-de-dome/ti-63430-01.html,,
4cac9e61293594648a00063b,Tribunal d'Instance de Condom,justice-organisme-public,ti,http://www.justice.gouv.fr/, ,32107,32100,CONDOM,+33 5 62 28 15 49,+33 5 62 28 44 96,"Du Lundi au Jeudi : de 9h à 12h et de 14h à 17h
Le Vendredi : de 9h à 12h et de 14h à 16h",43.9586285,0.3718807,6,Ministère de la justice,http://lannuaire.service-public.fr/services_locaux/midi-pyrenees/gers/ti-32107-01.html,Place Lannelongue,
4cac9e6a293594648a0017c9,Tribunal d'Instance de Belley,justice-organisme-public,ti,,Boulevard du Mail B.P. 137,1034,1306,BELLEY CEDEX,+33 4 79 81 23 05,+33 4 79 81 56 59,,45.7602077,5.6890103,6,Ministère de la justice,,,
4cac9e61293594648a000634,Tribunal d'Instance de Brest,justice-organisme-public,ti,http://www.justice.gouv.fr/,Bâtiment QUAI OUEST 150 rue Ernest Hemingway,29019,29200,BREST,+33 2 98 20 75 10,,Du Lundi au Vendredi : de 8h30 à 12h et de 13h à 16h30,48.385604,-4.478591,8,Ministère de la justice,http://lannuaire.service-public.fr/services_locaux/bretagne/finistere/ti-29019-01.html,,
4cac9e6a293594648a0017cb,Tribunal d'Instance de Soissons,justice-organisme-public,ti,http://www.justice.gouv.fr/, ,2722,2209,SOISSONS CEDEX,+33 3 23 76 39 39,+33 3 23 76 39 40,Du Lundi au Vendredi : de 8h30 à 12h et de 13h30 à 16h30,49.3804223,3.3280404,8,Ministère de la justice,http://lannuaire.service-public.fr/services_locaux/picardie/aisne/ti-02722-01.html,76 Rue Saint-Martin,
4cac9e6a293594648a0017ca,Tribunal d'Instance de Nantua,justice-organisme-public,ti,http://www.justice.gouv.fr/,Palais de Justice 4 Place d'Armes   B.P. 27,1269,1130,NANTUA,+33 4 74 75 02 42,+33 4 74 75 08 82,"Du Lundi au Jeudi : de 8h30 à 16h30
Le Vendredi : de 8h30 à 16h",46.157038,5.603143,4,Ministère de la justice,http://lannuaire.service-public.fr/services_locaux/rhone-alpes/ain/ti-01269-01.html,,
4cac9e6a293594648a0017cd,Tribunal d'Instance de Cannes,justice-organisme-public,ti,http://www.justice.gouv.fr/,19 Boulevard Carnot CS 40016,6029,6414,CANNES CEDEX,+33 4 92 99 64 50,+33 4 93 39 94 13,Du Lundi au Vendredi : de 8h30 à 12h,43.556002,7.016974,8,Ministère de la justice,http://lannuaire.service-public.fr/services_locaux/provence-alpes-cote-d-azur/alpes-maritimes/ti-06029-01.html,,
4cac9e6a293594648a0017cc,Tribunal d'Instance d'Antibes,justice-organisme-public,ti,http://www.justice.gouv.fr/,60 deuxième avenue quartier Nova Antipolis,6004,6600,ANTIBES,+33 4 92 90 49 80,+33 4 92 90 49 99,Du Lundi au Vendredi : de 8h30 à 12h et de 13h à 16h,43.600695,7.091052,8,Ministère de la justice,http://lannuaire.service-public.fr/services_locaux/provence-alpes-cote-d-azur/alpes-maritimes/ti-06004-01.html,,
4cac9e6a293594648a0017cf,Tribunal d'Instance de Menton,justice-organisme-public,ti,http://www.justice.gouv.fr/, ,6083,6500,MENTON,+33 4 93 35 74 92,+33 4 93 28 52 91,Du Lundi au Vendredi : de 9h à 12h30 et de 13h30 à 16h,43.7746881,7.498564,6,Ministère de la justice,http://lannuaire.service-public.fr/services_locaux/provence-alpes-cote-d-azur/alpes-maritimes/ti-06083-01.html,7 Rue Prato,ti-menton@justice.fr
4cac9e6a293594648a0017ce,Tribunal d'Instance de Grasse,justice-organisme-public,ti,http://www.justice.gouv.fr/,37 Avenue Pierre Semard B.P. 71029,6069,6133,GRASSE CEDEX,+33 4 92 60 74 00,+33 4 92 60 74 09,"Du Lundi au Mardi : de 8h15 à 12h
Le Jeudi : de 8h15 à 12h",43.656694,6.928526,8,Ministère de la justice,http://lannuaire.service-public.fr/services_locaux/provence-alpes-cote-d-azur/alpes-maritimes/ti-06069-01.html,,
4cac9e6a293594648a0017d1,Tribunal d'Instance de Saint-Girons,justice-organisme-public,ti,,Château  Vicomtes du Couserans rue Renée Dejean B.P. 70 112,9261,9201,ST GIRONS CEDEX,+33 5 61 66 01 34,+33 5 61 66 61 82,,42.9864603,1.14405,4,Ministère de la justice,,,
4cac9e6a293594648a0017d0,Tribunal d'Instance de Privas,justice-organisme-public,ti,http://www.justice.gouv.fr/,1 Bd des Mobiles B.P.728,7186,7007,PRIVAS CEDEX,+33 4 75 66 05 20,+33 4 75 64 17 28,Le Lundi : de 9h30 à 11h45 et de 14h à 16h15,44.735415,4.601421,6,Ministère de la justice,http://lannuaire.service-public.fr/services_locaux/rhone-alpes/ardeche/ti-07186-01.html,,
4cac9e6a293594648a0017d3,Tribunal d'Instance de Carcassonne,justice-organisme-public,ti,http://www.justice.gouv.fr/,28 Boulevard Jean-Jaurès B.P. 818,11069,11012,CARCASSONNE CEDEX,+33 4 68 10 37 38,+33 4 68 10 37 80,"Du Lundi au Jeudi : de 9h à 12h et de 14h à 17h
Le Vendredi : de 9h à 12h et de 14h à 16h15",43.214867,2.354691,8,Ministère de la justice,http://lannuaire.service-public.fr/services_locaux/languedoc-roussillon/aude/ti-11069-01.html,,
4cac9e6a293594648a0017d2,Tribunal d'Instance de Troyes,justice-organisme-public,ti,http://www.justice.gouv.fr/,85 Rue du Général de Gaulle B.P. 384,10387,10026,TROYES CEDEX,+33 3 25 43 56 10,+33 3 25 43 56 17,Du Lundi au Vendredi : de 9h à 12h et de 14h à 17h,48.297203,4.069243,8,Ministère de la justice,http://lannuaire.service-public.fr/services_locaux/champagne-ardenne/aube/ti-10387-01.html,,chg.ti-troyes@justice.fr
4cac9e6a293594648a0017d5,Tribunal d'Instance d'Aubagne,justice-organisme-public,ti,http://www.justice.gouv.fr/,La Malounière Avenue de Verdun,13005,13400,AUBAGNE,+33 4 42 82 01 88,+33 4 42 82 09 89,Du Lundi au Vendredi : de 9h à 12h et de 14h à 16h30,43.287531,5.576811,6,Ministère de la justice,http://lannuaire.service-public.fr/services_locaux/provence-alpes-cote-d-azur/bouches-du-rhone/ti-13005-01.html,,
4cac9e6a293594648a0017d4,Tribunal d'Instance de Rodez,justice-organisme-public,ti,http://www.justice.gouv.fr/,Boulevard de Guizard BP 3215,12202,12032,RODEZ CEDEX 9,+33 5 65 73 43 05,+33 5 65 73 43 06,Du Lundi au Vendredi : de 9h à 12h et de 14h à 16h,44.349242,2.572401,6,Ministère de la justice,http://lannuaire.service-public.fr/services_locaux/midi-pyrenees/aveyron/ti-12202-01.html,,
4cac9e6a293594648a0017d7,Tribunal d'Instance de Caen,justice-organisme-public,ti,http://www.justice.gouv.fr/,25 Place de la République B.P. 508,14118,14035,CAEN CEDEX 1,+33 2 31 86 08 98,+33 2 31 85 93 36,Du Lundi au Vendredi : de 8h30 à 12h et de 13h30 à 17h,49.180795,-0.364061,8,Ministère de la justice,http://lannuaire.service-public.fr/services_locaux/basse-normandie/calvados/ti-14118-01.html,,
4cac9e6a293594648a0017d6,Tribunal d'Instance de Salon-de-Provence,justice-organisme-public,ti,http://www.justice.gouv.fr/,481 Boulevard de la République B.P. 19,13103,13651,SALON DE PROVENCE CEDEX,+33 4 90 56 05 46,+33 4 90 56 02 99,Du Lundi au Vendredi : de 9h à 12h et de 14h à 16h,43.640473,5.089142,8,Ministère de la justice,http://lannuaire.service-public.fr/services_locaux/provence-alpes-cote-d-azur/bouches-du-rhone/ti-13103-01.html,,
4cac9e6a293594648a0017d9,Tribunal d'Instance de Bourges,justice-organisme-public,ti,http://www.justice.gouv.fr/, ,18033,18023,BOURGES CEDEX,+33 2 34 34 60 20,+33 2 34 34 60 44,Du Lundi au Vendredi : de 8h30 à 12h30 et de 13h30 à 17h,47.092149,2.393777,7,Ministère de la justice,http://lannuaire.service-public.fr/services_locaux/centre/cher/ti-18033-01.html,1 rue du Général Ferrié,
4cac9e6a293594648a0017d8,Tribunal d'Instance d'Aurillac,justice-organisme-public,ti,http://www.justice.gouv.fr/,21 Place du Square B.P. 619,15014,15006,AURILLAC CEDEX,+33 4 71 48 88 00,+33 4 71 48 75 71,Du Lundi au Vendredi : de 8h30 à 12h et de 13h30 à 17h,44.928934,2.443212,8,Ministère de la justice,http://lannuaire.service-public.fr/services_locaux/auvergne/cantal/ti-15014-01.html,,
4cac9e6a293594648a0017db,Tribunal d'instance de Montbard,justice-organisme-public,ti,http://www.justice.gouv.fr/,2 rue d'Abrantès BP 77,21425,21506,MONTBARD CEDEX,,,Du Lundi au Vendredi : de 9h à 12h30 et de 13h15 à 17h,47.623985,4.3385386,8,Ministère de la justice,http://lannuaire.service-public.fr/services_locaux/bourgogne/cote-d-or/ti-21425-01.html,,
4cac9e6a293594648a0017da,Tribunal d'Instance de Tulle,justice-organisme-public,ti,http://www.justice.gouv.fr/, ,19272,19012,TULLE CEDEX,+33 5 55 26 71 16,+33 5 55 26 32 22,Du Lundi au Vendredi : de 8h30 à 12h et de 13h30 à 17h,45.263366,1.767924,6,Ministère de la justice,http://lannuaire.service-public.fr/services_locaux/limousin/correze/ti-19272-01.html,Quai Gabriel Péri,
4cac9e6a293594648a0017dd,Tribunal d'Instance de Quimper,justice-organisme-public,ti,http://www.justice.gouv.fr/, ,29232,29018,QUIMPER CEDEX,+33 2 98 10 14 00,+33 2 98 55 40 07,Du Lundi au Vendredi : de 8h30 à 12h30 et de 13h30 à 16h15,47.9755613,-4.0971902,8,Ministère de la justice,http://lannuaire.service-public.fr/services_locaux/bretagne/finistere/ti-29232-01.html,77 Rue du Président Sadate,
4cac9e6a293594648a0017dc,Tribunal d'Instance de Guéret,justice-organisme-public,ti,http://www.justice.gouv.fr/, ,23096,23000,GUERET,+33 5 55 51 96 00,+33 5 55 51 96 07,Du Lundi au Vendredi : de 8h30 à 12h et de 13h30 à 17h,46.168995,1.872799,8,Ministère de la justice,http://lannuaire.service-public.fr/services_locaux/limousin/creuse/ti-23096-01.html,2 rue des Tanneries,
4cac9e6a293594648a0017df,Tribunal d'Instance de Bastia,justice-organisme-public,ti,http://www.justice.gouv.fr/, ,2B033,20407,BASTIA CEDEX,+33 4 95 55 23 00,+33 4 95 31 58 36,Du Lundi au Vendredi : de 8h à 12h et de 13h à 18h,42.7021365,9.4507475,4,Ministère de la justice,http://lannuaire.service-public.fr/services_locaux/corse/haute-corse/ti-2B033-01.html,Rond Point de Moro Giafferi,
4cac9e6a293594648a0017de,Tribunal d'Instance d'Ajaccio,justice-organisme-public,ti,http://www.justice.gouv.fr/,Palais du Finosello Av. Maréchal Lyautey  BP 10973,2A004,20700,AJACCIO CEDEX 9,+33 4 95 23 77 60,+33 4 95 23 77 70,Du Lundi au Vendredi : de 8h30 à 12h et de 14h à 17h,41.942438,8.747068,6,Ministère de la justice,http://lannuaire.service-public.fr/services_locaux/corse/corse-du-sud/ti-2A004-01.html,,
4cac9e87293594648a004cdd,Tribunal d'Instance d'Evreux,justice-organisme-public,ti,http://www.justice.gouv.fr/,4 bis Rue de Verdun BP 60110,27229,27022,EVREUX CEDEX,+33 2 32 29 56 40,+33 2 32 29 56 93,Du Lundi au Vendredi : de 9h à 12h et de 14h à 17h,49.023917,1.144505,8,Ministère de la justice,http://lannuaire.service-public.fr/services_locaux/haute-normandie/eure/ti-27229-01.html,,
4cac9e87293594648a004cdc,Tribunal d'Instance de Saint-Brieuc,justice-organisme-public,ti,http://www.justice.gouv.fr/,6 bis allée Marie Le Vaillant B.P. 53548,22278,22035,ST BRIEUC CEDEX 1,+33 2 96 62 64 20,+33 2 96 62 64 22,Du Lundi au Vendredi : de 8h30 à 12h et de 13h30 à 16h30,48.512636,-2.758852,8,Ministère de la justice,http://lannuaire.service-public.fr/services_locaux/bretagne/cotes-d-armor/ti-22278-01.html,,ti-st-brieuc@justice.fr
4cac9e87293594648a004cdf,Tribunal d'Instance de Morlaix,justice-organisme-public,ti,http://www.justice.gouv.fr/,Ancien Lycée Tristan Corbière Kerneguès    C.S. 37908,29151,29679,MORLAIX CEDEX,+33 2 98 88 03 47,+33 2 98 63 43 50,"Du Lundi au Mercredi : de 8h30 à 12h et de 13h30 à 17h
Le Jeudi : de 8h30 à 17h30
Le Vendredi : de 8h30 à 12h et de 13h30 à 17h",48.604624,-3.825503,4,Ministère de la justice,http://lannuaire.service-public.fr/services_locaux/bretagne/finistere/ti-29151-01.html,,
4cac9e87293594648a004cde,Tribunal d'Instance de Chartres,justice-organisme-public,ti,http://www.justice.gouv.fr/, ,28085,28000,CHARTRES,+33 2 37 18 28 20,+33 2 37 36 02 25,Du Lundi au Vendredi : de 9h à 12h30 et de 14h à 17h,48.4432697,1.4875321,8,Ministère de la justice,http://lannuaire.service-public.fr/services_locaux/centre/eure-et-loir/ti-28085-01.html,5 Rue Mathurin Régnier,
4cac9e87293594648a004cd9,Tribunal d'Instance de Cagnes-sur-Mer,justice-organisme-public,ti,http://www.justice.gouv.fr/,100 Avenue Cyrille Besset Au Cros de Cagnes,6027,6800,CAGNES SUR MER,+33 4 92 12 52 50,+33 4 92 12 52 51,Du Lundi au Vendredi : de 8h à 12h et de 13h à 16h,43.659246,7.162061,8,Ministère de la justice,http://lannuaire.service-public.fr/services_locaux/provence-alpes-cote-d-azur/alpes-maritimes/ti-06027-01.html,,
4cac9e87293594648a004cdb,Tribunal d'Instance de Jonzac,justice-organisme-public,ti,http://wwww.justice.gouv.fr/,35 Rue des Carmes B.P. 119,17197,17503,JONZAC CEDEX,+33 5 46 48 02 40,+33 5 46 48 44 19,Du Lundi au Vendredi : de 8h30 à 12h30 et de 13h30 à 17h30,45.442517,-0.435354,8,Ministère de la justice,http://lannuaire.service-public.fr/services_locaux/poitou-charentes/charente-maritime/ti-17197-01.html,,chg.ti-jonzac@justice.fr
4cac9e87293594648a004cda,Tribunal d'Instance de Charleville-Mézières,justice-organisme-public,ti,http://www.justice.gouv.fr/, ,8105,8000,CHARLEVILLE MEZIERES,+33 3 51 16 80 06,+33 3 24 59 35 22,Du Lundi au Vendredi : de 8h30 à 17h,49.771015,4.717206,8,Ministère de la justice,http://lannuaire.service-public.fr/services_locaux/champagne-ardenne/ardennes/ti-08105-01.html,12 rue Mme de Sévigné,ti-charleville-mezieres@justice.fr
4cac9e87293594648a004ced,Tribunal d'instance d'Annemasse,justice-organisme-public,ti,http://www.justice.gouv.fr/, ,74012,74100,ANNEMASSE,+33 4 50 84 05 50,+33 4 50 38 90 56,Du Lundi au Vendredi : de 8h30 à 12h et de 14h à 17h,46.189611,6.237425,8,Ministère de la justice,http://lannuaire.service-public.fr/services_locaux/rhone-alpes/haute-savoie/ti-74012-01.html,20 rue Léandre Vaillat,
4cac9e87293594648a004cec,Tribunal d'Instance du Creusot,justice-organisme-public,ti,http://www.justice.gouv.fr/,20 Rue de la Chaise B.P. 84,71153,71206,LE CREUSOT CEDEX,+33 3 85 55 10 16,+33 3 85 55 49 50,Du Lundi au Vendredi : de 9h à 11h45 et de 13h30 à 16h30,46.804903,4.427015,8,Ministère de la justice,http://lannuaire.service-public.fr/services_locaux/bourgogne/saone-et-loire/ti-71153-01.html,,chg.ti-le-creusot@justice.fr
4cac9e87293594648a004cef,Tribunal d'Instance de Fréjus,justice-organisme-public,ti,http://www.justice.gouv.fr/,Palais de Justice 268 Rue Jean-Jaurès   B.P. 118,83061,83608,FREJUS CEDEX,+33 4 94 44 54 10,+33 4 94 40 12 75,Du Lundi au Vendredi : de 8h30 à 16h30,43.454735,6.766183,4,Ministère de la justice,http://lannuaire.service-public.fr/services_locaux/provence-alpes-cote-d-azur/var/ti-83061-01.html,,
4cac9e87293594648a004cee,Tribunal d'Instance de Draguignan,justice-organisme-public,ti,http://www.justice.gouv.fr/,Cité Judiciaire 11 Rue Pierre Clément,83050,83300,DRAGUIGNAN,+33 4 94 60 57 50,+33 4 94 60 57 78,Du Lundi au Vendredi : de 8h30 à 12h et de 13h30 à 17h,43.536572,6.465445,8,Ministère de la justice,http://lannuaire.service-public.fr/services_locaux/provence-alpes-cote-d-azur/var/ti-83050-01.html,,
4cac9e87293594648a004ce9,Tribunal d'Instance de Clermont-Ferrand,justice-organisme-public,ti,http://www.justice.gouv.fr/,Palais de Justice 16 Place de l'Etoile   B.P. 121,63113,63033,CLERMONT FERRAND CEDEX 1,+33 4 73 31 78 90,+33 4 73 31 79 00,Du Lundi au Vendredi : de 8h30 à 12h et de 13h à 16h30,45.783896,3.108126,4,Ministère de la justice,http://lannuaire.service-public.fr/services_locaux/auvergne/puy-de-dome/ti-63113-01.html,,
4cac9e87293594648a004ce8,Tribunal d'Instance de Lens,justice-organisme-public,ti,http://www.justice.gouv.fr/,11 Rue de l'Hospice B.P. 247,62498,62305,LENS CEDEX,+33 3 21 13 54 10,+33 3 21 70 60 44,Du Lundi au Vendredi : de 8h15 à 12h et de 13h30 à 16h45,50.430198,2.83502,8,Ministère de la justice,http://lannuaire.service-public.fr/services_locaux/nord-pas-de-calais/pas-de-calais/ti-62498-01.html,,chg.ti-lens@justice.fr
4cac9e87293594648a004ceb,Tribunal d'Instance de Colmar,justice-organisme-public,ti,http://www.justice.gouv.fr/,10 Rue des Augustins B.P. 50466,68066,68020,COLMAR CEDEX,+33 3 89 24 45 24,+33 3 89 24 56 95,"Du Lundi au Jeudi : de 8h à 12h et de 14h à 17h
Le Vendredi : de 8h à 12h et de 14h à 16h",48.076213,7.357129,8,Ministère de la justice,http://lannuaire.service-public.fr/services_locaux/alsace/haut-rhin/ti-68066-01.html,,
4cac9e87293594648a004cea,Tribunal d'Instance de Schiltigheim,justice-organisme-public,ti,http://www.justice.gouv.fr/, ,67447,67300,SCHILTIGHEIM,+33 3 88 19 27 80,+33 3 88 81 67 56,"Le Lundi : de 8h15 à 12h15 et de 13h à 16h
Le Mardi : de 8h15 à 17h
Du Mercredi au Vendredi : de 8h15 à 12h15 et de 13h à 16h
- standard et successions : 03.88.19.27.80
- injonctions de payer : 03.88.19.27.81
- tribunal de police et associations : 03.88.19.27.82
- saisies-rémunérations : 03.88.19.27.85
- service civil : 03.88.19.27.86
- pacs : 03.88.19.27.90
- tutelles : 03.88.19.27.95",48.6034123,7.7547911,8,Ministère de la justice,http://lannuaire.service-public.fr/services_locaux/alsace/bas-rhin/ti-67447-01.html,10 Rue du Tribunal,ti-schiltigheim@justice.fr
4cac9e87293594648a004ce5,Tribunal d'Instance de Bar-le-Duc,justice-organisme-public,ti,http://www.justice.gouv.fr/, ,55029,55000,BAR LE DUC,+33 3 29 79 13 91,+33 3 29 79 95 10,Du Lundi au Vendredi : de 8h30 à 12h et de 13h30 à 17h,48.7687461,5.1592725,6,Ministère de la justice,http://lannuaire.service-public.fr/services_locaux/lorraine/meuse/ti-55029-01.html,27 Place Saint-Pierre,ti-bar-le-duc@justice.fr
4cac9e87293594648a004ce4,Tribunal d'Instance de Saumur,justice-organisme-public,ti,http://www.justice.gouv.fr/, ,49328,49412,SAUMUR CEDEX,+33 2 41 83 47 40,+33 2 41 83 99 20,Du Lundi au Vendredi : de 8h30 à 12h et de 13h30 à 17h,47.2555479,-0.0834208,4,Ministère de la justice,http://lannuaire.service-public.fr/services_locaux/pays-de-la-loire/maine-et-loire/ti-49328-01.html,Place Saint-Michel,
4cac9e87293594648a004ce7,Tribunal d'Instance d'Arras,justice-organisme-public,ti,http://www.justice.gouv.fr/,13 Rue Roger Salengro B.P. 565,62041,62008,ARRAS CEDEX,+33 3 21 71 62 25,+33 3 21 71 48 45,Du Lundi au Vendredi : de 8h30 à 12h30 et de 13h30 à 17h,50.293852,2.768671,8,Ministère de la justice,http://lannuaire.service-public.fr/services_locaux/nord-pas-de-calais/pas-de-calais/ti-62041-01.html,,ti-arras@justice.fr
4cac9e87293594648a004ce6,Tribunal d'Instance de Clamecy,justice-organisme-public,ti,http://www.justice.gouv.fr/,Place Emile Zola B.P. 108,58079,58503,CLAMECY CEDEX,+33 3 86 27 01 50,+33 3 86 27 10 37,Du Lundi au Vendredi : de 8h30 à 12h et de 13h30 à 17h,47.45979,3.521135,6,Ministère de la justice,http://lannuaire.service-public.fr/services_locaux/bourgogne/nievre/ti-58079-01.html,,
4cac9e87293594648a004ce1,Tribunal d'Instance de Tours,justice-organisme-public,ti,http://www.justice.gouv.fr/, ,37261,37928,TOURS CEDEX 9,+33 2 47 60 27 60,+33 2 47 60 27 61,Du Lundi au Vendredi : de 9h à 12h et de 14h à 17h,47.3900896,0.6897644,8,Ministère de la justice,http://lannuaire.service-public.fr/services_locaux/centre/indre-et-loire/ti-37261-01.html,2 Place Jean-Jaurès,
4cac9e87293594648a004ce0,Tribunal d'Instance de Rennes,justice-organisme-public,ti,http://www.justice.gouv.fr/,Cité Judiciaire 7 Rue Pierre Abélard   CS 33132,35238,35031,RENNES CEDEX,+33 2 99 65 37 10,+33 2 99 65 37 12,Du Lundi au Vendredi : de 8h30 à 12h et de 13h30 à 17h,48.1117611,-1.6802654,4,Ministère de la justice,http://lannuaire.service-public.fr/services_locaux/bretagne/ille-et-vilaine/ti-35238-01.html,,
4cac9e87293594648a004ce3,Tribunal d'Instance du Puy-en-Velay,justice-organisme-public,ti,http://www.justice.gouv.fr/,6 place du Clauzel CS 10309,43157,43009,LE PUY EN VELAY CEDEX,+33 4 63 20 70 00,,Du Lundi au Vendredi : de 8h30 à 12h et de 13h30 à 16h30,45.043496,3.883991,8,Ministère de la justice,http://lannuaire.service-public.fr/services_locaux/auvergne/haute-loire/ti-43157-01.html,,
4cac9e87293594648a004ce2,Tribunal d'Instance de Blois,justice-organisme-public,ti,http://www.justice.gouv.fr/,15 Rue du Père-Brottier B.P. 1805,41018,41018,BLOIS CEDEX,+33 2 54 56 26 00,+33 2 54 56 26 26,Du Lundi au Vendredi : de 9h à 12h et de 13h30 à 17h,47.589834,1.335975,8,Ministère de la justice,http://lannuaire.service-public.fr/services_locaux/centre/loir-et-cher/ti-41018-01.html,,
4cac9e87293594648a004cf1,Tribunal d'Instance de Palaiseau,justice-organisme-public,ti,http://www.justice.gouv.fr/, ,91477,91120,PALAISEAU,+33 1 60 14 00 80,+33 1 60 14 63 35,Du Lundi au Vendredi : de 9h à 12h15 et de 13h à 16h15,48.7121644,2.2429514,6,Ministère de la justice,http://lannuaire.service-public.fr/services_locaux/ile-de-france/essonne/ti-91477-01.html,Place de la Victoire,
4cac9e87293594648a004cf0,Tribunal d'Instance d'Orange,justice-organisme-public,ti,http://www.justice.gouv.fr/,Rue de Tour B.P. 188,84087,84106,ORANGE CEDEX,+33 4 90 11 11 90,+33 4 90 11 11 99,Du Lundi au Vendredi : de 8h à 12h et de 13h à 16h45,44.120953,4.805124,4,Ministère de la justice,http://lannuaire.service-public.fr/services_locaux/provence-alpes-cote-d-azur/vaucluse/ti-84087-01.html,,
4cac9e87293594648a004cf3,Tribunal d'Instance de Nogent-sur-Marne,justice-organisme-public,ti,http://www.justice.gouv.fr/, ,94052,94735,NOGENT SUR MARNE CEDEX,+33 1 43 94 17 35,+33 1 43 94 67 30,"Du Lundi au Mardi : de 9h à 12h et de 13h à 16h
Du Jeudi au Vendredi : de 9h à 12h et de 13h à 16h",48.8364381,2.4868371,8,Ministère de la justice,http://lannuaire.service-public.fr/services_locaux/ile-de-france/val-de-marne/ti-94052-01.html,19 Rue Charles VII,
4cac9e87293594648a004cf2,Tribunal d'Instance d'Ivry-sur-Seine,justice-organisme-public,ti,http://www.justice.gouv.fr/, ,94041,94205,IVRY SUR SEINE CEDEX,+33 1 45 15 22 88,+33 1 45 15 22 89,Du Lundi au Vendredi : de 9h à 12h et de 13h à 17h,48.8140434,2.3901939,6,Ministère de la justice,http://lannuaire.service-public.fr/services_locaux/ile-de-france/val-de-marne/ti-94041-01.html,Place Marcel Cachin,
4cac9ed7293594648a00ee30,Tribunal d'Instance de Saintes,justice-organisme-public,ti,http://www.justice.gouv.fr/,8 Impasse des Cordeliers B.P. 324,17415,17108,SAINTES CEDEX,+33 5 46 93 10 02,+33 5 46 93 95 40,Du Lundi au Vendredi : de 9h à 12h et de 14h à 17h,45.748485,-0.634407,8,Ministère de la justice,http://lannuaire.service-public.fr/services_locaux/poitou-charentes/charente-maritime/ti-17415-01.html,,ti-saintes@justice.fr
4da5d0482935945b16000023,Tribunal d'instance de Mamoudzou,justice-organisme-public,ti,, ,97611,97600,MAMOUDZOU,,,,,,,Ministère de la justice,,RN1,
4cac9e61293594648a00061d,Tribunal d'Instance de Saint-Flour,justice-organisme-public,ti,http://www.justice.gouv.fr/,Palais de Justice 1 Rue du Théâtre  B.P. 34,15187,15101,ST FLOUR CEDEX,+33 4 71 60 03 75,+33 4 71 60 31 28,Du Lundi au Vendredi : de 9h à 12h et de 14h à 17h,45.033198,3.09155,6,Ministère de la justice,http://lannuaire.service-public.fr/services_locaux/auvergne/cantal/ti-15187-01.html,,
4cac9e61293594648a00061c,Tribunal d'Instance de Vire,justice-organisme-public,ti,http://www.justice.gouv.fr/,19 Rue de la Sous-Préfecture B.P. 137,14762,14504,VIRE CEDEX,+33 2 31 68 01 03,+33 2 31 67 82 36,"Du Lundi au Vendredi : de 9h à 12h et de 13h30 à 16h
Horaires de l'accueil sur place et du standard",48.840216,-0.895791,8,Ministère de la justice,http://lannuaire.service-public.fr/services_locaux/basse-normandie/calvados/ti-14762-01.html,,
4cac9e61293594648a000619,Tribunal d'Instance de Tarascon,justice-organisme-public,ti,http://www.justice.gouv.fr/,Quartier Kilmaine Batiment Austerlitz,13108,13150,TARASCON,+33 4 90 91 49 89,+33 4 90 91 42 72,Du Lundi au Vendredi : de 9h à 12h et de 13h30 à 16h,43.795951,4.691227,4,Ministère de la justice,http://lannuaire.service-public.fr/services_locaux/provence-alpes-cote-d-azur/bouches-du-rhone/ti-13108-01.html,,
4cac9e61293594648a00061b,Tribunal d'Instance de Lisieux,justice-organisme-public,ti,http://www.justice.gouv.fr/,2 Bis Boulevard Carnot B.P. 212,14366,14107,LISIEUX CEDEX,+33 2 31 62 07 31,+33 2 31 62 24 15,Du Lundi au Vendredi : de 8h30 à 12h et de 13h à 17h,49.147683,0.223672,8,Ministère de la justice,http://lannuaire.service-public.fr/services_locaux/basse-normandie/calvados/ti-14366-01.html,,
4cac9e61293594648a000615,Tribunal d'Instance de Foix,justice-organisme-public,ti,http://www.justice.gouv.fr/,Palais de Justice 14 Rue du Rocher  B.P. 78,9122,9008,FOIX CEDEX,+33 5 34 09 37 50,+33 5 61 02 92 68,Du Lundi au Vendredi : de 9h à 12h et de 14h à 17h,42.96647,1.605087,6,Ministère de la justice,http://lannuaire.service-public.fr/services_locaux/midi-pyrenees/ariege/ti-09122-01.html,,
4cac9e61293594648a000614,Tribunal d'Instance de Sedan,justice-organisme-public,ti,http://www.justice.gouv.fr/,1 Rue de la Comédie B.P. 90234,8409,8208,SEDAN CEDEX,+33 3 24 29 10 17,+33 3 24 29 80 58,Du Lundi au Vendredi : de 8h30 à 16h30,49.70259,4.943716,8,Ministère de la justice,http://lannuaire.service-public.fr/services_locaux/champagne-ardenne/ardennes/ti-08409-01.html,,philippe.pontoise@justice.fr
4cac9e61293594648a000617,Tribunal d'Instance de Millau,justice-organisme-public,ti,http://www.justice.gouv.fr/,2 Boulevard de l'Ayrolle B.P. 353,12145,12103,MILLAU CEDEX,+33 5 65 61 48 00,+33 5 65 61 48 06,"Du Lundi au Mardi : de 9h à 12h et de 14h à 17h
Le Mercredi : de 14h à 17h
Du Jeudi au Vendredi : de 9h à 12h et de 14h à 17h",44.099492,3.07832,8,Ministère de la justice,http://lannuaire.service-public.fr/services_locaux/midi-pyrenees/aveyron/ti-12145-01.html,,
4cac9e61293594648a000616,Tribunal d'Instance de Narbonne,justice-organisme-public,ti,http://www.justice.gouv.fr/,19 Bd du Général de Gaulle B.P. 810,11262,11108,NARBONNE CEDEX,+33 4 34 44 60 70,+33 4 34 44 60 72,Du Lundi au Vendredi : de 8h30 à 12h et de 13h30 à 16h30,43.185887,3.009311,8,Ministère de la justice,http://lannuaire.service-public.fr/services_locaux/languedoc-roussillon/aude/ti-11262-01.html,,
4cac9e6a293594648a0017ee,Tribunal d'Instance de Mende,justice-organisme-public,ti,http://www.justice.gouv.fr/, ,48095,48000,MENDE,+33 4 66 49 36 36,+33 4 66 65 02 36,Du Lundi au Jeudi : de 8h45 à 12h et de 13h45 à 17h,44.516188,3.49822,6,Ministère de la justice,http://lannuaire.service-public.fr/services_locaux/languedoc-roussillon/lozere/ti-48095-01.html,Boulevard Henri Bourillon,
4cac9e6b293594648a001a90,Tribunal d'Instance de Péronne,justice-organisme-public,ti,http://www.justice.gouv.fr/, ,80620,80200,PERONNE,+33 3 22 84 72 80,+33 3 22 84 94 53,"Du Lundi au Jeudi : de 8h30 à 12h15 et de 13h à 17h30
Le Vendredi : de 8h30 à 17h",49.926836,2.931625,8,Ministère de la justice,http://lannuaire.service-public.fr/services_locaux/picardie/somme/ti-80620-01.html,57 Rue Saint-Fursy,
4cac9e6a293594648a00180c,Tribunal d'Instance de Poissy,justice-organisme-public,ti,http://www.justice.gouv.fr/, ,78498,78308,POISSY CEDEX,+33 1 39 65 05 35,+33 1 39 65 21 06,Du Lundi au Vendredi : de 8h45 à 12h et de 13h à 16h15,48.9330154,2.0426215,8,Ministère de la justice,http://lannuaire.service-public.fr/services_locaux/ile-de-france/yvelines/ti-78498-01.html,89 Avenue Maurice Berteaux,
4cac9e6a293594648a00180d,Tribunal d'Instance de Rambouillet,justice-organisme-public,ti,http://www.justice.gouv.fr/, ,78517,78514,RAMBOUILLET CEDEX,+33 1 30 46 29 60,+33 1 34 83 06 32,Du Lundi au Vendredi : de 8h30 à 12h et de 13h30 à 16h30,48.6481437,1.8235406,8,Ministère de la justice,http://lannuaire.service-public.fr/services_locaux/ile-de-france/yvelines/ti-78517-01.html,56 Rue Gambetta,
4cac9e6a293594648a00180e,Tribunal d'Instance de Saint-Germain-en-Laye,justice-organisme-public,ti,http://www.justice.gouv.fr/, ,78551,78100,ST GERMAIN EN LAYE,+33 1 30 87 42 10,+33 1 39 73 80 76,Du Lundi au Vendredi : de 8h45 à 16h,48.8932611,2.0814143,6,Ministère de la justice,http://lannuaire.service-public.fr/services_locaux/ile-de-france/yvelines/ti-78551-01.html,22 Rue de la Maison Verte,
4cac9e6a293594648a00180f,Tribunal d'Instance de Versailles,justice-organisme-public,ti,http://www.justice.gouv.fr/,5 Place André Mignot R.P. 1109,78646,78011,VERSAILLES CEDEX,+33 1 39 07 39 40,+33 1 39 07 39 50,Du Lundi au Vendredi : de 9h à 12h et de 13h30 à 16h30,48.80352,2.131783,8,Ministère de la justice,http://lannuaire.service-public.fr/services_locaux/ile-de-france/yvelines/ti-78646-01.html,,
4cac9e6a293594648a001808,Tribunal d'Instance de Rouen,justice-organisme-public,ti,http://www.justice.gouv.fr/, ,76540,76037,ROUEN CEDEX,+33 2 35 52 88 98,+33 2 35 52 88 88,Du Lundi au Vendredi : de 8h30 à 12h et de 13h30 à 16h30,49.442034,1.092297,8,Ministère de la justice,http://lannuaire.service-public.fr/services_locaux/haute-normandie/seine-maritime/ti-76540-01.html,34 Rue aux Juifs,
4cac9e6a293594648a001809,Tribunal d'Instance de Fontainebleau,justice-organisme-public,ti,http://www.justice.gouv.fr/,159 Rue Grande batiment B - 2ème étage,77186,77300,FONTAINEBLEAU,+33 1 60 74 90 80,+33 1 64 22 85 31,Du Lundi au Vendredi : de 8h30 à 12h et de 13h à 16h45,48.443691,2.609939,7,Ministère de la justice,http://lannuaire.service-public.fr/services_locaux/ile-de-france/seine-et-marne/ti-77186-01.html,,
4cac9e6a293594648a00180a,Tribunal d'Instance de Lagny-sur-Marne,justice-organisme-public,ti,http://www.justice.gouv.fr/,108 rue Saint-Denis BP 109,77243,77405,LAGNY SUR MARNE CEDEX,+33 1 64 12 48 35,+33 1 64 30 02 77,Du Lundi au Vendredi : de 9h à 12h et de 13h30 à 16h30,48.878922,2.707755,8,Ministère de la justice,http://lannuaire.service-public.fr/services_locaux/ile-de-france/seine-et-marne/ti-77243-01.html,,
4cac9e6a293594648a00180b,Tribunal d'Instance de Melun,justice-organisme-public,ti,http://www.justice.gouv.fr/,2 Avenue du Général Leclerc B.P. 8620,77288,77008,MELUN CEDEX,+33 1 64 79 83 00,+33 1 64 79 83 40,Du Lundi au Vendredi : de 8h30 à 12h et de 13h30 à 16h30,48.527225,2.653534,8,Ministère de la justice,http://lannuaire.service-public.fr/services_locaux/ile-de-france/seine-et-marne/ti-77288-01.html,,
4cac9e6a293594648a001804,Tribunal d'Instance de Mulhouse,justice-organisme-public,ti,http://www.justice.gouv.fr/,44 Avenue Robert Schuman B.P. 3047,68224,68061,MULHOUSE CEDEX 3,+33 3 89 35 42 42,+33 3 89 35 42 52,Du Lundi au Vendredi : de 8h à 12h et de 13h30 à 16h30,47.75666,7.348516,8,Ministère de la justice,http://lannuaire.service-public.fr/services_locaux/alsace/haut-rhin/ti-68224-01.html,,
4cac9e6a293594648a001805,Tribunal d'Instance de Villeurbanne,justice-organisme-public,ti,http://www.justice.gouv.fr/,3 rue du docteur Pierre Fleury Papillon,69266,69623,VILLEURBANNE CEDEX,+33 4 72 13 83 00,+33 4 78 53 31 97,Du Lundi au Vendredi : de 8h30 à 12h et de 13h30 à 17h,45.76381,4.883179,8,Ministère de la justice,http://lannuaire.service-public.fr/services_locaux/rhone-alpes/rhone/ti-69266-01.html,,
4cac9e6a293594648a001806,Tribunal d'Instance de Mâcon,justice-organisme-public,ti,http://www.justice.gouv.fr/,Palais de Justice 8 Rue de la Préfecture,71270,71017,MACON CEDEX,+33 3 85 39 92 40,+33 3 85 39 92 41,Du Lundi au Vendredi : de 9h à 12h et de 14h à 17h,46.3076337,4.8326325,8,Ministère de la justice,http://lannuaire.service-public.fr/services_locaux/bourgogne/saone-et-loire/ti-71270-01.html,,ti-macon@justice.fr
4cac9e6a293594648a001807,Tribunal d'Instance du Mans,justice-organisme-public,ti,http://www.justice.gouv.fr/,Cité Judiciaire 1 Avenue Pierre Mendès-France,72181,72014,LE MANS CEDEX 2,+33 2 43 83 77 77,+33 2 43 83 77 76,Du Lundi au Vendredi : de 9h à 12h et de 13h30 à 16h30,48.0064699,0.1997661,6,Ministère de la justice,http://lannuaire.service-public.fr/services_locaux/pays-de-la-loire/sarthe/ti-72181-01.html,,
4cac9e6a293594648a001800,Tribunal d'Instance de Tarbes,justice-organisme-public,ti,http://www.justice.gouv.fr/,Square Maurice Trelut B.P. 1326,65440,65013,TARBES CEDEX 9,+33 5 62 51 77 55,+33 5 62 51 77 69,Du Lundi au Vendredi : de 8h30 à 12h et de 13h à 17h,43.234037,0.069242,4,Ministère de la justice,http://lannuaire.service-public.fr/services_locaux/midi-pyrenees/hautes-pyrenees/ti-65440-01.html,,
4cac9e6a293594648a001801,Tribunal d'Instance de Perpignan,justice-organisme-public,ti,http://www.justice.gouv.fr/,5 Boulevard des Pyrénées B.P. 932,66136,66020,PERPIGNAN CEDEX,+33 4 68 51 97 06,+33 4 68 35 66 74,Du Lundi au Vendredi : de 8h30 à 12h et de 14h à 17h,42.696562,2.88823,8,Ministère de la justice,http://lannuaire.service-public.fr/services_locaux/languedoc-roussillon/pyrenees-orientales/ti-66136-01.html,,
4cac9e6a293594648a001802,Tribunal d'Instance d'Illkirch-Graffenstaden,justice-organisme-public,ti,http://www.justice.gouv.fr/,144 A Route de Lyon B.P. 20020,67218,67401,ILLKIRCH CEDEX,+33 3 88 55 33 10,+33 3 88 67 48 85,Du Lundi au Vendredi : de 8h à 12h et de 14h à 17h,48.529776,7.711345,8,Ministère de la justice,http://lannuaire.service-public.fr/services_locaux/alsace/bas-rhin/ti-67218-01.html,,
4cac9e6a293594648a001803,Tribunal d'Instance de Molsheim,justice-organisme-public,ti,http://www.justice.gouv.fr/,3 rue Maréchal Kellermann CS 69116,67300,67129,MOLSHEIM CEDEX,+33 3 88 49 72 49,+33 3 88 47 83 17,"Du Lundi au Jeudi : de 8h à 12h et de 14h à 17h
Le Vendredi : de 8h à 12h et de 14h à 16h",48.541042,7.494399,8,Ministère de la justice,http://lannuaire.service-public.fr/services_locaux/alsace/bas-rhin/ti-67300-01.html,,ti-molsheim@justice.fr
4cac9e6a293594648a00181c,Tribunal d'Instance de Boulogne-Billancourt,justice-organisme-public,ti,http://www.justice.gouv.fr/, ,92012,92100,BOULOGNE BILLANCOURT,+33 1 46 03 08 17,+33 1 46 03 75 29,"Du Lundi au Mercredi : de 9h à 17h
Le Jeudi : de 8h30 à 17h30
Le Vendredi : de 9h à 16h",48.835187,2.239324,8,Ministère de la justice,http://lannuaire.service-public.fr/services_locaux/ile-de-france/hauts-de-seine/ti-92012-01.html,35 Rue Paul Bert,
4cac9e6a293594648a00181d,Tribunal d'Instance de Colombes,justice-organisme-public,ti,http://www.justice.gouv.fr/, ,92025,92700,COLOMBES,+33 1 47 85 20 38,+33 1 47 86 22 43,Du Lundi au Vendredi : de 9h15 à 12h15 et de 13h15 à 16h15,48.9226514,2.2486244,8,Ministère de la justice,http://lannuaire.service-public.fr/services_locaux/ile-de-france/hauts-de-seine/ti-92025-01.html,9 Rue Gabriel Péri,
4cac9e6a293594648a00181e,Tribunal d'Instance de Courbevoie,justice-organisme-public,ti,http://www.justice.gouv.fr/, ,92026,92400,COURBEVOIE,+33 1 43 33 03 42,+33 1 43 33 70 01,Du Lundi au Vendredi : de 9h30 à 12h30 et de 13h30 à 16h30,48.9218118,2.283852,8,Ministère de la justice,http://lannuaire.service-public.fr/services_locaux/ile-de-france/hauts-de-seine/ti-92026-01.html,25 Rue du Président Kruger,
4cac9e6a293594648a00181f,Tribunal d'Instance de Puteaux,justice-organisme-public,ti,http://www.justice.gouv.fr/,131 Rue de la République B.P. 177,92062,92801,PUTEAUX CEDEX,+33 1 46 93 08 00,+33 1 47 73 08 26,Du Lundi au Vendredi : de 8h30 à 17h,48.884467,2.238018,8,Ministère de la justice,http://lannuaire.service-public.fr/services_locaux/ile-de-france/hauts-de-seine/ti-92062-01.html,,
4cac9e6a293594648a001818,Tribunal d'Instance de Juvisy-sur-Orge,justice-organisme-public,ti,http://www.justice.gouv.fr/,27 Rue Victor Hugo BP 01,91326,91265,JUVISY SUR ORGE CEDEX,+33 1 69 12 18 30,+33 1 69 21 11 55,Du Lundi au Vendredi : de 9h à 16h30,48.690908,2.377957,8,Ministère de la justice,http://lannuaire.service-public.fr/services_locaux/ile-de-france/essonne/ti-91326-01.html,,
4cac9e6a293594648a001819,Tribunal d'Instance de Longjumeau,justice-organisme-public,ti,http://www.justice.gouv.fr/,11 Av. du Maréchal Leclerc B.P. 282,91345,91162,LONGJUMEAU CEDEX,+33 1 69 10 26 50,+33 1 69 34 19 24,Du Lundi au Vendredi : de 8h30 à 16h30,48.698457,2.292174,8,Ministère de la justice,http://lannuaire.service-public.fr/services_locaux/ile-de-france/essonne/ti-91345-01.html,,
4cac9e6a293594648a00181a,Tribunal d'Instance d'Antony,justice-organisme-public,ti,http://www.justice.gouv.fr/,Place Auguste Mounié B.P. 80,92002,92161,ANTONY CEDEX,+33 1 55 59 01 00,+33 1 55 59 01 10,Du Lundi au Vendredi : de 9h à 12h et de 13h à 17h,48.754759,2.30022,6,Ministère de la justice,http://lannuaire.service-public.fr/services_locaux/ile-de-france/hauts-de-seine/ti-92002-01.html,,
4cac9e6a293594648a00181b,Tribunal d'Instance d'Asnières-sur-Seine,justice-organisme-public,ti,http://www.justice.gouv.fr/, ,92004,92600,ASNIERES SUR SEINE,+33 1 41 47 41 20,+33 1 47 98 20 19,"Du Lundi au Jeudi : de 9h à 12h et de 14h à 17h
Le Vendredi : de 9h à 12h et de 14h à 16h30",48.9291498,2.2804998,8,Ministère de la justice,http://lannuaire.service-public.fr/services_locaux/ile-de-france/hauts-de-seine/ti-92004-01.html,112 Avenue de la Redoute,
4cac9e6a293594648a001814,Tribunal d'Instance de Carpentras,justice-organisme-public,ti,http://www.justice.gouv.fr/,Impasse du Siècle Place du Gal de Gaulle   BP 112,84031,84203,CARPENTRAS CEDEX,+33 4 90 63 12 97,+33 4 90 63 78 28,Du Lundi au Vendredi : de 8h à 11h45 et de 13h30 à 16h45,44.054388,5.046988,6,Ministère de la justice,http://lannuaire.service-public.fr/services_locaux/provence-alpes-cote-d-azur/vaucluse/ti-84031-01.html,,
4cac9e6a293594648a001815,Tribunal d'Instance de Limoges,justice-organisme-public,ti,http://www.justice.gouv.fr/, ,87085,87039,LIMOGES CEDEX 1,+33 5 55 11 82 07,+33 5 55 11 82 19,Du Lundi au Vendredi : de 8h30 à 12h30 et de 13h30 à 17h,45.827516,1.259157,8,Ministère de la justice,http://lannuaire.service-public.fr/services_locaux/limousin/haute-vienne/ti-87085-01.html,11 Bd Gambetta,
4cac9e6a293594648a001816,Tribunal d'Instance d'Epinal,justice-organisme-public,ti,http://www.justice.gouv.fr/, ,88160,88000,EPINAL,+33 3 54 04 10 00,+33 3 54 04 10 30,Du Lundi au Vendredi : de 9h à 12h et de 13h30 à 16h,48.172427,6.447892,8,Ministère de la justice,http://lannuaire.service-public.fr/services_locaux/lorraine/vosges/ti-88160-01.html,1 place Foch,
4cac9e6a293594648a001817,Tribunal d'Instance d'Evry,justice-organisme-public,ti,http://www.justice.gouv.fr/, ,91228,91011,EVRY CEDEX,+33 1 69 47 36 00,+33 1 60 78 60 47,Du Lundi au Vendredi : de 9h à 12h et de 13h à 16h,48.6298146,2.4297779,8,Ministère de la justice,http://lannuaire.service-public.fr/services_locaux/ile-de-france/essonne/ti-91228-01.html,1 Rue de la Patinoire,
4cac9e6a293594648a001810,Tribunal d'Instance d'Amiens,justice-organisme-public,ti,http://www.justice.gouv.fr/,8 rue Pierre Dubois B.P. 2722,80021,80027,AMIENS CEDEX 1,+33 3 22 82 45 00,+33 3 22 82 45 98,Du Lundi au Vendredi : de 9h à 12h et de 14h à 16h30,49.892134,2.30175,8,Ministère de la justice,http://lannuaire.service-public.fr/services_locaux/picardie/somme/ti-80021-01.html,,
4cac9e6a293594648a001811,Tribunal d'Instance de Castelsarrasin,justice-organisme-public,ti,http://www.justice.gouv.fr/,2 Ter Rue de la Fraternité B.P. 74,82033,82101,CASTELSARRASIN CEDEX,+33 5 63 32 72 10,+33 5 63 32 72 19,Du Lundi au Vendredi : de 8h30 à 12h et de 14h à 16h30,44.039808,1.107335,8,Ministère de la justice,http://lannuaire.service-public.fr/services_locaux/midi-pyrenees/tarn-et-garonne/ti-82033-01.html,,
4cac9e6a293594648a001812,Tribunal d'Instance de Montauban,justice-organisme-public,ti,http://www.justice.gouv.fr/,5 Rue de l'Horloge B.P. 749,82121,82013,MONTAUBAN CEDEX,+33 5 63 21 41 60,+33 5 63 66 43 48,Du Lundi au Vendredi : de 8h30 à 12h et de 13h30 à 16h,44.016533,1.353336,8,Ministère de la justice,http://lannuaire.service-public.fr/services_locaux/midi-pyrenees/tarn-et-garonne/ti-82121-01.html,,
4cac9e6a293594648a001813,Tribunal d'Instance d'Avignon,justice-organisme-public,ti,http://www.justice.gouv.fr/,2 Boulevard Limbert B.P. 980,84007,84094,AVIGNON CEDEX 9,+33 4 32 74 74 16,+33 4 32 74 74 17,Du Lundi au Vendredi : de 9h à 12h et de 14h à 16h,43.944784,4.816066,8,Ministère de la justice,http://lannuaire.service-public.fr/services_locaux/provence-alpes-cote-d-azur/vaucluse/ti-84007-01.html,,
4cac9e6a293594648a00182c,Tribunal d'Instance de Montmorency,justice-organisme-public,ti,http://www.justice.gouv.fr/, ,95428,95160,MONTMORENCY,+33 1 39 34 60 00,+33 1 34 28 04 70,Du Lundi au Vendredi : de 8h30 à 12h30 et de 13h30 à 16h30,48.9743556,2.3114766,8,Ministère de la justice,http://lannuaire.service-public.fr/services_locaux/ile-de-france/val-d-oise/ti-95428-01.html,125 Avenue Charles de Gaulle,
4cac9e6a293594648a00182d,Tribunal d'Instance de Basse-Terre,justice-organisme-public,ti,http://www.justice.gouv.fr/, ,97105,97100,BASSE TERRE,+33 5 90 80 63 80,+33 5 90 80 63 89,Du Lundi au Vendredi : de 8h à 12h et de 14h à 16h,16.000298,-61.729235,4,Ministère de la justice,http://lannuaire.service-public.fr/services_locaux/guadeloupe/guadeloupe/ti-97105-01.html,Z.A. Calebassier,
4cac9e6a293594648a00182e,Tribunal d'Instance de Pointe-à-Pitre,justice-organisme-public,ti,http://www.justice.gouv.fr/,7 Rue Victor Hugues B.P. 554,97120,97110,POINTE A PITRE,+33 5 90 89 63 63,+33 5 90 83 61 04,Du Lundi au Vendredi : de 7h30 à 12h et de 14h à 16h30,16.2411111,-61.5330556,4,Ministère de la justice,http://lannuaire.service-public.fr/services_locaux/guadeloupe/guadeloupe/ti-97120-01.html,,
4cac9e6a293594648a00182f,Tribunal d'Instance de Fort-de-France,justice-organisme-public,ti,http://www.justice.gouv.fr/,Palais de Justice 35 Bd du Gal de Gaulle    BP 633,97209,97200,FORT DE FRANCE,+33 5 96 48 41 63,+33 5 96 48 43 37,Du Lundi au Vendredi : de 7h30 à 16h30,14.637392,-61.069045,4,Ministère de la justice,http://lannuaire.service-public.fr/services_locaux/martinique/martinique/ti-97209-01.html,,
4cac9e6a293594648a001828,Tribunal d'Instance de Boissy-Saint-Léger,justice-organisme-public,ti,http://www.justice.gouv.fr/, ,94004,94477,BOISSY ST LEGER CEDEX,+33 1 45 10 09 20,+33 1 45 10 09 21,Du Lundi au Vendredi : de 9h à 12h30 et de 13h30 à 16h,48.7476021,2.5128508,8,Ministère de la justice,http://lannuaire.service-public.fr/services_locaux/ile-de-france/val-de-marne/ti-94004-01.html,7 Boulevard Léon Révillon,
4cac9e6a293594648a001829,Tribunal d'Instance de Charenton-le-Pont,justice-organisme-public,ti,http://www.justice.gouv.fr/, ,94018,94220,CHARENTON LE PONT,+33 1 43 53 62 30,+33 1 43 96 16 82,"Du Lundi au Mardi : de 9h à 16h30
Le Mercredi : de 9h à 12h30 et de 13h à 16h
Du Jeudi au Vendredi : de 9h à 16h30",48.8196462,2.4158425,8,Ministère de la justice,http://lannuaire.service-public.fr/services_locaux/ile-de-france/val-de-marne/ti-94018-01.html,48 Rue de Paris,
4cac9e6a293594648a00182a,Tribunal d'Instance de Saint-Maur-des-Fossés,justice-organisme-public,ti,http://www.justice.gouv.fr/, ,94068,94100,ST MAUR DES FOSSES,+33 1 42 83 32 23,+33 1 48 85 52 59,Du Lundi au Vendredi : de 9h à 12h et de 13h à 16h,48.8017082,2.4869504,8,Ministère de la justice,http://lannuaire.service-public.fr/services_locaux/ile-de-france/val-de-marne/ti-94068-01.html,1 Avenue Gambetta,
4cac9e6a293594648a00182b,Tribunal d'Instance de Villejuif,justice-organisme-public,ti,http://www.justice.gouv.fr/, ,94076,94808,VILLEJUIF CEDEX,+33 1 49 58 12 35,+33 1 49 58 12 43,Du Lundi au Vendredi : de 9h à 12h et de 13h à 16h,48.7925275,2.3665412,6,Ministère de la justice,http://lannuaire.service-public.fr/services_locaux/ile-de-france/val-de-marne/ti-94076-01.html,127-129 Rue Jean Jaurès,
4cac9e6a293594648a001824,Tribunal d'Instance de Pantin,justice-organisme-public,ti,http://www.justice.gouv.fr/,"Immeuble ""Les Diamants""  Bât. A 41 Rue Delizy",93055,93692,PANTIN CEDEX,+33 1 48 44 44 27,+33 1 48 44 08 02,Du Lundi au Vendredi : de 9h à 12h30 et de 13h15 à 15h45,48.897125,2.408159,8,Ministère de la justice,http://lannuaire.service-public.fr/services_locaux/ile-de-france/seine-saint-denis/ti-93055-01.html,,
4cac9e6a293594648a001825,Tribunal d'Instance du Raincy,justice-organisme-public,ti,http://www.justice.gouv.fr/, ,93062,93340,LE RAINCY,+33 1 43 01 36 74,+33 1 43 02 16 43,Du Lundi au Vendredi : de 9h à 12h30 et de 13h30 à 16h,48.899138,2.515061,8,Ministère de la justice,http://lannuaire.service-public.fr/services_locaux/ile-de-france/seine-saint-denis/ti-93062-01.html,8 Allée Baratin,
4cac9e6a293594648a001826,Tribunal d'Instance de Saint-Denis,justice-organisme-public,ti,http://www.justice.gouv.fr/, ,93066,93200,ST DENIS,+33 1 48 13 37 80,+33 1 48 13 37 92,"Le Lundi : de 9h à 12h et de 13h à 16h
Le Mardi : de 9h à 16h
Du Mercredi au Jeudi : de 9h à 12h et de 13h à 16h
Le Vendredi : de 9h à 16h",48.936183,2.359451,6,Ministère de la justice,http://lannuaire.service-public.fr/services_locaux/ile-de-france/seine-saint-denis/ti-93066-01.html,1 Passage des deux Pichets,
4cac9e6a293594648a001827,Tribunal d'Instance de Saint-Ouen,justice-organisme-public,ti,http://www.justice.gouv.fr/, ,93070,93582,ST OUEN CEDEX,+33 1 40 12 50 40,+33 1 40 10 22 00,Du Lundi au Vendredi : de 9h à 12h30 et de 13h30 à 16h,48.91095,2.334523,8,Ministère de la justice,http://lannuaire.service-public.fr/services_locaux/ile-de-france/seine-saint-denis/ti-93070-01.html,4 Rue Diderot,
4cac9e6a293594648a001820,Tribunal d'Instance de Vanves,justice-organisme-public,ti,http://www.justice.gouv.fr/, ,92075,92170,VANVES,+33 1 41 90 11 11,+33 1 41 90 11 20,Du Lundi au Vendredi : de 8h30 à 16h30,48.8211685,2.2882268,8,Ministère de la justice,http://lannuaire.service-public.fr/services_locaux/ile-de-france/hauts-de-seine/ti-92075-01.html,34 Rue Antoine Fratacci,
4cac9e6a293594648a001821,Tribunal d'Instance d'Aubervilliers,justice-organisme-public,ti,http://www.justice.gouv.fr/,Square Stalingrad B.P. 217,93001,93533,AUBERVILLIERS CEDEX,+33 1 48 33 76 38,+33 1 48 33 64 45,Du Lundi au Vendredi : de 9h à 12h30 et de 13h30 à 16h30,48.911125,2.383284,6,Ministère de la justice,http://lannuaire.service-public.fr/services_locaux/ile-de-france/seine-saint-denis/ti-93001-01.html,,
4cac9e6a293594648a001822,Tribunal d'Instance d'Aulnay-sous-Bois,justice-organisme-public,ti,http://www.justice.gouv.fr/, ,93005,93600,AULNAY SOUS BOIS,+33 1 48 66 09 08,+33 1 48 66 11 43,"Le Lundi : de 9h à 12h15 et de 13h30 à 16h15
Le Mardi : de 9h à 16h15
Le Mercredi : de 9h à 12h15 et de 13h30 à 16h15
Le Jeudi : de 9h à 16h15
Le Vendredi : de 9h à 12h15 et de 13h30 à 16h15",48.9327984,2.5011403,8,Ministère de la justice,http://lannuaire.service-public.fr/services_locaux/ile-de-france/seine-saint-denis/ti-93005-01.html,10 Boulevard Hoche,
4cac9e6a293594648a001823,Tribunal d'Instance de Bobigny,justice-organisme-public,ti,http://www.justice.gouv.fr/,Immeuble L'européen Hall A 4e et 1 promenade Jean Rostand,93008,93009,BOBIGNY CEDEX,+33 1 48 96 11 10,+33 1 48 96 07 52,Du Lundi au Vendredi : de 9h15 à 12h et de 13h à 16h15,48.909761,2.454576,6,Ministère de la justice,http://lannuaire.service-public.fr/services_locaux/ile-de-france/seine-saint-denis/ti-93008-01.html,,
4cac9ed8293594648a00ee60,Tribunal d'Instance de Pontoise,justice-organisme-public,ti,http://www.ti-pontoise.justice.fr/,3 Rue Victor Hugo B.P. 20217,95127,95302,CERGY PONTOISE CEDEX,+33 1 72 58 74 60,+33 1 72 58 76 12,Du Lundi au Vendredi : de 9h à 12h et de 13h à 16h,49.039049,2.044611,4,Ministère de la justice,http://lannuaire.service-public.fr/services_locaux/ile-de-france/val-d-oise/ti-95127-01.html,,
4cac9e61293594648a000637,Tribunal d'Instance de Toulouse,justice-organisme-public,ti,http://www.ti-toulouse.justice.fr/,40 Avenue Camille Pujol B.P. 35847,31555,31506,TOULOUSE CEDEX 5,+33 5 34 31 79 79,+33 5 34 31 79 03,Du Lundi au Vendredi : de 8h30 à 12h et de 13h30 à 16h,43.601085,1.461458,8,Ministère de la justice,http://lannuaire.service-public.fr/services_locaux/midi-pyrenees/haute-garonne/ti-31555-01.html,,
4cac9e6a293594648a001830,Tribunal d'Instance de Cayenne,justice-organisme-public,ti,http://www.justice.gouv.fr/,14 rue Lallouette BP 7004,97302,97307,CAYENNE CEDEX,+33 5 94 28 75 75,+33 5 94 28 75 79,"Du Lundi au Jeudi : de 7h à 16h30
Le Vendredi : de 7h à 12h30",,,,Ministère de la justice,http://lannuaire.service-public.fr/services_locaux/guyane/guyane/ti-97302-01.html,,
4cac9e6a293594648a001831,Tribunal d'Instance de Saint-Paul,justice-organisme-public,ti,http://www.justice.gouv.fr/,centre d'affaires de Savanna 12 rue Jules Thirel,97415,97862,ST PAUL CEDEX,+33 2 62 45 33 50,+33 2 62 45 33 62,Du Lundi au Vendredi : de 8h30 à 12h et de 13h à 15h,-20.987097,55.294083,6,Ministère de la justice,http://lannuaire.service-public.fr/services_locaux/la-reunion/la-reunion/ti-97415-01.html,,
4cac9e6a293594648a001832,Tribunal d'Instance de Saint-Pierre,justice-organisme-public,ti,http://www.justice.gouv.fr/,26-28 Rue Augustin Archambeaud B.P. 339,97416,97448,ST PIERRE CEDEX,+33 2 62 96 10 00,+33 2 62 96 10 39,"Du Lundi au Jeudi : de 8h à 12h et de 13h30 à 16h
Le Vendredi : de 8h à 12h et de 13h30 à 15h30",-21.323896,55.486909,8,Ministère de la justice,http://lannuaire.service-public.fr/services_locaux/la-reunion/la-reunion/ti-97416-01.html,,
4cac9e6a293594648a001833,Tribunal d'Instance de Saint-Martin,justice-organisme-public,ti,http://www.justice.gouv.fr/,23 Rue de la Liberté B.P. 376,97801,97150,ST MARTIN,+33 5 90 87 50 49,+33 5 90 87 98 13,Du Lundi au Jeudi : de 9h à 11h,18.0671612,-63.085622,6,Ministère de la justice,http://lannuaire.service-public.fr/services_locaux/saint-martin/saint-martin/ti-97801-01.html,,
4cac9e61293594648a000631,Tribunal d'Instance de Montélimar,justice-organisme-public,ti,http://www.justice.gouv.fr/,Place Emile Loubet B.P. 282,26198,26207,MONTELIMAR CEDEX,+33 4 75 00 78 20,+33 4 75 46 00 36,Du Lundi au Vendredi : de 9h à 12h et de 13h30 à 16h30,44.557143,4.74985,6,Ministère de la justice,http://lannuaire.service-public.fr/services_locaux/rhone-alpes/drome/ti-26198-01.html,,
4cac9e61293594648a000630,Tribunal d'Instance de Bergerac,justice-organisme-public,ti,http://www.justice.gouv.fr/, ,24037,24100,BERGERAC,+33 5 53 57 06 15,+33 5 53 61 62 32,Du Lundi au Vendredi : de 8h30 à 12h et de 13h30 à 17h,44.8533584,0.4867557,8,Ministère de la justice,http://lannuaire.service-public.fr/services_locaux/aquitaine/dordogne/ti-24037-01.html,6 Bis Rue des Carmes,
4cac9e61293594648a000633,Tribunal d'Instance de Dreux,justice-organisme-public,ti,http://www.justice.gouv.fr/, ,28134,28100,DREUX,+33 2 37 38 08 50,+33 2 37 38 08 60,"Le Lundi : de 8h30 à 12h30 et de 13h30 à 17h
Du Mardi au Mercredi : de 8h30 à 17h15
Du Jeudi au Vendredi : de 8h30 à 12h30 et de 13h30 à 17h",48.7362277,1.3644626,6,Ministère de la justice,http://lannuaire.service-public.fr/services_locaux/centre/eure-et-loir/ti-28134-01.html,2 Place Anatole France,
4cac9ed7293594648a00ee27,Tribunal d'Instance de Vichy,justice-organisme-public,ti,http://www.justice.gouv.fr/,26 Boulevard Carnot B.P. 2933,3310,3209,VICHY CEDEX,+33 4 70 30 97 30,+33 4 70 30 97 31,Du Lundi au Vendredi : de 8h30 à 12h et de 13h30 à 16h30,46.123333,3.425088,8,Ministère de la justice,http://lannuaire.service-public.fr/services_locaux/auvergne/allier/ti-03310-01.html,,
4cac9ed7293594648a00ee26,Tribunal d'Instance de Moulins,justice-organisme-public,ti,http://www.justice.gouv.fr/,Palais d'Ansac 16 Rue Diderot      BP 1837,3190,3018,MOULINS CEDEX,+33 4 70 44 33 84,+33 4 70 44 89 57,Du Lundi au Vendredi : de 8h45 à 12h et de 13h45 à 16h45,46.5661042,3.3353369,4,Ministère de la justice,http://lannuaire.service-public.fr/services_locaux/auvergne/allier/ti-03190-01.html,,
4cac9ed7293594648a00ee25,Tribunal d'Instance de Montluçon,justice-organisme-public,ti,http://www.justice.gouv.fr/,114 Boulevard de Courtais B.P. 1232,3185,3104,MONTLUCON CEDEX,+33 4 70 05 27 93,+33 4 70 05 87 70,Du Lundi au Vendredi : de 8h45 à 11h45 et de 14h à 17h,46.339908,2.607701,8,Ministère de la justice,http://lannuaire.service-public.fr/services_locaux/auvergne/allier/ti-03185-01.html,,
4cac9ed7293594648a00ee24,Tribunal d'Instance de Laon,justice-organisme-public,ti,http://www.justice.gouv.fr/, ,2408,2001,LAON CEDEX,+33 3 23 26 75 40,+33 3 23 26 75 44,Du Lundi au Vendredi : de 8h30 à 12h et de 13h30 à 17h,49.564279,3.623757,6,Ministère de la justice,http://lannuaire.service-public.fr/services_locaux/picardie/aisne/ti-02408-01.html,Place du Parvis,
4cac9ed7293594648a00ee23,Tribunal d'Instance de Trévoux,justice-organisme-public,ti,http://www.justice.gouv.fr/,1 Rue du Palais B.P. 602,1427,1606,TREVOUX CEDEX,+33 4 74 08 89 00,+33 4 74 00 26 20,Du Lundi au Jeudi : de 8h30 à 12h et de 13h30 à 17h30,45.940383,4.776414,8,Ministère de la justice,http://lannuaire.service-public.fr/services_locaux/rhone-alpes/ain/ti-01427-01.html,,
4cac9ed7293594648a00ee22,Tribunal d'Instance de Bourg-en-Bresse,justice-organisme-public,ti,http://www.justice.gouv.fr/,3 Place Pierre Goujon B.P. 177,1053,1005,BOURG EN BRESSE CEDEX,+33 4 74 32 00 97,+33 4 74 32 06 54,"Du Lundi au Mardi : de 8h à 17h
Le Mercredi : de 8h à 12h et de 13h30 à 17h
Le Jeudi : de 8h à 17h
Le Vendredi : de 8h à 12h et de 13h30 à 17h
En juillet et août les horaires sont du lundi au vendredi de 8h00 à 12h et de 13h30 à 17h",46.203032,5.220981,8,Ministère de la justice,http://lannuaire.service-public.fr/services_locaux/rhone-alpes/ain/ti-01053-01.html,,
4cac9ed7293594648a00ee2f,Tribunal d'Instance de Rochefort,justice-organisme-public,ti,http://www.justice.gouv.fr/,Cité Judiciaire La Touche Tréville   Rue Chanzy,17299,17306,ROCHEFORT CEDEX,+33 5 16 65 60 00,+33 5 16 65 60 10,"Du Lundi au Vendredi : de 9h à 12h et de 13h30 à 17h
Tutelles majeurs : 05 16 65 60 01, 02 et 03
Régie saisie des rémunérations : 05 16 65 60 08 
Service civil : 05 16 65 60 11 et 12 
Surendettement / Pénal : 05 16 65 60 13",45.957199,-0.96868,4,Ministère de la justice,http://lannuaire.service-public.fr/services_locaux/poitou-charentes/charente-maritime/ti-17299-01.html,,
4cac9ed7293594648a00ee2e,Tribunal d'Instance de Cognac,justice-organisme-public,ti,http://www.justice.gouv.fr/, ,16102,16100,COGNAC,+33 5 45 82 06 75,+33 5 45 82 88 15,"Le Lundi : de 9h à 17h
Le Mardi : de 8h30 à 17h
Le Mercredi : de 9h à 17h
Le Jeudi : de 8h30 à 17h
Le Vendredi : de 9h à 17h",45.6915945,-0.3280112,8,Ministère de la justice,http://lannuaire.service-public.fr/services_locaux/poitou-charentes/charente/ti-16102-01.html,3 rue Pierre Martin Civat,nathalie.alonso-de-la-fuente@justice.fr
4cac9ed7293594648a00ee2d,Tribunal d'Instance d'Angoulême,justice-organisme-public,ti,http://www.justice.gouv.fr/,Place Francis Louvel B.P. 234,16015,16007,ANGOULEME CEDEX,+33 5 45 37 11 60,+33 5 45 94 94 05,Du Lundi au Jeudi : de 8h30 à 12h15 et de 13h30 à 17h15,45.649207,0.15429,6,Ministère de la justice,http://lannuaire.service-public.fr/services_locaux/poitou-charentes/charente/ti-16015-01.html,,catherine.bois-rousseau@justice.fr
4cac9ed7293594648a00ee2c,Tribunal d'Instance de Marseille,justice-organisme-public,ti,http://www.justice.gouv.fr/,Palais de Justice Place Monthyon,13206,13006,MARSEILLE,+33 4 91 15 50 50,+33 4 91 15 56 80,Du Lundi au Vendredi : de 8h30 à 11h45 et de 13h30 à 16h45,43.266835,5.356915,4,Ministère de la justice,http://lannuaire.service-public.fr/services_locaux/provence-alpes-cote-d-azur/bouches-du-rhone/ti-13206-01.html,,
4cac9ed7293594648a00ee2b,Tribunal d'instance d'Aubenas,justice-organisme-public,ti,http://www.justice.gouv.fr/,10 rue Georges Couderc BP 40001,7019,7203,AUBENAS CEDEX,+33 4 75 35 30 28,+33 4 75 93 66 92,Du Lundi au Vendredi : de 9h à 12h et de 14h à 16h,44.617045,4.389615,8,Ministère de la justice,http://lannuaire.service-public.fr/services_locaux/rhone-alpes/ardeche/ti-07019-01.html,,
4cac9ed7293594648a00ee2a,Tribunal d'Instance de Nice,justice-organisme-public,ti,http://www.justice.gouv.fr/, ,6088,6300,NICE,+33 4 92 17 30 01,+33 4 92 17 30 44,Du Lundi au Vendredi : de 9h à 17h,43.709165,7.270946,4,Ministère de la justice,http://lannuaire.service-public.fr/services_locaux/provence-alpes-cote-d-azur/alpes-maritimes/ti-06088-01.html,3 Place du Palais - Palais Rusca,
4cac9ed7293594648a00ee29,Tribunal d'instance de Manosque,justice-organisme-public,ti,http://www.justice.gouv.fr/, ,4112,4100,MANOSQUE,+33 4 92 72 32 76,+33 4 92 87 61 01,Du Lundi au Vendredi : de 9h à 12h et de 14h à 17h,43.831325,5.784902,6,Ministère de la justice,http://lannuaire.service-public.fr/services_locaux/provence-alpes-cote-d-azur/alpes-de-haute-provence/ti-04112-01.html,rue des tanneurs,
4cac9ed7293594648a00ee28,Tribunal d'Instance de Digne-les-Bains,justice-organisme-public,ti,http://www.justice.gouv.fr/,22 boulevard Victor Hugo BP 158,4070,4005,DIGNE LES BAINS CEDEX,+33 4 92 31 47 48,+33 4 92 31 09 67,Du Lundi au Vendredi : de 8h30 à 11h30 et de 13h30 à 16h30,,,,Ministère de la justice,http://lannuaire.service-public.fr/services_locaux/provence-alpes-cote-d-azur/alpes-de-haute-provence/ti-04070-01.html,,
4cac9ed7293594648a00ee37,Tribunal d'Instance de Pontarlier,justice-organisme-public,ti,http://www.justice.gouv.fr/, ,25462,25300,PONTARLIER,+33 3 81 38 63 00,+33 3 81 38 63 09,"Du Lundi au Jeudi : de 8h15 à 12h et de 13h30 à 17h30
Le Vendredi : de 8h15 à 12h et de 13h30 à 17h",46.9012726,6.3528643,8,Ministère de la justice,http://lannuaire.service-public.fr/services_locaux/franche-comte/doubs/ti-25462-01.html,1 Place Villingen Schwenningen,chg.ti-pontarlier@justice.fr
4cac9ed7293594648a00ee36,Tribunal d'Instance de Montbéliard,justice-organisme-public,ti,http://www.justice.gouv.fr/,Cité Judiciaire Rue Mozart,25388,25209,MONTBELIARD CEDEX,+33 3 81 90 70 00,+33 3 81 90 70 93,Du Lundi au Vendredi : de 8h à 17h,47.5118726,6.7997133,4,Ministère de la justice,http://lannuaire.service-public.fr/services_locaux/franche-comte/doubs/ti-25388-01.html,,mireille.rolle@justice.fr
4cac9ed7293594648a00ee35,Tribunal d'Instance de Besançon,justice-organisme-public,ti,http://www.justice.gouv.fr/,Palais de Justice 1 Rue Mégevand    B.P. 159,25056,25014,BESANCON CEDEX,+33 3 81 65 13 81,+33 3 81 83 55 54,Du Lundi au Vendredi : de 9h à 12h et de 13h30 à 16h30,47.252768,6.005986,6,Ministère de la justice,http://lannuaire.service-public.fr/services_locaux/franche-comte/doubs/ti-25056-01.html,,
4cac9ed7293594648a00ee34,Tribunal d'Instance de Sarlat-la-Canéda,justice-organisme-public,ti,http://www.justice.gouv.fr/,Place de la Grande Rigaudie B.P. 170,24520,24200,SARLAT LA CANEDA,+33 5 53 59 01 73,+33 5 53 29 85 79,Du Lundi au Vendredi : de 9h à 12h et de 14h à 17h,44.887894,1.218017,6,Ministère de la justice,http://lannuaire.service-public.fr/services_locaux/aquitaine/dordogne/ti-24520-01.html,,ti-sarlat@justice.fr
4cac9ed7293594648a00ee33,Tribunal d'Instance de Périgueux,justice-organisme-public,ti,http://www.justice.gouv.fr/,10 rue Maleville B.P. 9042,24322,24019,PERIGUEUX CEDEX,+33 5 53 53 17 42,+33 5 53 35 07 51,"Du Lundi au Vendredi : de 8h à 17h
horaires d'ouverture en juillet et août : 8h30/12h00 - 13h30/17h00",45.186222,0.719246,8,Ministère de la justice,http://lannuaire.service-public.fr/services_locaux/aquitaine/dordogne/ti-24322-01.html,,ti-perigueux@justice.fr
4cac9ed7293594648a00ee32,Tribunal d'Instance de Guingamp,justice-organisme-public,ti,http://www.justice.gouv.fr/,Place de Verdun B.P. 70518,22070,22205,GUINGAMP CEDEX,+33 2 96 40 11 40,+33 2 96 40 08 19,"Du Lundi au Vendredi : de 9h à 12h et de 14h à 17h
Le Samedi : de 9h à 12h",48.560318,-3.148535,6,Ministère de la justice,http://lannuaire.service-public.fr/services_locaux/bretagne/cotes-d-armor/ti-22070-01.html,,
4cac9ed7293594648a00ee31,Tribunal d'Instance de Dinan,justice-organisme-public,ti,http://www.justice.gouv.fr/,20 place Duguesclin BP 11012,22050,22101,DINAN CEDEX,+33 2 96 87 16 96,+33 2 96 87 05 24,Du Lundi au Vendredi : de 8h30 à 12h et de 13h30 à 17h,48.451915,-2.043854,8,Ministère de la justice,http://lannuaire.service-public.fr/services_locaux/bretagne/cotes-d-armor/ti-22050-01.html,,
4cac9ed8293594648a00ee61,Tribunal d'Instance de Gonesse,justice-organisme-public,ti,http://www.justice.gouv.fr/,Place de la Liberté et du 8 Mai 1945      B.P. 18,95277,95501,GONESSE CEDEX,+33 1 34 53 43 73,+33 1 39 87 29 48,Du Lundi au Vendredi : de 9h à 12h30 et de 13h30 à 16h,48.998217,2.419424,6,Ministère de la justice,http://lannuaire.service-public.fr/services_locaux/ile-de-france/val-d-oise/ti-95277-01.html,,
4cac9ed7293594648a00ee3f,Tribunal d'Instance de Montpellier,justice-organisme-public,ti,http://www.justice.gouv.fr/,9 rue de Tarragone CS 29029,34172,34965,MONTPELLIER CEDEX 2,+33 4 34 08 31 42,+33 4 34 08 31 80,Du Lundi au Vendredi : de 8h à 12h et de 13h30 à 17h,43.604817,3.886256,7,Ministère de la justice,http://lannuaire.service-public.fr/services_locaux/languedoc-roussillon/herault/ti-34172-01.html,,
4cac9ed7293594648a00ee3e,Tribunal d'Instance de Muret,justice-organisme-public,ti,http://www.justice.gouv.fr/, ,31395,31600,MURET,+33 5 61 51 96 50,+33 5 61 51 96 57,Du Lundi au Vendredi : de 9h à 12h et de 14h à 17h,43.4610672,1.3262562,8,Ministère de la justice,http://lannuaire.service-public.fr/services_locaux/midi-pyrenees/haute-garonne/ti-31395-01.html,58 Rue Clément Ader,
4cac9ed7293594648a00ee3d,Tribunal d'Instance d'Uzès,justice-organisme-public,ti,http://www.justice.gouv.fr/,Place de l'Evéché B.P. 109,30334,30701,UZES CEDEX,+33 4 66 22 12 12,+33 4 66 22 98 20,"Du Lundi au Vendredi : de 8h30 à 17h30
Sauf vacances scolaires: 8h30-12h00 13h30-17h00.",44.012426,4.421886,6,Ministère de la justice,http://lannuaire.service-public.fr/services_locaux/languedoc-roussillon/gard/ti-30334-01.html,,
4cac9ed7293594648a00ee3c,Tribunal d'Instance de Nîmes,justice-organisme-public,ti,http://www.justice.gouv.fr/, ,30189,30000,NIMES,+33 4 66 36 39 00,+33 4 66 67 76 23,Du Lundi au Vendredi : de 9h à 12h et de 13h30 à 16h30,43.834058,4.364141,8,Ministère de la justice,http://lannuaire.service-public.fr/services_locaux/languedoc-roussillon/gard/ti-30189-01.html,5 avenue Feuchères,
4cac9ed7293594648a00ee3b,Tribunal d'Instance de Bernay,justice-organisme-public,ti,http://www.justice.gouv.fr/,Place Gustave Héon B.P. 761,27056,27307,BERNAY CEDEX,+33 2 32 47 52 20,+33 2 32 45 85 84,Du Lundi au Vendredi : de 8h30 à 12h et de 13h15 à 16h30,49.08966,0.597699,6,Ministère de la justice,http://lannuaire.service-public.fr/services_locaux/haute-normandie/eure/ti-27056-01.html,,
4cac9ed7293594648a00ee3a,Tribunal d'Instance des Andelys,justice-organisme-public,ti,http://www.justice.gouv.fr/,Boulevard du Général de Gaulle B.P. 518,27016,27705,LES ANDELYS CEDEX,+33 2 32 54 11 70,+33 2 32 54 70 08,Du Lundi au Vendredi : de 8h30 à 12h et de 13h30 à 17h30,49.246779,1.420092,6,Ministère de la justice,http://lannuaire.service-public.fr/services_locaux/haute-normandie/eure/ti-27016-01.html,,
4cac9ed7293594648a00ee39,Tribunal d'Instance de Valence,justice-organisme-public,ti,http://www.justice.gouv.fr/,2 Place du Palais B.P. 2127,26362,26021,VALENCE CEDEX,+33 4 75 75 97 77,+33 4 75 42 71 80,Du Lundi au Vendredi : de 8h30 à 12h et de 13h30 à 17h,44.931449,4.892692,8,Ministère de la justice,http://lannuaire.service-public.fr/services_locaux/rhone-alpes/drome/ti-26362-01.html,,
4cac9ed7293594648a00ee38,Tribunal d'Instance de Romans-sur-Isère,justice-organisme-public,ti,http://www.justice.gouv.fr/,place Jules Nadi BP 182,26281,26109,ROMANS SUR ISERE CEDEX,+33 4 75 02 09 17,+33 4 75 02 42 69,"Du Lundi au Jeudi : de 9h à 12h et de 14h à 17h
Le Vendredi : de 9h à 12h et de 14h à 16h",45.044255,5.052603,6,Ministère de la justice,http://lannuaire.service-public.fr/services_locaux/rhone-alpes/drome/ti-26281-01.html,,
4cac9ed7293594648a00ee47,Tribunal d'Instance de Saint-Dizier,justice-organisme-public,ti,http://www.justice.gouv.fr/,Cité Administrative 12 Rue de la Commune de Paris,52448,52100,ST DIZIER,+33 3 25 05 10 46,+33 3 25 05 91 60,"Le Lundi : de 8h30 à 17h
Du Mardi au Jeudi : de 8h30 à 12h et de 13h30 à 17h",48.6362998,4.9474544,8,Ministère de la justice,http://lannuaire.service-public.fr/services_locaux/champagne-ardenne/haute-marne/ti-52448-01.html,,chg.ti-st-dizier@justice.fr
4cac9ed7293594648a00ee46,Tribunal d'Instance de Châlons-en-Champagne,justice-organisme-public,ti,http://www.justice.gouv.fr/, ,51108,51036,CHALONS EN CHAMPAGNE CEDEX,+33 3 26 69 27 35,+33 3 26 21 27 60,Du Lundi au Vendredi : de 8h à 12h et de 13h30 à 17h,48.9591414,4.362875,6,Ministère de la justice,http://lannuaire.service-public.fr/services_locaux/champagne-ardenne/marne/ti-51108-01.html,2 Rue Perrot d'Ablancourt,ti-chalons-en-champagne@justice.fr
4cac9ed7293594648a00ee45,Tribunal d'Instance de Coutances,justice-organisme-public,ti,http://www.justice.gouv.fr/,38 rue Tancrede CS 70838,50147,50208,COUTANCES CEDEX,+33 2 33 76 68 43,+33 2 33 76 68 56,"Du Lundi au Mercredi : de 9h à 12h et de 14h à 17h
Le Jeudi : de 9h à 12h et de 13h30 à 17h
Le Vendredi : de 9h à 12h et de 14h à 16h30",49.048895,-1.44432,7,Ministère de la justice,http://lannuaire.service-public.fr/services_locaux/basse-normandie/manche/ti-50147-01.html,,
4cac9ed7293594648a00ee44,Tribunal d'Instance d'Angers,justice-organisme-public,ti,http://www.justice.gouv.fr/,39 boulevard Pierre de Coubertin CS 21006,49007,49010,ANGERS CEDEX 01,+33 2 44 01 50 32,+33 2 44 01 50 69,Du Lundi au Vendredi : de 8h30 à 12h et de 13h30 à 16h30,47.462877,-0.532309,6,Ministère de la justice,http://lannuaire.service-public.fr/services_locaux/pays-de-la-loire/maine-et-loire/ti-49007-01.html,,
4cac9ed7293594648a00ee43,Tribunal d'Instance d'Orléans,justice-organisme-public,ti,http://www.justice.gouv.fr/, ,45234,45044,ORLEANS CEDEX 1,+33 2 38 74 58 34,+33 2 38 74 57 84,Du Lundi au Vendredi : de 9h à 12h et de 14h à 16h,47.9047677,1.9054466,8,Ministère de la justice,http://lannuaire.service-public.fr/services_locaux/centre/loiret/ti-45234-01.html,44 Rue de la Bretonnerie,
4cac9ed7293594648a00ee42,Tribunal d'Instance de Lons-le-Saunier,justice-organisme-public,ti,http://www.justice.gouv.fr/, ,39300,39015,LONS LE SAUNIER CEDEX,+33 3 84 87 16 00,+33 3 84 35 71 98,Du Lundi au Vendredi : de 8h30 à 12h et de 13h30 à 17h,46.675662,5.556349,7,Ministère de la justice,http://lannuaire.service-public.fr/services_locaux/franche-comte/jura/ti-39300-01.html,1 rue de Balerne,
4cac9ed7293594648a00ee41,Tribunal d'Instance de Dole,justice-organisme-public,ti,http://www.justice.gouv.fr/,39 Rue des Arènes B.P. 38,39198,39107,DOLE CEDEX,+33 3 84 79 42 21,+33 3 84 72 04 88,Du Lundi au Vendredi : de 8h45 à 12h15 et de 13h45 à 17h,47.090849,5.490702,8,Ministère de la justice,http://lannuaire.service-public.fr/services_locaux/franche-comte/jura/ti-39198-01.html,,chg.ti-dole@justice.fr
4cac9ed7293594648a00ee40,Tribunal d'Instance de Bourgoin-Jallieu,justice-organisme-public,ti,http://www.justice.gouv.fr/, ,38053,38307,BOURGOIN JALLIEU CEDEX,+33 4 74 28 89 29,+33 4 74 28 64 07,Du Lundi au Vendredi : de 8h30 à 12h et de 13h30 à 16h30,45.586833,5.27603,8,Ministère de la justice,http://lannuaire.service-public.fr/services_locaux/rhone-alpes/isere/ti-38053-01.html,12 Rue du Tribunal,
4cac9ed7293594648a00ee4f,Tribunal d'Instance d'Oloron-Sainte-Marie,justice-organisme-public,ti,http://www.ca-pau.justice.fr/, ,64422,64400,OLORON STE MARIE,+33 5 59 39 11 56,+33 5 59 39 00 75,Du Lundi au Vendredi : de 8h30 à 12h et de 13h à 17h,43.192283,-0.607396,6,Ministère de la justice,http://lannuaire.service-public.fr/services_locaux/aquitaine/pyrenees-atlantiques/ti-64422-01.html,Place Mendiondou,ca-pau@justice.fr
4cac9ed7293594648a00ee4e,Tribunal d'Instance de Montreuil (62),justice-organisme-public,ti,http://www.justice.gouv.fr/, ,62588,62170,MONTREUIL,+33 3 21 06 06 96,+33 3 21 81 26 08,Du Lundi au Vendredi : de 9h à 12h et de 14h à 16h30,50.4642513,1.7656732,6,Ministère de la justice,http://lannuaire.service-public.fr/services_locaux/nord-pas-de-calais/pas-de-calais/ti-62588-01.html,1 Rue des Carmes,ti-montreuil-sur-mer@justice.fr
4cac9ed7293594648a00ee4d,Tribunal d'instance de Flers,justice-organisme-public,ti,http://www.justice.gouv.fr/,33 rue Jules Gévelot BP 419,61169,61100,FLERS,+33 2 33 65 35 04,+33 2 33 66 19 14,Du Lundi au Vendredi : de 8h45 à 12h et de 13h45 à 17h,48.752577,-0.572748,8,Ministère de la justice,http://lannuaire.service-public.fr/services_locaux/basse-normandie/orne/ti-61169-01.html,,
4cac9ed7293594648a00ee4c,Tribunal d'Instance d'Argentan,justice-organisme-public,ti,http://www.justice.gouv.fr/,Place du Docteur Couinaud BP 80147,61006,61205,ARGENTAN CEDEX,+33 2 33 12 14 50,+33 2 33 35 60 69,Du Lundi au Vendredi : de 8h30 à 12h et de 13h30 à 17h,48.743803,-0.016761,6,Ministère de la justice,http://lannuaire.service-public.fr/services_locaux/basse-normandie/orne/ti-61006-01.html,,
4cac9ed7293594648a00ee4b,Tribunal d'Instance d'Alençon,justice-organisme-public,ti,http://www.justice.gouv.fr/,22 Avenue Wilson B.P. 312,61001,61009,ALENCON CEDEX,+33 2 33 29 42 93,+33 2 33 31 08 28,Du Lundi au Vendredi : de 8h30 à 12h et de 13h30 à 17h,48.43399,0.095661,8,Ministère de la justice,http://lannuaire.service-public.fr/services_locaux/basse-normandie/orne/ti-61001-01.html,,
4cac9ed7293594648a00ee4a,Tribunal d'Instance de Lille,justice-organisme-public,ti,http://www.justice.gouv.fr/,2 Place du Concert B.P. 70449,59350,59021,LILLE CEDEX,+33 3 20 78 33 33,+33 3 20 78 34 52,Du Lundi au Vendredi : de 8h30 à 17h30,50.634844,3.049511,4,Ministère de la justice,http://lannuaire.service-public.fr/services_locaux/nord-pas-de-calais/nord/ti-59350-01.html,,ti-lille@justice.fr
4cac9ed7293594648a00ee49,Tribunal d'Instance d'Avesnes-sur-Helpe,justice-organisme-public,ti,http://www.justice.gouv.fr/,Plateau Chemerault 11 Rue Mal Joffre BP 205,59036,59363,AVESNES SUR HELPE CEDEX,+33 3 27 57 78 00,+33 3 27 57 78 61,"Du Lundi au Jeudi : de 8h à 12h et de 13h à 17h
Le Vendredi : de 8h à 12h et de 13h à 16h",50.123487,3.92827,4,Ministère de la justice,http://lannuaire.service-public.fr/services_locaux/nord-pas-de-calais/nord/ti-59036-01.html,,
4cac9ed7293594648a00ee48,Tribunal d'Instance de Nevers,justice-organisme-public,ti,http://www.justice.gouv.fr/,6 Rue Gambetta B.P. 62,58194,58020,NEVERS CEDEX,+33 3 86 93 02 70,+33 3 86 59 55 03,"Du Lundi au Jeudi : de 8h30 à 12h et de 13h30 à 17h
Le Vendredi : de 8h30 à 12h et de 13h30 à 16h",46.989938,3.159654,8,Ministère de la justice,http://lannuaire.service-public.fr/services_locaux/bourgogne/nievre/ti-58194-01.html,,ti-nevers@justice.fr
4cac9ed7293594648a00ee57,Tribunal d'Instance de Meaux,justice-organisme-public,ti,http://www.justice.gouv.fr/, ,77284,77109,MEAUX CEDEX,+33 1 60 09 76 82,+33 1 60 09 76 80,Du Lundi au Vendredi : de 9h à 12h et de 13h à 16h30,48.9555641,2.890683,6,Ministère de la justice,http://lannuaire.service-public.fr/services_locaux/ile-de-france/seine-et-marne/ti-77284-01.html,Avenue Salvador Allendé,
4cac9ed7293594648a00ee56,Tribunal d'Instance du Havre,justice-organisme-public,ti,http://www.justice.gouv.fr/,70 Rue Mal de Lattre de Tassigny B.P. 7,76351,76083,LE HAVRE CEDEX,+33 2 35 19 73 00,+33 2 35 21 48 79,Du Lundi au Vendredi : de 8h15 à 12h et de 13h15 à 17h,49.491495,0.114275,7,Ministère de la justice,http://lannuaire.service-public.fr/services_locaux/haute-normandie/seine-maritime/ti-76351-01.html,,
4cac9ed7293594648a00ee55,Tribunal d'Instance de Dieppe,justice-organisme-public,ti,http://www.justice.gouv.fr/,Palais de Justice- Square Carnot BP 189,76217,76206,DIEPPE CEDEX,+33 2 35 84 13 08,+33 2 35 40 09 77,"Du Lundi au Mercredi : de 8h30 à 12h et de 13h30 à 16h30
Le Jeudi : de 8h30 à 17h30
Le Vendredi : de 8h30 à 12h et de 13h30 à 16h30",49.924564,1.083359,4,Ministère de la justice,http://lannuaire.service-public.fr/services_locaux/haute-normandie/seine-maritime/ti-76217-01.html,,
4cac9ed7293594648a00ee54,Tribunal d'Instance de La Flèche,justice-organisme-public,ti,http://www.justice.gouv.fr/,1 Rue Saint-Thomas B.P. 131,72154,72205,LA FLECHE CEDEX,+33 2 43 94 04 15,+33 2 43 45 00 85,Du Lundi au Vendredi : de 9h à 11h45 et de 14h à 17h,47.699113,-0.075764,8,Ministère de la justice,http://lannuaire.service-public.fr/services_locaux/pays-de-la-loire/sarthe/ti-72154-01.html,,
4cac9ed7293594648a00ee53,Tribunal d'Instance de Chalon-sur-Saône,justice-organisme-public,ti,http://www.justice.gouv.fr/,Résidence Saint-Germain 1 B  Rue de Bourgogne,71076,71331,CHALON SUR SAONE CEDEX,+33 3 85 97 16 90,+33 3 85 97 16 93,Du Lundi au Vendredi : de 9h à 12h et de 13h30 à 16h30,46.7910553,4.8371648,6,Ministère de la justice,http://lannuaire.service-public.fr/services_locaux/bourgogne/saone-et-loire/ti-71076-01.html,,
4cac9ed7293594648a00ee52,Tribunal d'Instance de Lyon,justice-organisme-public,ti,http://www.justice.gouv.fr/, ,69383,69433,LYON CEDEX 03,+33 4 72 60 75 75,+33 4 72 60 75 70,"Du Lundi au Vendredi : de 8h30 à 17h
Pour les demandes de certificat de nationalité française, uniquement de 9h à 12h.",45.7603055,4.8465698,8,Ministère de la justice,http://lannuaire.service-public.fr/services_locaux/rhone-alpes/rhone/ti-69383-01.html,67 Rue Servient,
4cac9ed7293594648a00ee51,Tribunal d'Instance de Sélestat,justice-organisme-public,ti,http://www.justice.gouv.fr/, ,67462,67600,SELESTAT,+33 3 88 57 40 50,+33 3 88 92 13 30,Du Lundi au Vendredi : de 8h à 12h et de 13h à 17h,48.26047,7.451085,8,Ministère de la justice,http://lannuaire.service-public.fr/services_locaux/alsace/bas-rhin/ti-67462-01.html,17 Allée de la 1ère Armée,chg-ti-selestat@justice.fr
4cac9ed7293594648a00ee50,Tribunal d'Instance d'Haguenau,justice-organisme-public,ti,http://www.justice.gouv.fr/,84 Grand'Rue B.P. 10240,67180,67504,HAGUENAU CEDEX,+33 3 88 06 03 80,+33 3 88 06 03 81,"Du Lundi au Jeudi : de 8h à 12h et de 13h30 à 17h
Le Vendredi : de 8h à 12h et de 13h30 à 16h",48.814282,7.789851,8,Ministère de la justice,http://lannuaire.service-public.fr/services_locaux/alsace/bas-rhin/ti-67180-01.html,,ti-hagenau@justice.fr
4cac9ed7293594648a00ee5f,Tribunal d'Instance de Sens,justice-organisme-public,ti,http://www.justice.gouv.fr/, ,89387,89100,SENS,+33 3 86 83 91 00,+33 3 86 83 91 09,"Du Lundi au Mardi : de 8h30 à 12h et de 13h30 à 17h
Le Mercredi : de 8h30 à 17h30
En juillet et août ouvert le mercredi
de 8h30 à 12h et de 13h30 à 17h

Du Jeudi au Vendredi : de 8h30 à 12h et de 13h30 à 17h",48.1986996,3.2837194,8,Ministère de la justice,http://lannuaire.service-public.fr/services_locaux/bourgogne/yonne/ti-89387-01.html,3 Rue Thenard,
4cac9ed7293594648a00ee5e,Tribunal d'Instance d'Auxerre,justice-organisme-public,ti,http://www.justice.gouv.fr/,Place du Palais de Justice B.P. 39,89024,89010,AUXERRE CEDEX,+33 3 86 72 30 30,+33 3 86 72 30 35,Du Lundi au Vendredi : de 9h à 12h et de 14h à 17h,47.798136,3.567723,6,Ministère de la justice,http://lannuaire.service-public.fr/services_locaux/bourgogne/yonne/ti-89024-01.html,,
4cac9ed7293594648a00ee5d,Tribunal d'Instance de Poitiers,justice-organisme-public,ti,http://www.justice.gouv.fr/,24 Rue du Moulin à Vent B.P. 79,86194,86002,POITIERS CEDEX,+33 5 49 60 55 50,+33 5 49 60 55 71,Du Lundi au Vendredi : de 9h à 12h et de 14h à 17h,46.584375,0.341038,8,Ministère de la justice,http://lannuaire.service-public.fr/services_locaux/poitou-charentes/vienne/ti-86194-01.html,,
4cac9ed7293594648a00ee5c,Tribunal d'Instance de Châtellerault,justice-organisme-public,ti,http://www.justice.gouv.fr/,1 Avenue Georges Clémenceau BP 30630,86066,86106,CHATELLERAULT CEDEX,+33 5 49 21 06 33,+33 5 49 20 13 03,"Du Lundi au Mercredi : de 9h à 12h et de 13h30 à 16h30
Le Jeudi : de 9h à 16h30
Le Vendredi : de 9h à 12h et de 13h30 à 16h30",46.8176518,0.5462628,8,Ministère de la justice,http://lannuaire.service-public.fr/services_locaux/poitou-charentes/vienne/ti-86066-01.html,,
4cac9ed7293594648a00ee5b,Tribunal d'instance de Pertuis,justice-organisme-public,ti,http://www.justice.gouv.fr/, ,84089,84120,PERTUIS,+33 4 90 79 21 16,+33 4 90 09 74 03,Du Lundi au Vendredi : de 9h à 12h,43.6943519,5.5009695,6,Ministère de la justice,http://lannuaire.service-public.fr/services_locaux/provence-alpes-cote-d-azur/vaucluse/ti-84089-01.html,Place du 4 Septembre,
4cac9ed7293594648a00ee5a,Tribunal d'Instance de Brignoles,justice-organisme-public,ti,http://www.justice.gouv.fr/, ,83023,83175,BRIGNOLES CEDEX,+33 4 94 69 63 83,+33 4 94 69 00 89,Du Lundi au Vendredi : de 8h à 16h30,43.4066884,6.0587306,6,Ministère de la justice,http://lannuaire.service-public.fr/services_locaux/provence-alpes-cote-d-azur/var/ti-83023-01.html,1 Place du Palais de Justice,
4cac9ed7293594648a00ee59,Tribunal d'Instance d'Abbeville,justice-organisme-public,ti,http://www.justice.gouv.fr/,79 Rue du Maréchal Foch B.P. 330,80001,80103,ABBEVILLE CEDEX,+33 3 22 25 37 30,+33 3 22 25 37 69,Du Lundi au Vendredi : de 8h45 à 16h45,50.103733,1.837252,8,Ministère de la justice,http://lannuaire.service-public.fr/services_locaux/picardie/somme/ti-80001-01.html,,
4cac9ed7293594648a00ee58,Tribunal d'Instance de Mantes-la-Jolie,justice-organisme-public,ti,http://www.justice.gouv.fr/, ,78361,78200,MANTES LA JOLIE,+33 1 30 98 14 00,+33 1 30 98 14 01,Du Lundi au Vendredi : de 8h45 à 16h45,48.9896755,1.7131315,8,Ministère de la justice,http://lannuaire.service-public.fr/services_locaux/ile-de-france/yvelines/ti-78361-01.html,20 Avenue de la République,
4cac9e6b293594648a001a6c,Tribunal d'Instance de Paris 4ème,justice-organisme-public,ti,http://www.justice.gouv.fr/,Mairie 2 Place Baudoyer,75104,75004,PARIS,+33 1 42 72 11 53,+33 1 42 77 04 05,"Du Lundi au Mardi : de 9h30 à 12h et de 14h à 16h
SAUF PERIODES SCOLAIRES

Le Mercredi : de 9h30 à 12h
SAUF PERIODES SCOLAIRES

Le Jeudi : de 9h30 à 12h et de 14h à 16h
SAUF PERIODES SCOLAIRES

Le Vendredi : de 9h30 à 12h
SAUF PERIODES SCOLAIRES",48.884589,2.340359,6,Ministère de la justice,http://lannuaire.service-public.fr/services_locaux/ile-de-france/paris/ti-75104-01.html,,
